{"type": "FeatureCollection", "features": [{"type": "Feature", "properties": {"ID_CANDIDATO": "CAND-POL-02704", "X": 763060.8750999998, "Y": 9813925.0619, "AMBITO_HOTSPOT": "URBANO", "NIVEL_DEL": 99, "NIVEL_VIOL": 99, "COINCIDENCIA_DV": true, "NIVEL_DEL_RESIDUAL": 90, "NIVEL_VIOL_RESIDUAL": 99, "NIVEL_DV_RESIDUAL": 90, "EVENTOS_D_NUEVOS": 4, "EVENTOS_V_NUEVOS": 3, "EVENTOS_DV_NUEVOS": 7, "EVENTOS_C_NUEVOS": 16, "AREA_HOTSPOT_D_NUEVA_M2": 801.4363353418629, "AREA_HOTSPOT_V_NUEVA_M2": 15186.422799749678, "COINCIDENCIA_DV_RESIDUAL_M2": 801.4363353418629, "ESTADO_HOTSPOT_DV_PREVIO": "PARCIALMENTE CUBIERTO", "SOLAPE_PREVIO_PCT": 75.82884062279119, "DIST_EXISTENTE_M": 231.65077038668093, "DIST_MUNICIPAL_M": 644.6945993966309, "DIST_POLICIA_M": 231.38910526611997, "UPC_CERCANA": "I0410", "NOMBRE_UPC": "PUCARA 1", "DIST_UPC_M": 615.2956677668366, "INTERSECCION_O_NODO": "INTERSECCION_VIAL_URBANA", "GRADO_NODO": 3, "DIST_DESDE_POL24_M": 0.0, "NUCLEOS99_ABANDONADOS": 0, "IDS_99_ABANDONADOS": "", "PREFERIBLE": false, "MENOR_SOLAPE_SIN_REDUCIR_DV": false, "DV_ACTUALES_CONSERVADOS": 7, "MISMA_PLATAFORMA": true, "PLATAFORMA": "PLATAFORMA Q", "AREA_BUFFER_M2": 125651.0900372239, "AREA_SOLAPADA_M2": 95279.76480512638, "AREA_EXCLUSIVA_M2": 30371.32523209731, "APORTE_EXCLUSIVO_PCT": 24.171159377208635, "REDUNDANCIA": "ALTA", "POBLACION_ADICIONAL_ESTIMADA": 529.8493734750374, "POBLACION_ASOCIADA_ESTIMADA": 2283.657776395255, "MANZANAS_ADICIONALES_VALIDAS": 15, "MANZANAS_ADICIONALES_SIN_POBLACION": 3, "POBLACION_ADICIONAL_PARCIAL": true, "POBLACION_ASOCIADA_PARCIAL": true, "CORREDOR_COINCIDENTE": null, "EXISTENTE_MENOS_200M": false, "MUNICIPAL_MENOS_200M": false, "POLICIA_MENOS_200M": false, "EXISTENTE_MENOS_300M": true, "MUNICIPAL_MENOS_300M": false, "POLICIA_MENOS_300M": true, "EXISTENTE_MENOS_400M": true, "MUNICIPAL_MENOS_400M": false, "POLICIA_MENOS_400M": true, "HOTSPOT_D": "GIU100-14-69|GIU100-16-67", "HOTSPOTS_D_CON_APORTE": 1, "HOTSPOTS_D_PRIMERA_ATENCION": 0, "HOTSPOTS_D_COMPLETADOS": 1, "IDS_HOTSPOTS_D_CON_APORTE": "GIU100-14-69", "HOTSPOT_V": "GIU100-13-68|GIU100-13-69|GIU100-13-70|GIU100-13-71|GIU100-14-67|GIU100-14-68|GIU100-14-69|GIU100-14-70|GIU100-15-67|GIU100-15-68|GIU100-15-69|GIU100-15-70|GIU100-16-67", "HOTSPOTS_V_CON_APORTE": 4, "HOTSPOTS_V_PRIMERA_ATENCION": 0, "HOTSPOTS_V_COMPLETADOS": 4, "IDS_HOTSPOTS_V_CON_APORTE": "GIU100-14-70|GIU100-14-69|GIU100-15-70|GIU100-15-69", "GI_D_CELDAS_SITIO": "GIU100-15-69", "GI_D_CLASE_SITIO": "NO SIGNIFICATIVO", "GI_D_ZSCORE_SITIO": -0.38352879131154977, "GI_D_PVALUE_SITIO": 0.7013277268913749, "GI_V_CELDAS_SITIO": "GIU100-15-69", "GI_V_CLASE_SITIO": "HOTSPOT 95%", "GI_V_ZSCORE_SITIO": 2.230409576025968, "GI_V_PVALUE_SITIO": 0.025720264423434874, "DIST_RED_VIAL_CONTEXTO_M": 0.0, "VIA_CONTEXTO_CERCANA": "MALDONADO", "PERDIDOS_D": 0, "GANADOS_D": 0, "TOTAL_CUBIERTO_D": 1785, "PERDIDOS_V": 0, "GANADOS_V": 0, "TOTAL_CUBIERTO_V": 989, "PERDIDOS_C": 0, "GANADOS_C": 0, "TOTAL_CUBIERTO_C": 5003, "OPCION": "ACTUAL", "ESTADO": "COMPARACION_NO_INCORPORADA", "RADIO_M": 200}, "geometry": {"type": "Point", "coordinates": [-78.63560078506988, -1.6820314324789567]}}, {"type": "Feature", "properties": {"ID_CANDIDATO": "CAND-POL-02759", "X": 763202.7679000003, "Y": 9814058.2011, "AMBITO_HOTSPOT": "URBANO", "NIVEL_DEL": 90, "NIVEL_VIOL": 99, "COINCIDENCIA_DV": true, "NIVEL_DEL_RESIDUAL": 90, "NIVEL_VIOL_RESIDUAL": 99, "NIVEL_DV_RESIDUAL": 90, "EVENTOS_D_NUEVOS": 8, "EVENTOS_V_NUEVOS": 7, "EVENTOS_DV_NUEVOS": 15, "EVENTOS_C_NUEVOS": 21, "AREA_HOTSPOT_D_NUEVA_M2": 46.90502917633043, "AREA_HOTSPOT_V_NUEVA_M2": 13150.284689582739, "COINCIDENCIA_DV_RESIDUAL_M2": 46.90502917633043, "ESTADO_HOTSPOT_DV_PREVIO": "PARCIALMENTE CUBIERTO", "SOLAPE_PREVIO_PCT": 25.41859810113711, "DIST_EXISTENTE_M": 416.3294138151543, "DIST_MUNICIPAL_M": 483.13882626998867, "DIST_POLICIA_M": 270.8212161348895, "UPC_CERCANA": "I0410", "NOMBRE_UPC": "PUCARA 1", "DIST_UPC_M": 803.8998621715538, "INTERSECCION_O_NODO": "INTERSECCION_VIAL_URBANA", "GRADO_NODO": 3, "DIST_DESDE_POL24_M": 194.57546933939392, "NUCLEOS99_ABANDONADOS": 0, "IDS_99_ABANDONADOS": "", "DV_ACTUALES_CONSERVADOS": 6, "MISMA_PLATAFORMA": true, "MENOR_SOLAPE_SIN_REDUCIR_DV": true, "PREFERIBLE": true, "PLATAFORMA": "PLATAFORMA Q", "AREA_BUFFER_M2": 125651.0900372239, "AREA_SOLAPADA_M2": 31938.745586259873, "AREA_EXCLUSIVA_M2": 93712.34445096282, "APORTE_EXCLUSIVO_PCT": 74.58140189886194, "REDUNDANCIA": "BAJA", "POBLACION_ADICIONAL_ESTIMADA": 1012.6055713608811, "POBLACION_ASOCIADA_ESTIMADA": 1423.7428895102503, "MANZANAS_ADICIONALES_VALIDAS": 22, "MANZANAS_ADICIONALES_SIN_POBLACION": 3, "POBLACION_ADICIONAL_PARCIAL": true, "POBLACION_ASOCIADA_PARCIAL": true, "CORREDOR_COINCIDENTE": "CICLOVIAS", "EXISTENTE_MENOS_200M": false, "MUNICIPAL_MENOS_200M": false, "POLICIA_MENOS_200M": false, "EXISTENTE_MENOS_300M": false, "MUNICIPAL_MENOS_300M": false, "POLICIA_MENOS_300M": true, "EXISTENTE_MENOS_400M": false, "MUNICIPAL_MENOS_400M": false, "POLICIA_MENOS_400M": true, "HOTSPOT_D": "GIU100-14-69", "HOTSPOTS_D_CON_APORTE": 1, "HOTSPOTS_D_PRIMERA_ATENCION": 0, "HOTSPOTS_D_COMPLETADOS": 0, "IDS_HOTSPOTS_D_CON_APORTE": "GIU100-14-69", "HOTSPOT_V": "GIU100-14-69|GIU100-14-70|GIU100-15-69|GIU100-15-70", "HOTSPOTS_V_CON_APORTE": 4, "HOTSPOTS_V_PRIMERA_ATENCION": 0, "HOTSPOTS_V_COMPLETADOS": 2, "IDS_HOTSPOTS_V_CON_APORTE": "GIU100-14-70|GIU100-14-69|GIU100-15-70|GIU100-15-69", "GI_D_CELDAS_SITIO": "GIU100-16-71", "GI_D_CLASE_SITIO": "NO SIGNIFICATIVO", "GI_D_ZSCORE_SITIO": 0.24237296765885585, "GI_D_PVALUE_SITIO": 0.8084911786855664, "GI_V_CELDAS_SITIO": "GIU100-16-71", "GI_V_CLASE_SITIO": "NO SIGNIFICATIVO", "GI_V_ZSCORE_SITIO": 0.46503022036758457, "GI_V_PVALUE_SITIO": 0.6419098152571237, "DIST_RED_VIAL_CONTEXTO_M": 0.0, "VIA_CONTEXTO_CERCANA": "MALDONADO", "PERDIDOS_D": 0, "GANADOS_D": 4, "TOTAL_CUBIERTO_D": 1789, "PERDIDOS_V": 1, "GANADOS_V": 5, "TOTAL_CUBIERTO_V": 993, "PERDIDOS_C": 4, "GANADOS_C": 9, "TOTAL_CUBIERTO_C": 5008, "OPCION": "ALTERNATIVA_1", "ESTADO": "COMPARACION_NO_INCORPORADA", "RADIO_M": 200}, "geometry": {"type": "Point", "coordinates": [-78.63432762802341, -1.6808263693174592]}}, {"type": "Feature", "properties": {"ID_CANDIDATO": "CAND-POL-02762", "X": 763211.1333999997, "Y": 9814067.9904, "AMBITO_HOTSPOT": "URBANO", "NIVEL_DEL": 0, "NIVEL_VIOL": 99, "COINCIDENCIA_DV": false, "NIVEL_DEL_RESIDUAL": 0, "NIVEL_VIOL_RESIDUAL": 99, "NIVEL_DV_RESIDUAL": 0, "EVENTOS_D_NUEVOS": 8, "EVENTOS_V_NUEVOS": 6, "EVENTOS_DV_NUEVOS": 14, "EVENTOS_C_NUEVOS": 21, "AREA_HOTSPOT_D_NUEVA_M2": 0.0, "AREA_HOTSPOT_V_NUEVA_M2": 12198.236646253783, "COINCIDENCIA_DV_RESIDUAL_M2": 0.0, "ESTADO_HOTSPOT_DV_PREVIO": "SIN REMANENTE D/V", "SOLAPE_PREVIO_PCT": 22.502823514794706, "DIST_EXISTENTE_M": 428.465406100875, "DIST_MUNICIPAL_M": 474.30980931935085, "DIST_POLICIA_M": 276.8782051292531, "UPC_CERCANA": "I0410", "NOMBRE_UPC": "PUCARA 1", "DIST_UPC_M": 816.1059356777129, "INTERSECCION_O_NODO": "INTERSECCION_VIAL_URBANA", "GRADO_NODO": 3, "DIST_DESDE_POL24_M": 207.37915235435744, "NUCLEOS99_ABANDONADOS": 0, "IDS_99_ABANDONADOS": "", "DV_ACTUALES_CONSERVADOS": 5, "MISMA_PLATAFORMA": true, "MENOR_SOLAPE_SIN_REDUCIR_DV": true, "PREFERIBLE": true, "PLATAFORMA": "PLATAFORMA Q", "AREA_BUFFER_M2": 125651.0900372239, "AREA_SOLAPADA_M2": 28275.043035492286, "AREA_EXCLUSIVA_M2": 97376.04700173173, "APORTE_EXCLUSIVO_PCT": 77.49717648520539, "REDUNDANCIA": "BAJA", "POBLACION_ADICIONAL_ESTIMADA": 991.7123106055661, "POBLACION_ASOCIADA_ESTIMADA": 1353.6415773779563, "MANZANAS_ADICIONALES_VALIDAS": 22, "MANZANAS_ADICIONALES_SIN_POBLACION": 3, "POBLACION_ADICIONAL_PARCIAL": true, "POBLACION_ASOCIADA_PARCIAL": true, "CORREDOR_COINCIDENTE": "CICLOVIAS", "EXISTENTE_MENOS_200M": false, "MUNICIPAL_MENOS_200M": false, "POLICIA_MENOS_200M": false, "EXISTENTE_MENOS_300M": false, "MUNICIPAL_MENOS_300M": false, "POLICIA_MENOS_300M": true, "EXISTENTE_MENOS_400M": false, "MUNICIPAL_MENOS_400M": false, "POLICIA_MENOS_400M": true, "HOTSPOT_D": null, "HOTSPOTS_D_CON_APORTE": 0, "HOTSPOTS_D_PRIMERA_ATENCION": 0, "HOTSPOTS_D_COMPLETADOS": 0, "IDS_HOTSPOTS_D_CON_APORTE": null, "HOTSPOT_V": "GIU100-14-70|GIU100-15-69|GIU100-15-70", "HOTSPOTS_V_CON_APORTE": 2, "HOTSPOTS_V_PRIMERA_ATENCION": 0, "HOTSPOTS_V_COMPLETADOS": 0, "IDS_HOTSPOTS_V_CON_APORTE": "GIU100-15-70|GIU100-15-69", "GI_D_CELDAS_SITIO": "GIU100-16-71", "GI_D_CLASE_SITIO": "NO SIGNIFICATIVO", "GI_D_ZSCORE_SITIO": 0.24237296765885585, "GI_D_PVALUE_SITIO": 0.8084911786855664, "GI_V_CELDAS_SITIO": "GIU100-16-71", "GI_V_CLASE_SITIO": "NO SIGNIFICATIVO", "GI_V_ZSCORE_SITIO": 0.46503022036758457, "GI_V_PVALUE_SITIO": 0.6419098152571237, "DIST_RED_VIAL_CONTEXTO_M": 0.0, "VIA_CONTEXTO_CERCANA": "MALDONADO", "PERDIDOS_D": 0, "GANADOS_D": 4, "TOTAL_CUBIERTO_D": 1789, "PERDIDOS_V": 2, "GANADOS_V": 5, "TOTAL_CUBIERTO_V": 992, "PERDIDOS_C": 4, "GANADOS_C": 9, "TOTAL_CUBIERTO_C": 5008, "OPCION": "ALTERNATIVA_2", "ESTADO": "COMPARACION_NO_INCORPORADA", "RADIO_M": 200}, "geometry": {"type": "Point", "coordinates": [-78.63425258833445, -1.6807377875733625]}}, {"type": "Feature", "properties": {"ID_CANDIDATO": "CAND-POL-00491", "X": 757479.5180000002, "Y": 9818092.9015, "AMBITO_HOTSPOT": "URBANO", "NIVEL_DEL": 0, "NIVEL_VIOL": 99, "COINCIDENCIA_DV": false, "NIVEL_DEL_RESIDUAL": 0, "NIVEL_VIOL_RESIDUAL": 99, "NIVEL_DV_RESIDUAL": 0, "EVENTOS_D_NUEVOS": 8, "EVENTOS_V_NUEVOS": 6, "EVENTOS_DV_NUEVOS": 14, "EVENTOS_C_NUEVOS": 3, "AREA_HOTSPOT_D_NUEVA_M2": 0.0, "AREA_HOTSPOT_V_NUEVA_M2": 10835.189929016198, "COINCIDENCIA_DV_RESIDUAL_M2": 0.0, "ESTADO_HOTSPOT_DV_PREVIO": "SIN REMANENTE D/V", "SOLAPE_PREVIO_PCT": 7.530557971160855, "DIST_EXISTENTE_M": 795.5824824490035, "DIST_MUNICIPAL_M": 1633.942336586502, "DIST_POLICIA_M": 342.15694520310956, "UPC_CERCANA": "I0395", "NOMBRE_UPC": "24 DE MAYO", "DIST_UPC_M": 279.0781030198155, "INTERSECCION_O_NODO": "INTERSECCION_VIAL_URBANA", "GRADO_NODO": 3, "DIST_DESDE_POL24_M": 6965.80462036148, "NUCLEOS99_ABANDONADOS": 0, "IDS_99_ABANDONADOS": "", "DV_ACTUALES_CONSERVADOS": 0, "MISMA_PLATAFORMA": false, "MENOR_SOLAPE_SIN_REDUCIR_DV": true, "PREFERIBLE": true, "PLATAFORMA": "PLATAFORMA C", "AREA_BUFFER_M2": 125651.0900372239, "AREA_SOLAPADA_M2": 9462.228176648667, "AREA_EXCLUSIVA_M2": 116188.86186057386, "APORTE_EXCLUSIVO_PCT": 92.46944202883805, "REDUNDANCIA": "BAJA", "POBLACION_ADICIONAL_ESTIMADA": 603.5897552742802, "POBLACION_ASOCIADA_ESTIMADA": 678.749441257279, "MANZANAS_ADICIONALES_VALIDAS": 24, "MANZANAS_ADICIONALES_SIN_POBLACION": 4, "POBLACION_ADICIONAL_PARCIAL": true, "POBLACION_ASOCIADA_PARCIAL": true, "CORREDOR_COINCIDENTE": null, "EXISTENTE_MENOS_200M": false, "MUNICIPAL_MENOS_200M": false, "POLICIA_MENOS_200M": false, "EXISTENTE_MENOS_300M": false, "MUNICIPAL_MENOS_300M": false, "POLICIA_MENOS_300M": false, "EXISTENTE_MENOS_400M": false, "MUNICIPAL_MENOS_400M": false, "POLICIA_MENOS_400M": true, "HOTSPOT_D": null, "HOTSPOTS_D_CON_APORTE": 0, "HOTSPOTS_D_PRIMERA_ATENCION": 0, "HOTSPOTS_D_COMPLETADOS": 0, "IDS_HOTSPOTS_D_CON_APORTE": null, "HOTSPOT_V": "GIU100-54-13|GIU100-54-14|GIU100-55-14|GIU100-55-15|GIU100-56-15", "HOTSPOTS_V_CON_APORTE": 4, "HOTSPOTS_V_PRIMERA_ATENCION": 0, "HOTSPOTS_V_COMPLETADOS": 0, "IDS_HOTSPOTS_V_CON_APORTE": "GIU100-54-13|GIU100-54-14|GIU100-55-14|GIU100-56-15", "GI_D_CELDAS_SITIO": "GIU100-56-13", "GI_D_CLASE_SITIO": "NO SIGNIFICATIVO", "GI_D_ZSCORE_SITIO": -0.38352879131154977, "GI_D_PVALUE_SITIO": 0.7013277268913749, "GI_V_CELDAS_SITIO": "GIU100-56-13", "GI_V_CLASE_SITIO": "NO SIGNIFICATIVO", "GI_V_ZSCORE_SITIO": 0.21283316955924406, "GI_V_PVALUE_SITIO": 0.8314570908517382, "DIST_RED_VIAL_CONTEXTO_M": 0.0, "VIA_CONTEXTO_CERCANA": "LIZARZABURU", "PERDIDOS_D": 4, "GANADOS_D": 8, "TOTAL_CUBIERTO_D": 1789, "PERDIDOS_V": 3, "GANADOS_V": 6, "TOTAL_CUBIERTO_V": 992, "PERDIDOS_C": 16, "GANADOS_C": 3, "TOTAL_CUBIERTO_C": 4990, "OPCION": "ALTERNATIVA_3", "ESTADO": "COMPARACION_NO_INCORPORADA", "RADIO_M": 200}, "geometry": {"type": "Point", "coordinates": [-78.68578232555879, -1.6444154618498878]}}, {"type": "Feature", "properties": {"ID_CANDIDATO": "CAND-POL-00484", "X": 757445.7490999997, "Y": 9818085.0288, "AMBITO_HOTSPOT": "URBANO", "NIVEL_DEL": 0, "NIVEL_VIOL": 99, "COINCIDENCIA_DV": false, "NIVEL_DEL_RESIDUAL": 0, "NIVEL_VIOL_RESIDUAL": 99, "NIVEL_DV_RESIDUAL": 0, "EVENTOS_D_NUEVOS": 7, "EVENTOS_V_NUEVOS": 7, "EVENTOS_DV_NUEVOS": 14, "EVENTOS_C_NUEVOS": 3, "AREA_HOTSPOT_D_NUEVA_M2": 0.0, "AREA_HOTSPOT_V_NUEVA_M2": 9756.490686116227, "COINCIDENCIA_DV_RESIDUAL_M2": 0.0, "ESTADO_HOTSPOT_DV_PREVIO": "SIN REMANENTE D/V", "SOLAPE_PREVIO_PCT": 5.944252982969608, "DIST_EXISTENTE_M": 820.1025404103285, "DIST_MUNICIPAL_M": 1668.2458165347887, "DIST_POLICIA_M": 364.72378902050855, "UPC_CERCANA": "I0395", "NOMBRE_UPC": "24 DE MAYO", "DIST_UPC_M": 297.7543501980998, "INTERSECCION_O_NODO": "INTERSECCION_VIAL_URBANA", "GRADO_NODO": 4, "DIST_DESDE_POL24_M": 6988.201814843097, "NUCLEOS99_ABANDONADOS": 0, "IDS_99_ABANDONADOS": "", "DV_ACTUALES_CONSERVADOS": 0, "MISMA_PLATAFORMA": false, "MENOR_SOLAPE_SIN_REDUCIR_DV": true, "PREFERIBLE": true, "PLATAFORMA": "PLATAFORMA C", "AREA_BUFFER_M2": 125651.0900372239, "AREA_SOLAPADA_M2": 7469.018667671509, "AREA_EXCLUSIVA_M2": 118182.07136955217, "APORTE_EXCLUSIVO_PCT": 94.05574701703021, "REDUNDANCIA": "BAJA", "POBLACION_ADICIONAL_ESTIMADA": 640.54799411527, "POBLACION_ASOCIADA_ESTIMADA": 688.0482285595664, "MANZANAS_ADICIONALES_VALIDAS": 24, "MANZANAS_ADICIONALES_SIN_POBLACION": 4, "POBLACION_ADICIONAL_PARCIAL": true, "POBLACION_ASOCIADA_PARCIAL": true, "CORREDOR_COINCIDENTE": null, "EXISTENTE_MENOS_200M": false, "MUNICIPAL_MENOS_200M": false, "POLICIA_MENOS_200M": false, "EXISTENTE_MENOS_300M": false, "MUNICIPAL_MENOS_300M": false, "POLICIA_MENOS_300M": false, "EXISTENTE_MENOS_400M": false, "MUNICIPAL_MENOS_400M": false, "POLICIA_MENOS_400M": true, "HOTSPOT_D": null, "HOTSPOTS_D_CON_APORTE": 0, "HOTSPOTS_D_PRIMERA_ATENCION": 0, "HOTSPOTS_D_COMPLETADOS": 0, "IDS_HOTSPOTS_D_CON_APORTE": null, "HOTSPOT_V": "GIU100-54-13|GIU100-54-14|GIU100-55-14|GIU100-55-15|GIU100-56-15", "HOTSPOTS_V_CON_APORTE": 4, "HOTSPOTS_V_PRIMERA_ATENCION": 0, "HOTSPOTS_V_COMPLETADOS": 0, "IDS_HOTSPOTS_V_CON_APORTE": "GIU100-54-13|GIU100-54-14|GIU100-55-14|GIU100-56-15", "GI_D_CELDAS_SITIO": "GIU100-56-13", "GI_D_CLASE_SITIO": "NO SIGNIFICATIVO", "GI_D_ZSCORE_SITIO": -0.38352879131154977, "GI_D_PVALUE_SITIO": 0.7013277268913749, "GI_V_CELDAS_SITIO": "GIU100-56-13", "GI_V_CLASE_SITIO": "NO SIGNIFICATIVO", "GI_V_ZSCORE_SITIO": 0.21283316955924406, "GI_V_PVALUE_SITIO": 0.8314570908517382, "DIST_RED_VIAL_CONTEXTO_M": 0.0, "VIA_CONTEXTO_CERCANA": "LIZARZABURU", "PERDIDOS_D": 4, "GANADOS_D": 7, "TOTAL_CUBIERTO_D": 1788, "PERDIDOS_V": 3, "GANADOS_V": 7, "TOTAL_CUBIERTO_V": 993, "PERDIDOS_C": 16, "GANADOS_C": 3, "TOTAL_CUBIERTO_C": 4990, "OPCION": "ALTERNATIVA_4", "ESTADO": "COMPARACION_NO_INCORPORADA", "RADIO_M": 200}, "geometry": {"type": "Point", "coordinates": [-78.68608559107867, -1.6444869835771854]}}, {"type": "Feature", "properties": {"ID_CANDIDATO": "CAND-POL-02797", "X": 763333.0724999998, "Y": 9813979.0141, "AMBITO_HOTSPOT": "URBANO", "NIVEL_DEL": 0, "NIVEL_VIOL": 99, "COINCIDENCIA_DV": false, "NIVEL_DEL_RESIDUAL": 0, "NIVEL_VIOL_RESIDUAL": 99, "NIVEL_DV_RESIDUAL": 0, "EVENTOS_D_NUEVOS": 7, "EVENTOS_V_NUEVOS": 7, "EVENTOS_DV_NUEVOS": 14, "EVENTOS_C_NUEVOS": 18, "AREA_HOTSPOT_D_NUEVA_M2": 0.0, "AREA_HOTSPOT_V_NUEVA_M2": 5987.684730797363, "COINCIDENCIA_DV_RESIDUAL_M2": 0.0, "ESTADO_HOTSPOT_DV_PREVIO": "SIN REMANENTE D/V", "SOLAPE_PREVIO_PCT": 11.963192351030393, "DIST_EXISTENTE_M": 508.1669280610222, "DIST_MUNICIPAL_M": 367.99351513833705, "DIST_POLICIA_M": 325.9893738158225, "UPC_CERCANA": "I0410", "NOMBRE_UPC": "PUCARA 1", "DIST_UPC_M": 885.6651637347939, "INTERSECCION_O_NODO": "INTERSECCION_VIAL_URBANA", "GRADO_NODO": 3, "DIST_DESDE_POL24_M": 277.4928187389542, "NUCLEOS99_ABANDONADOS": 0, "IDS_99_ABANDONADOS": "", "DV_ACTUALES_CONSERVADOS": 4, "MISMA_PLATAFORMA": true, "MENOR_SOLAPE_SIN_REDUCIR_DV": true, "PREFERIBLE": true, "PLATAFORMA": "PLATAFORMA Q", "AREA_BUFFER_M2": 125651.0900372239, "AREA_SOLAPADA_M2": 15031.881592319482, "AREA_EXCLUSIVA_M2": 110619.2084449064, "APORTE_EXCLUSIVO_PCT": 88.03680764897119, "REDUNDANCIA": "BAJA", "POBLACION_ADICIONAL_ESTIMADA": 1033.364776653804, "POBLACION_ASOCIADA_ESTIMADA": 1244.0816978726268, "MANZANAS_ADICIONALES_VALIDAS": 22, "MANZANAS_ADICIONALES_SIN_POBLACION": 2, "POBLACION_ADICIONAL_PARCIAL": true, "POBLACION_ASOCIADA_PARCIAL": true, "CORREDOR_COINCIDENTE": "CICLOVIAS", "EXISTENTE_MENOS_200M": false, "MUNICIPAL_MENOS_200M": false, "POLICIA_MENOS_200M": false, "EXISTENTE_MENOS_300M": false, "MUNICIPAL_MENOS_300M": false, "POLICIA_MENOS_300M": false, "EXISTENTE_MENOS_400M": false, "MUNICIPAL_MENOS_400M": true, "POLICIA_MENOS_400M": true, "HOTSPOT_D": null, "HOTSPOTS_D_CON_APORTE": 0, "HOTSPOTS_D_PRIMERA_ATENCION": 0, "HOTSPOTS_D_COMPLETADOS": 0, "IDS_HOTSPOTS_D_CON_APORTE": null, "HOTSPOT_V": "GIU100-13-71|GIU100-14-70|GIU100-15-70", "HOTSPOTS_V_CON_APORTE": 1, "HOTSPOTS_V_PRIMERA_ATENCION": 0, "HOTSPOTS_V_COMPLETADOS": 0, "IDS_HOTSPOTS_V_CON_APORTE": "GIU100-15-70", "GI_D_CELDAS_SITIO": "GIU100-15-72", "GI_D_CLASE_SITIO": "NO SIGNIFICATIVO", "GI_D_ZSCORE_SITIO": 0.11719261586477472, "GI_D_PVALUE_SITIO": 0.906707418284918, "GI_V_CELDAS_SITIO": "GIU100-15-72", "GI_V_CLASE_SITIO": "NO SIGNIFICATIVO", "GI_V_ZSCORE_SITIO": 0.46503022036758457, "GI_V_PVALUE_SITIO": 0.6419098152571237, "DIST_RED_VIAL_CONTEXTO_M": 0.0, "VIA_CONTEXTO_CERCANA": "MALDONADO", "PERDIDOS_D": 1, "GANADOS_D": 4, "TOTAL_CUBIERTO_D": 1788, "PERDIDOS_V": 2, "GANADOS_V": 6, "TOTAL_CUBIERTO_V": 993, "PERDIDOS_C": 9, "GANADOS_C": 11, "TOTAL_CUBIERTO_C": 5005, "OPCION": "ALTERNATIVA_5", "ESTADO": "COMPARACION_NO_INCORPORADA", "RADIO_M": 200}, "geometry": {"type": "Point", "coordinates": [-78.63315625586294, -1.6815407497744037]}}]}