{"type": "FeatureCollection", "features": [{"type": "Feature", "properties": {"ID_CANDIDATO": "CAND-POL-02764", "X": 763216.6558999997, "Y": 9813955.9123, "AMBITO_HOTSPOT": "URBANO", "NIVEL_DEL": 90, "NIVEL_VIOL": 99, "COINCIDENCIA_DV": true, "NIVEL_DEL_RESIDUAL": 90, "NIVEL_VIOL_RESIDUAL": 99, "NIVEL_DV_RESIDUAL": 90, "EVENTOS_D_NUEVOS": 5, "EVENTOS_V_NUEVOS": 7, "EVENTOS_DV_NUEVOS": 12, "EVENTOS_C_NUEVOS": 25, "AREA_HOTSPOT_D_NUEVA_M2": 801.4363353418629, "AREA_HOTSPOT_V_NUEVA_M2": 15186.422799749678, "COINCIDENCIA_DV_RESIDUAL_M2": 801.4363353418629, "ESTADO_HOTSPOT_DV_PREVIO": "PARCIALMENTE CUBIERTO", "SOLAPE_PREVIO_PCT": 34.545082609555045, "DIST_EXISTENTE_M": 389.7261985178247, "DIST_MUNICIPAL_M": 486.2330814395119, "DIST_POLICIA_M": 256.87210560250696, "UPC_CERCANA": "I0410", "NOMBRE_UPC": "PUCARA 1", "DIST_UPC_M": 769.399033542489, "INTERSECCION_O_NODO": "INTERSECCION_VIAL_URBANA", "GRADO_NODO": 3, "DIST_DESDE_POL24_M": 158.80618636815765, "NUCLEOS99_ABANDONADOS": 0, "IDS_99_ABANDONADOS": "", "DV_ACTUALES_CONSERVADOS": 7, "MISMA_PLATAFORMA": true, "MENOR_SOLAPE_SIN_REDUCIR_DV": true, "PREFERIBLE": true, "OPCION_COMPLEMENTARIA": "LOCAL_PLATAFORMA_Q", "PLATAFORMA": "PLATAFORMA Q", "AREA_BUFFER_M2": 125651.0900372239, "AREA_SOLAPADA_M2": 43406.27285316538, "AREA_EXCLUSIVA_M2": 82244.81718405795, "APORTE_EXCLUSIVO_PCT": 65.4549173904445, "REDUNDANCIA": "BAJA", "POBLACION_ADICIONAL_ESTIMADA": 1222.2720824519167, "POBLACION_ASOCIADA_ESTIMADA": 1974.3135461989718, "MANZANAS_ADICIONALES_VALIDAS": 25, "MANZANAS_ADICIONALES_SIN_POBLACION": 3, "POBLACION_ADICIONAL_PARCIAL": true, "POBLACION_ASOCIADA_PARCIAL": true, "CORREDOR_COINCIDENTE": null, "EXISTENTE_MENOS_200M": false, "MUNICIPAL_MENOS_200M": false, "POLICIA_MENOS_200M": false, "EXISTENTE_MENOS_300M": false, "MUNICIPAL_MENOS_300M": false, "POLICIA_MENOS_300M": true, "EXISTENTE_MENOS_400M": true, "MUNICIPAL_MENOS_400M": false, "POLICIA_MENOS_400M": true, "HOTSPOT_D": "GIU100-14-69", "HOTSPOTS_D_CON_APORTE": 1, "HOTSPOTS_D_PRIMERA_ATENCION": 0, "HOTSPOTS_D_COMPLETADOS": 1, "IDS_HOTSPOTS_D_CON_APORTE": "GIU100-14-69", "HOTSPOT_V": "GIU100-13-69|GIU100-13-70|GIU100-13-71|GIU100-14-69|GIU100-14-70|GIU100-15-69|GIU100-15-70", "HOTSPOTS_V_CON_APORTE": 4, "HOTSPOTS_V_PRIMERA_ATENCION": 0, "HOTSPOTS_V_COMPLETADOS": 4, "IDS_HOTSPOTS_V_CON_APORTE": "GIU100-14-70|GIU100-14-69|GIU100-15-70|GIU100-15-69", "GI_D_CELDAS_SITIO": "GIU100-15-71", "GI_D_CLASE_SITIO": "NO SIGNIFICATIVO", "GI_D_ZSCORE_SITIO": -0.007987735929306395, "GI_D_PVALUE_SITIO": 0.9936267765990865, "GI_V_CELDAS_SITIO": "GIU100-15-71", "GI_V_CLASE_SITIO": "NO SIGNIFICATIVO", "GI_V_ZSCORE_SITIO": 0.9694243219842656, "GI_V_PVALUE_SITIO": 0.33233352200448757, "DIST_RED_VIAL_CONTEXTO_M": 0.0, "VIA_CONTEXTO_CERCANA": "MALDONADO", "PERDIDOS_D": 0, "GANADOS_D": 1, "TOTAL_CUBIERTO_D": 1786, "PERDIDOS_V": 0, "GANADOS_V": 4, "TOTAL_CUBIERTO_V": 993, "PERDIDOS_C": 0, "GANADOS_C": 9, "TOTAL_CUBIERTO_C": 5012, "OPCION": "LOCAL_PLATAFORMA_Q", "ESTADO": "COMPARACION_NO_INCORPORADA", "RADIO_M": 200}, "geometry": {"type": "Point", "coordinates": [-78.63420176004402, -1.6817508539480268]}}, {"type": "Feature", "properties": {"ID_CANDIDATO": "CAND-POL-02705", "X": 763061.2540999996, "Y": 9813946.1756, "AMBITO_HOTSPOT": "URBANO", "NIVEL_DEL": 99, "NIVEL_VIOL": 99, "COINCIDENCIA_DV": true, "NIVEL_DEL_RESIDUAL": 90, "NIVEL_VIOL_RESIDUAL": 99, "NIVEL_DV_RESIDUAL": 90, "EVENTOS_D_NUEVOS": 4, "EVENTOS_V_NUEVOS": 4, "EVENTOS_DV_NUEVOS": 8, "EVENTOS_C_NUEVOS": 16, "AREA_HOTSPOT_D_NUEVA_M2": 801.4363353418629, "AREA_HOTSPOT_V_NUEVA_M2": 15186.422799749678, "COINCIDENCIA_DV_RESIDUAL_M2": 801.4363353418629, "ESTADO_HOTSPOT_DV_PREVIO": "PARCIALMENTE CUBIERTO", "SOLAPE_PREVIO_PCT": 73.8461572651153, "DIST_EXISTENTE_M": 239.48382666778292, "DIST_MUNICIPAL_M": 639.3722265686148, "DIST_POLICIA_M": 213.9098430703476, "UPC_CERCANA": "I0410", "NOMBRE_UPC": "PUCARA 1", "DIST_UPC_M": 625.4539536269295, "INTERSECCION_O_NODO": "INTERSECCION_VIAL_URBANA", "GRADO_NODO": 3, "DIST_DESDE_POL24_M": 21.117101333133483, "NUCLEOS99_ABANDONADOS": 0, "IDS_99_ABANDONADOS": "", "DV_ACTUALES_CONSERVADOS": 7, "MISMA_PLATAFORMA": true, "MENOR_SOLAPE_SIN_REDUCIR_DV": true, "PREFERIBLE": true, "OPCION_COMPLEMENTARIA": "MEJORA_MAS_CERCANA", "PLATAFORMA": "PLATAFORMA Q", "AREA_BUFFER_M2": 125651.0900372239, "AREA_SOLAPADA_M2": 92788.50155421998, "AREA_EXCLUSIVA_M2": 32862.58848300328, "APORTE_EXCLUSIVO_PCT": 26.153842734884194, "REDUNDANCIA": "ALTA", "POBLACION_ADICIONAL_ESTIMADA": 569.8459343325594, "POBLACION_ASOCIADA_ESTIMADA": 2258.7166582133773, "MANZANAS_ADICIONALES_VALIDAS": 16, "MANZANAS_ADICIONALES_SIN_POBLACION": 3, "POBLACION_ADICIONAL_PARCIAL": true, "POBLACION_ASOCIADA_PARCIAL": true, "CORREDOR_COINCIDENTE": null, "EXISTENTE_MENOS_200M": false, "MUNICIPAL_MENOS_200M": false, "POLICIA_MENOS_200M": false, "EXISTENTE_MENOS_300M": true, "MUNICIPAL_MENOS_300M": false, "POLICIA_MENOS_300M": true, "EXISTENTE_MENOS_400M": true, "MUNICIPAL_MENOS_400M": false, "POLICIA_MENOS_400M": true, "HOTSPOT_D": "GIU100-14-69|GIU100-16-67", "HOTSPOTS_D_CON_APORTE": 1, "HOTSPOTS_D_PRIMERA_ATENCION": 0, "HOTSPOTS_D_COMPLETADOS": 1, "IDS_HOTSPOTS_D_CON_APORTE": "GIU100-14-69", "HOTSPOT_V": "GIU100-13-68|GIU100-13-69|GIU100-13-70|GIU100-14-67|GIU100-14-68|GIU100-14-69|GIU100-14-70|GIU100-15-67|GIU100-15-68|GIU100-15-69|GIU100-15-70|GIU100-16-67", "HOTSPOTS_V_CON_APORTE": 4, "HOTSPOTS_V_PRIMERA_ATENCION": 0, "HOTSPOTS_V_COMPLETADOS": 4, "IDS_HOTSPOTS_V_CON_APORTE": "GIU100-14-70|GIU100-14-69|GIU100-15-70|GIU100-15-69", "GI_D_CELDAS_SITIO": "GIU100-15-69", "GI_D_CLASE_SITIO": "NO SIGNIFICATIVO", "GI_D_ZSCORE_SITIO": -0.38352879131154977, "GI_D_PVALUE_SITIO": 0.7013277268913749, "GI_V_CELDAS_SITIO": "GIU100-15-69", "GI_V_CLASE_SITIO": "HOTSPOT 95%", "GI_V_ZSCORE_SITIO": 2.230409576025968, "GI_V_PVALUE_SITIO": 0.025720264423434874, "DIST_RED_VIAL_CONTEXTO_M": 0.0, "VIA_CONTEXTO_CERCANA": "MALDONADO", "PERDIDOS_D": 0, "GANADOS_D": 0, "TOTAL_CUBIERTO_D": 1785, "PERDIDOS_V": 0, "GANADOS_V": 1, "TOTAL_CUBIERTO_V": 990, "PERDIDOS_C": 0, "GANADOS_C": 0, "TOTAL_CUBIERTO_C": 5003, "OPCION": "MEJORA_MAS_CERCANA", "ESTADO": "COMPARACION_NO_INCORPORADA", "RADIO_M": 200}, "geometry": {"type": "Point", "coordinates": [-78.6355976104103, -1.681840571431169]}}, {"type": "Feature", "properties": {"ID_CANDIDATO": "CAND-POL-02705", "X": 763061.2540999996, "Y": 9813946.1756, "AMBITO_HOTSPOT": "URBANO", "NIVEL_DEL": 99, "NIVEL_VIOL": 99, "COINCIDENCIA_DV": true, "NIVEL_DEL_RESIDUAL": 90, "NIVEL_VIOL_RESIDUAL": 99, "NIVEL_DV_RESIDUAL": 90, "EVENTOS_D_NUEVOS": 4, "EVENTOS_V_NUEVOS": 4, "EVENTOS_DV_NUEVOS": 8, "EVENTOS_C_NUEVOS": 16, "AREA_HOTSPOT_D_NUEVA_M2": 801.4363353418629, "AREA_HOTSPOT_V_NUEVA_M2": 15186.422799749678, "COINCIDENCIA_DV_RESIDUAL_M2": 801.4363353418629, "ESTADO_HOTSPOT_DV_PREVIO": "PARCIALMENTE CUBIERTO", "SOLAPE_PREVIO_PCT": 73.8461572651153, "DIST_EXISTENTE_M": 239.48382666778292, "DIST_MUNICIPAL_M": 639.3722265686148, "DIST_POLICIA_M": 213.9098430703476, "UPC_CERCANA": "I0410", "NOMBRE_UPC": "PUCARA 1", "DIST_UPC_M": 625.4539536269295, "INTERSECCION_O_NODO": "INTERSECCION_VIAL_URBANA", "GRADO_NODO": 3, "DIST_DESDE_POL24_M": 21.117101333133483, "NUCLEOS99_ABANDONADOS": 0, "IDS_99_ABANDONADOS": "", "DV_ACTUALES_CONSERVADOS": 7, "MISMA_PLATAFORMA": true, "MENOR_SOLAPE_SIN_REDUCIR_DV": true, "PREFERIBLE": true, "OPCION_COMPLEMENTARIA": "CERCANA_CONSERVA_EVENTOS", "PLATAFORMA": "PLATAFORMA Q", "AREA_BUFFER_M2": 125651.0900372239, "AREA_SOLAPADA_M2": 92788.50155421998, "AREA_EXCLUSIVA_M2": 32862.58848300328, "APORTE_EXCLUSIVO_PCT": 26.153842734884194, "REDUNDANCIA": "ALTA", "POBLACION_ADICIONAL_ESTIMADA": 569.8459343325594, "POBLACION_ASOCIADA_ESTIMADA": 2258.7166582133773, "MANZANAS_ADICIONALES_VALIDAS": 16, "MANZANAS_ADICIONALES_SIN_POBLACION": 3, "POBLACION_ADICIONAL_PARCIAL": true, "POBLACION_ASOCIADA_PARCIAL": true, "CORREDOR_COINCIDENTE": null, "EXISTENTE_MENOS_200M": false, "MUNICIPAL_MENOS_200M": false, "POLICIA_MENOS_200M": false, "EXISTENTE_MENOS_300M": true, "MUNICIPAL_MENOS_300M": false, "POLICIA_MENOS_300M": true, "EXISTENTE_MENOS_400M": true, "MUNICIPAL_MENOS_400M": false, "POLICIA_MENOS_400M": true, "HOTSPOT_D": "GIU100-14-69|GIU100-16-67", "HOTSPOTS_D_CON_APORTE": 1, "HOTSPOTS_D_PRIMERA_ATENCION": 0, "HOTSPOTS_D_COMPLETADOS": 1, "IDS_HOTSPOTS_D_CON_APORTE": "GIU100-14-69", "HOTSPOT_V": "GIU100-13-68|GIU100-13-69|GIU100-13-70|GIU100-14-67|GIU100-14-68|GIU100-14-69|GIU100-14-70|GIU100-15-67|GIU100-15-68|GIU100-15-69|GIU100-15-70|GIU100-16-67", "HOTSPOTS_V_CON_APORTE": 4, "HOTSPOTS_V_PRIMERA_ATENCION": 0, "HOTSPOTS_V_COMPLETADOS": 4, "IDS_HOTSPOTS_V_CON_APORTE": "GIU100-14-70|GIU100-14-69|GIU100-15-70|GIU100-15-69", "GI_D_CELDAS_SITIO": "GIU100-15-69", "GI_D_CLASE_SITIO": "NO SIGNIFICATIVO", "GI_D_ZSCORE_SITIO": -0.38352879131154977, "GI_D_PVALUE_SITIO": 0.7013277268913749, "GI_V_CELDAS_SITIO": "GIU100-15-69", "GI_V_CLASE_SITIO": "HOTSPOT 95%", "GI_V_ZSCORE_SITIO": 2.230409576025968, "GI_V_PVALUE_SITIO": 0.025720264423434874, "DIST_RED_VIAL_CONTEXTO_M": 0.0, "VIA_CONTEXTO_CERCANA": "MALDONADO", "PERDIDOS_D": 0, "GANADOS_D": 0, "TOTAL_CUBIERTO_D": 1785, "PERDIDOS_V": 0, "GANADOS_V": 1, "TOTAL_CUBIERTO_V": 990, "PERDIDOS_C": 0, "GANADOS_C": 0, "TOTAL_CUBIERTO_C": 5003, "OPCION": "CERCANA_CONSERVA_EVENTOS", "ESTADO": "COMPARACION_NO_INCORPORADA", "RADIO_M": 200}, "geometry": {"type": "Point", "coordinates": [-78.6355976104103, -1.681840571431169]}}, {"type": "Feature", "properties": {"ID_CANDIDATO": "CAND-POL-02768", "X": 763231.5717000002, "Y": 9813942.9171, "AMBITO_HOTSPOT": "URBANO", "NIVEL_DEL": 90, "NIVEL_VIOL": 99, "COINCIDENCIA_DV": true, "NIVEL_DEL_RESIDUAL": 90, "NIVEL_VIOL_RESIDUAL": 99, "NIVEL_DV_RESIDUAL": 90, "EVENTOS_D_NUEVOS": 5, "EVENTOS_V_NUEVOS": 7, "EVENTOS_DV_NUEVOS": 12, "EVENTOS_C_NUEVOS": 25, "AREA_HOTSPOT_D_NUEVA_M2": 746.3534582730466, "AREA_HOTSPOT_V_NUEVA_M2": 14930.439526832208, "COINCIDENCIA_DV_RESIDUAL_M2": 746.3534582730466, "ESTADO_HOTSPOT_DV_PREVIO": "PARCIALMENTE CUBIERTO", "SOLAPE_PREVIO_PCT": 32.69633641549634, "DIST_EXISTENTE_M": 400.9843140162658, "DIST_MUNICIPAL_M": 475.6339266465583, "DIST_POLICIA_M": 248.5675280556066, "UPC_CERCANA": "I0410", "NOMBRE_UPC": "PUCARA 1", "DIST_UPC_M": 778.0479357253967, "INTERSECCION_O_NODO": "INTERSECCION_VIAL_URBANA", "GRADO_NODO": 3, "DIST_DESDE_POL24_M": 171.6279039629964, "NUCLEOS99_ABANDONADOS": 0, "IDS_99_ABANDONADOS": "", "DV_ACTUALES_CONSERVADOS": 7, "MISMA_PLATAFORMA": true, "MENOR_SOLAPE_SIN_REDUCIR_DV": true, "PREFERIBLE": true, "OPCION_COMPLEMENTARIA": "MENOR_SOLAPE_LOCAL_CONSERVA_EVENTOS", "PLATAFORMA": "PLATAFORMA Q", "AREA_BUFFER_M2": 125651.0900372239, "AREA_SOLAPADA_M2": 41083.30310830893, "AREA_EXCLUSIVA_M2": 84567.78692891376, "APORTE_EXCLUSIVO_PCT": 67.3036635845027, "REDUNDANCIA": "BAJA", "POBLACION_ADICIONAL_ESTIMADA": 1196.4312838238825, "POBLACION_ASOCIADA_ESTIMADA": 1903.3387578209285, "MANZANAS_ADICIONALES_VALIDAS": 26, "MANZANAS_ADICIONALES_SIN_POBLACION": 4, "POBLACION_ADICIONAL_PARCIAL": true, "POBLACION_ASOCIADA_PARCIAL": true, "CORREDOR_COINCIDENTE": null, "EXISTENTE_MENOS_200M": false, "MUNICIPAL_MENOS_200M": false, "POLICIA_MENOS_200M": false, "EXISTENTE_MENOS_300M": false, "MUNICIPAL_MENOS_300M": false, "POLICIA_MENOS_300M": true, "EXISTENTE_MENOS_400M": false, "MUNICIPAL_MENOS_400M": false, "POLICIA_MENOS_400M": true, "HOTSPOT_D": "GIU100-14-69", "HOTSPOTS_D_CON_APORTE": 1, "HOTSPOTS_D_PRIMERA_ATENCION": 0, "HOTSPOTS_D_COMPLETADOS": 0, "IDS_HOTSPOTS_D_CON_APORTE": "GIU100-14-69", "HOTSPOT_V": "GIU100-13-69|GIU100-13-70|GIU100-13-71|GIU100-14-69|GIU100-14-70|GIU100-15-69|GIU100-15-70", "HOTSPOTS_V_CON_APORTE": 4, "HOTSPOTS_V_PRIMERA_ATENCION": 0, "HOTSPOTS_V_COMPLETADOS": 2, "IDS_HOTSPOTS_V_CON_APORTE": "GIU100-14-70|GIU100-14-69|GIU100-15-70|GIU100-15-69", "GI_D_CELDAS_SITIO": "GIU100-15-71", "GI_D_CLASE_SITIO": "NO SIGNIFICATIVO", "GI_D_ZSCORE_SITIO": -0.007987735929306395, "GI_D_PVALUE_SITIO": 0.9936267765990865, "GI_V_CELDAS_SITIO": "GIU100-15-71", "GI_V_CLASE_SITIO": "NO SIGNIFICATIVO", "GI_V_ZSCORE_SITIO": 0.9694243219842656, "GI_V_PVALUE_SITIO": 0.33233352200448757, "DIST_RED_VIAL_CONTEXTO_M": 0.0, "VIA_CONTEXTO_CERCANA": "MALDONADO", "PERDIDOS_D": 0, "GANADOS_D": 1, "TOTAL_CUBIERTO_D": 1786, "PERDIDOS_V": 0, "GANADOS_V": 4, "TOTAL_CUBIERTO_V": 993, "PERDIDOS_C": 0, "GANADOS_C": 9, "TOTAL_CUBIERTO_C": 5012, "OPCION": "MENOR_SOLAPE_LOCAL_CONSERVA_EVENTOS", "ESTADO": "COMPARACION_NO_INCORPORADA", "RADIO_M": 200}, "geometry": {"type": "Point", "coordinates": [-78.63406763166205, -1.6818681601968046]}}]}