{"type":"FeatureCollection","features":[{"type":"Feature","properties":{"ID":"ANILLO-0001","CORREDOR":"ANILLO_VIAL","LONGITUD_M":1.1641532182693481e-10},"geometry":{"type":"LineString","coordinates":[[-78.63778350752791,-1.6892176261543668],[-78.63778350752791,-1.6892176261543668]]}},{"type":"Feature","properties":{"ID":"ANILLO-0002","CORREDOR":"ANILLO_VIAL","LONGITUD_M":1.1641532182693481e-10},"geometry":{"type":"LineString","coordinates":[[-78.66484462812079,-1.6703512843063002],[-78.66484462812079,-1.6703512843063002]]}},{"type":"Feature","properties":{"ID":"ANILLO-0003","CORREDOR":"ANILLO_VIAL","LONGITUD_M":60.77460613321327},"geometry":{"type":"LineString","coordinates":[[-78.65375355620502,-1.658154095706653],[-78.65373868699999,-1.6581854789999335],[-78.65366841399998,-1.6583466089999752],[-78.65360319299998,-1.6585098769999702],[-78.65354762510198,-1.6586626438843233]]}},{"type":"Feature","properties":{"ID":"ANILLO-0004","CORREDOR":"ANILLO_VIAL","LONGITUD_M":20.361441933352825},"geometry":{"type":"LineString","coordinates":[[-78.64880244332488,-1.6619020848567194],[-78.64879303199996,-1.661884417999951],[-78.64871273268226,-1.661741691601236]]}},{"type":"Feature","properties":{"ID":"ANILLO-0005","CORREDOR":"ANILLO_VIAL","LONGITUD_M":93.54397197910603},"geometry":{"type":"LineString","coordinates":[[-78.64654805639034,-1.6615699933299708],[-78.64650934099996,-1.6615897259999295],[-78.64648632999996,-1.6616006939999575],[-78.64578913750458,-1.6619329788281099]]}},{"type":"Feature","properties":{"ID":"ANILLO-0006","CORREDOR":"ANILLO_VIAL","LONGITUD_M":28.21508253021403},"geometry":{"type":"LineString","coordinates":[[-78.63722191212273,-1.6703718009140955],[-78.63707323999995,-1.6705359379999476],[-78.63704810036079,-1.6705570654553572]]}},{"type":"Feature","properties":{"ID":"ANILLO-0007","CORREDOR":"ANILLO_VIAL","LONGITUD_M":31.533257095905473},"geometry":{"type":"LineString","coordinates":[[-78.63487514645809,-1.6721205914542678],[-78.63464715866428,-1.6722897491617672]]}},{"type":"Feature","properties":{"ID":"ANILLO-0008","CORREDOR":"ANILLO_VIAL","LONGITUD_M":65.32805631432313},"geometry":{"type":"LineString","coordinates":[[-78.63202575795141,-1.6742884824432955],[-78.63186139399994,-1.6744123889999483],[-78.63185124599994,-1.6744200389999293],[-78.63156208393639,-1.6746503609045549]]}},{"type":"Feature","properties":{"ID":"ANILLO-0009","CORREDOR":"ANILLO_VIAL","LONGITUD_M":34.822236870852194},"geometry":{"type":"LineString","coordinates":[[-78.6299262759974,-1.678761000036209],[-78.62993036899996,-1.6789224509999459],[-78.62993946121549,-1.6790754480759527]]}},{"type":"Feature","properties":{"ID":"ANILLO-0010","CORREDOR":"ANILLO_VIAL","LONGITUD_M":132.37599366600418},"geometry":{"type":"LineString","coordinates":[[-78.63053183594009,-1.6866930628904098],[-78.63058737999995,-1.6868665889999843],[-78.63071938699994,-1.6873474679999216],[-78.63077010399996,-1.6875329769999268],[-78.63085525097569,-1.6878444155899184]]}},{"type":"Feature","properties":{"ID":"ANILLO-0011","CORREDOR":"ANILLO_VIAL","LONGITUD_M":12.489925181996341},"geometry":{"type":"LineString","coordinates":[[-78.63365849709544,-1.690105938949163],[-78.63370183999996,-1.6901091589999744],[-78.63377038860118,-1.6901142515144931]]}},{"type":"Feature","properties":{"ID":"ANILLO-0012","CORREDOR":"ANILLO_VIAL","LONGITUD_M":0.8421700783184547},"geometry":{"type":"LineString","coordinates":[[-78.64102186582119,-1.6870315050375486],[-78.64102812728291,-1.687027232599717]]}},{"type":"Feature","properties":{"ID":"ANILLO-0013","CORREDOR":"ANILLO_VIAL","LONGITUD_M":105.82002365070699},"geometry":{"type":"LineString","coordinates":[[-78.64570262969389,-1.6857472418951693],[-78.64598148799996,-1.6857308299999572],[-78.64665183202837,-1.6856958527202826]]}},{"type":"Feature","properties":{"ID":"ANILLO-0014","CORREDOR":"ANILLO_VIAL","LONGITUD_M":10.362541483704227},"geometry":{"type":"LineString","coordinates":[[-78.65023863595701,-1.6854847518990927],[-78.65027512399996,-1.6854805859999304],[-78.65033086708934,-1.6854721858573936]]}},{"type":"Feature","properties":{"ID":"ANILLO-0015","CORREDOR":"ANILLO_VIAL","LONGITUD_M":45.56328168946814},"geometry":{"type":"LineString","coordinates":[[-78.6563551445717,-1.6799805164904635],[-78.65650141199995,-1.6797988879999297],[-78.65661324282401,-1.6796608545215903]]}},{"type":"Feature","properties":{"ID":"ANILLO-0016","CORREDOR":"ANILLO_VIAL","LONGITUD_M":9.597521775096503},"geometry":{"type":"LineString","coordinates":[[-78.66759683043254,-1.667961551900541],[-78.66764585399994,-1.6679191069999373],[-78.66766073652913,-1.667903431813475]]}},{"type":"Feature","properties":{"ID":"ANILLO-0017","CORREDOR":"ANILLO_VIAL","LONGITUD_M":0.5883404527644793},"geometry":{"type":"LineString","coordinates":[[-78.66855990300718,-1.6644250409315708],[-78.66856066774605,-1.664419778479676]]}},{"type":"Feature","properties":{"ID":"ANILLO-0018","CORREDOR":"ANILLO_VIAL","LONGITUD_M":7.067281801692756},"geometry":{"type":"LineString","coordinates":[[-78.66853184177185,-1.664377084580172],[-78.66848087442754,-1.66441517508463]]}},{"type":"Feature","properties":{"ID":"ANILLO-0019","CORREDOR":"ANILLO_VIAL","LONGITUD_M":2.3283064365386963e-10},"geometry":{"type":"LineString","coordinates":[[-78.63778350752791,-1.6892176261543668],[-78.63778350752791,-1.6892176261543668]]}},{"type":"Feature","properties":{"ID":"ANILLO-0020","CORREDOR":"ANILLO_VIAL","LONGITUD_M":2.3283064365386963e-10},"geometry":{"type":"LineString","coordinates":[[-78.66484462812079,-1.6703512843063002],[-78.66484462812079,-1.6703512843063002]]}},{"type":"Feature","properties":{"ID":"ANILLO-0021","CORREDOR":"ANILLO_VIAL","LONGITUD_M":257.2214509777066},"geometry":{"type":"LineString","coordinates":[[-78.6553905303902,-1.6565904380440117],[-78.65530762499998,-1.656627623999956],[-78.65516904599997,-1.6566970369999592],[-78.65503352799999,-1.6567723209999414],[-78.65490131599995,-1.6568533399999423],[-78.65477264999998,-1.656939945999961],[-78.65464776199997,-1.6570319839999499],[-78.65452687999993,-1.6571292849999362],[-78.65441022099998,-1.6572316759999848],[-78.65429799699996,-1.6573389679999821],[-78.65419041199993,-1.657450968999969],[-78.65402375499997,-1.6576740289999603],[-78.65389410599994,-1.6578702599999289],[-78.65381394199996,-1.6580266439999607],[-78.65375355620502,-1.658154095706653]]}},{"type":"Feature","properties":{"ID":"ANILLO-0022","CORREDOR":"ANILLO_VIAL","LONGITUD_M":25.57377391017598},"geometry":{"type":"LineString","coordinates":[[-78.65167594291503,-1.6617481821425246],[-78.65150217819692,-1.6618993976692251]]}},{"type":"Feature","properties":{"ID":"ANILLO-0023","CORREDOR":"ANILLO_VIAL","LONGITUD_M":240.67611354101297},"geometry":{"type":"LineString","coordinates":[[-78.63803384068311,-1.6683911281660884],[-78.63788879399993,-1.6691060869999246],[-78.63783492099998,-1.6692738679999435],[-78.63777464499998,-1.669439430999948],[-78.63770805799999,-1.6696025249999578],[-78.63763525799999,-1.669762907999943],[-78.63755635399997,-1.6699203419999464],[-78.63749135699999,-1.670026759999935],[-78.63742103699997,-1.6701296949999567],[-78.63734557599997,-1.6702288749999714],[-78.63726517299995,-1.670324039999962],[-78.63722191212273,-1.6703718009140955]]}},{"type":"Feature","properties":{"ID":"ANILLO-0024","CORREDOR":"ANILLO_VIAL","LONGITUD_M":366.13300843408445},"geometry":{"type":"LineString","coordinates":[[-78.63464715866428,-1.6722897491617672],[-78.63450436799997,-1.6723956939999367],[-78.63401527999997,-1.6727717349999776],[-78.63350729699994,-1.6731604819999584],[-78.63287036899999,-1.6736472309999553],[-78.63236753499996,-1.6740308319999695],[-78.63202575795141,-1.6742884824432955]]}},{"type":"Feature","properties":{"ID":"ANILLO-0025","CORREDOR":"ANILLO_VIAL","LONGITUD_M":99.98148736849313},"geometry":{"type":"LineString","coordinates":[[-78.62990385242988,-1.677857507389103],[-78.62990422199994,-1.677891078999948],[-78.6299262759974,-1.678761000036209]]}},{"type":"Feature","properties":{"ID":"ANILLO-0026","CORREDOR":"ANILLO_VIAL","LONGITUD_M":53.3262257013164},"geometry":{"type":"LineString","coordinates":[[-78.63008591613696,-1.6826213199535192],[-78.63010506905411,-1.6831029743314996]]}},{"type":"Feature","properties":{"ID":"ANILLO-0027","CORREDOR":"ANILLO_VIAL","LONGITUD_M":62.12701854772994},"geometry":{"type":"LineString","coordinates":[[-78.63731430257363,-1.6895216938906057],[-78.63737105499996,-1.6894849159999725],[-78.63739951499997,-1.68946647199993],[-78.63778350752791,-1.6892176261543668]]}},{"type":"Feature","properties":{"ID":"ANILLO-0028","CORREDOR":"ANILLO_VIAL","LONGITUD_M":34.51568793735319},"geometry":{"type":"LineString","coordinates":[[-78.64076485977985,-1.6872060312070374],[-78.64083381699999,-1.6871598179999363],[-78.64102186582119,-1.6870315050375486]]}},{"type":"Feature","properties":{"ID":"ANILLO-0029","CORREDOR":"ANILLO_VIAL","LONGITUD_M":143.62150421344074},"geometry":{"type":"LineString","coordinates":[[-78.64441472118543,-1.6858237091967707],[-78.64516748699998,-1.6857787369999562],[-78.64570262969389,-1.6857472418951693]]}},{"type":"Feature","properties":{"ID":"ANILLO-0030","CORREDOR":"ANILLO_VIAL","LONGITUD_M":117.52713723958314},"geometry":{"type":"LineString","coordinates":[[-78.65339958726958,-1.6835916328506852],[-78.65364101199998,-1.683295766999956],[-78.65370683799996,-1.683215998999967],[-78.65407244093099,-1.68277295709421]]}},{"type":"Feature","properties":{"ID":"ANILLO-0031","CORREDOR":"ANILLO_VIAL","LONGITUD_M":25.795178697352753},"geometry":{"type":"LineString","coordinates":[[-78.65661324282401,-1.6796608545215903],[-78.65675966304985,-1.679480127049174]]}},{"type":"Feature","properties":{"ID":"ANILLO-0032","CORREDOR":"ANILLO_VIAL","LONGITUD_M":351.77214451384526},"geometry":{"type":"LineString","coordinates":[[-78.66033328604216,-1.6753498439148593],[-78.66071724699998,-1.6749167699999201],[-78.66119507899998,-1.6743908329999575],[-78.66120848599996,-1.6743759769999493],[-78.66171129699995,-1.6738188219999353],[-78.66175987099996,-1.6737465289999645],[-78.66176278399996,-1.6737417149999414],[-78.66221689699995,-1.6729911589999262],[-78.66229177950731,-1.6728701159759078]]}},{"type":"Feature","properties":{"ID":"ANILLO-0033","CORREDOR":"ANILLO_VIAL","LONGITUD_M":4.676932702752053},"geometry":{"type":"LineString","coordinates":[[-78.66484462812079,-1.6703512843063002],[-78.6648764789509,-1.6703237140926221]]}},{"type":"Feature","properties":{"ID":"ANILLO-0034","CORREDOR":"ANILLO_VIAL","LONGITUD_M":13.5058820573239},"geometry":{"type":"LineString","coordinates":[[-78.66856066774605,-1.664419778479676],[-78.66857113999998,-1.6643477149999688],[-78.66853184177185,-1.664377084580172]]}}]}