{"type":"FeatureCollection","features":[{"type":"Feature","properties":{"ID":"CICLOVIAS-0001","CORREDOR":"CICLOVIAS","LONGITUD_M":1.1641532182693481e-10},"geometry":{"type":"LineString","coordinates":[[-78.67164279993776,-1.6551227272361853],[-78.67164279993776,-1.6551227272361853]]}},{"type":"Feature","properties":{"ID":"CICLOVIAS-0002","CORREDOR":"CICLOVIAS","LONGITUD_M":3.4924596548080444e-10},"geometry":{"type":"LineString","coordinates":[[-78.66217064993374,-1.644773515157981],[-78.66217064993374,-1.644773515157981]]}},{"type":"Feature","properties":{"ID":"CICLOVIAS-0003","CORREDOR":"CICLOVIAS","LONGITUD_M":35.85130885269119},"geometry":{"type":"LineString","coordinates":[[-78.63995987665885,-1.6775654542086784],[-78.6397147291501,-1.6777756200616338]]}},{"type":"Feature","properties":{"ID":"CICLOVIAS-0004","CORREDOR":"CICLOVIAS","LONGITUD_M":335.8572437388832},"geometry":{"type":"LineString","coordinates":[[-78.63501285262886,-1.679609747054745],[-78.6320900258375,-1.6803622225276944]]}},{"type":"Feature","properties":{"ID":"CICLOVIAS-0005","CORREDOR":"CICLOVIAS","LONGITUD_M":23.23345132853664},"geometry":{"type":"LineString","coordinates":[[-78.64875058733506,-1.661964443290397],[-78.64867527594429,-1.661832375909467],[-78.64864638066706,-1.6617824770231167]]}},{"type":"Feature","properties":{"ID":"CICLOVIAS-0006","CORREDOR":"CICLOVIAS","LONGITUD_M":399.99329625672516},"geometry":{"type":"LineString","coordinates":[[-78.6758941617153,-1.6516417141785915],[-78.67338575914877,-1.6537293128234698],[-78.67312106705404,-1.6539409221878736]]}},{"type":"Feature","properties":{"ID":"CICLOVIAS-0007","CORREDOR":"CICLOVIAS","LONGITUD_M":87.05604026840834},"geometry":{"type":"LineString","coordinates":[[-78.65820139611209,-1.65375831048415],[-78.6584806031622,-1.6532303298552682],[-78.65857514904741,-1.6530671762511382]]}},{"type":"Feature","properties":{"ID":"CICLOVIAS-0008","CORREDOR":"CICLOVIAS","LONGITUD_M":602.5472024915658},"geometry":{"type":"LineString","coordinates":[[-78.66015329562745,-1.6498085100225492],[-78.66044812993763,-1.6491130598199875],[-78.6607807307304,-1.6484344934221902],[-78.66088177309905,-1.6480730101647931],[-78.66128154697614,-1.6469050672554348],[-78.66166544903359,-1.6457536537717716],[-78.66196856643161,-1.6450628329641166],[-78.66217064993374,-1.644773515157981]]}},{"type":"Feature","properties":{"ID":"CICLOVIAS-0009","CORREDOR":"CICLOVIAS","LONGITUD_M":601.6888770774742},"geometry":{"type":"LineString","coordinates":[[-78.66236150221799,-1.6448624251737873],[-78.66220175524178,-1.6451694931748868],[-78.66201200158811,-1.6454660444086628],[-78.66180158957837,-1.6460179544376201],[-78.66167900821597,-1.6463659987440822],[-78.6614836338476,-1.647139078034238],[-78.66125529673523,-1.6475621782583498],[-78.66109337990376,-1.6481446492548082],[-78.66067881975259,-1.6490150038533247],[-78.66030703047726,-1.6498666398410593]]}},{"type":"Feature","properties":{"ID":"CICLOVIAS-0010","CORREDOR":"CICLOVIAS","LONGITUD_M":86.94353007226592},"geometry":{"type":"LineString","coordinates":[[-78.65871487877415,-1.6531377143676447],[-78.6586896727165,-1.6531773200561035],[-78.65835803447415,-1.653836565907322]]}},{"type":"Feature","properties":{"ID":"CICLOVIAS-0011","CORREDOR":"CICLOVIAS","LONGITUD_M":4.656612873077393e-10},"geometry":{"type":"LineString","coordinates":[[-78.67164279993776,-1.6551227272361853],[-78.67164279993776,-1.6551227272361853]]}},{"type":"Feature","properties":{"ID":"CICLOVIAS-0012","CORREDOR":"CICLOVIAS","LONGITUD_M":1.1641532182693481e-10},"geometry":{"type":"LineString","coordinates":[[-78.65774953185701,-1.6546127842498706],[-78.65774953185701,-1.6546127842498706]]}},{"type":"Feature","properties":{"ID":"CICLOVIAS-0013","CORREDOR":"CICLOVIAS","LONGITUD_M":45.00785221286053},"geometry":{"type":"LineString","coordinates":[[-78.645590276409,-1.6726028642879007],[-78.64528783036668,-1.672872858635096]]}},{"type":"Feature","properties":{"ID":"CICLOVIAS-0014","CORREDOR":"CICLOVIAS","LONGITUD_M":36.33790663392372},"geometry":{"type":"LineString","coordinates":[[-78.64658827356854,-1.6588350239797356],[-78.64638278124501,-1.65857980560288]]}},{"type":"Feature","properties":{"ID":"CICLOVIAS-0015","CORREDOR":"CICLOVIAS","LONGITUD_M":368.3300583290393},"geometry":{"type":"LineString","coordinates":[[-78.67845787010505,-1.649536963941947],[-78.67714285259844,-1.6506024956690153],[-78.6758941617153,-1.6516417141785915]]}},{"type":"Feature","properties":{"ID":"CICLOVIAS-0016","CORREDOR":"CICLOVIAS","LONGITUD_M":210.17222918001087},"geometry":{"type":"LineString","coordinates":[[-78.67312106705404,-1.6539409221878736],[-78.67164279993776,-1.6551227272361853]]}},{"type":"Feature","properties":{"ID":"CICLOVIAS-0017","CORREDOR":"CICLOVIAS","LONGITUD_M":107.07649289167308},"geometry":{"type":"LineString","coordinates":[[-78.65774953185701,-1.6546127842498706],[-78.65820139611209,-1.65375831048415]]}},{"type":"Feature","properties":{"ID":"CICLOVIAS-0018","CORREDOR":"CICLOVIAS","LONGITUD_M":1.6338036129771145},"geometry":{"type":"LineString","coordinates":[[-78.66014753654278,-1.6498220944396302],[-78.66015329562745,-1.6498085100225492]]}},{"type":"Feature","properties":{"ID":"CICLOVIAS-0019","CORREDOR":"CICLOVIAS","LONGITUD_M":3.1889880806479725},"geometry":{"type":"LineString","coordinates":[[-78.66030703047726,-1.6498666398410593],[-78.6602955084765,-1.649893032580278]]}},{"type":"Feature","properties":{"ID":"CICLOVIAS-0020","CORREDOR":"CICLOVIAS","LONGITUD_M":105.40864241332945},"geometry":{"type":"LineString","coordinates":[[-78.65835803447415,-1.653836565907322],[-78.65801507881187,-1.6545183077191574],[-78.65792506314543,-1.6546838839287086]]}}]}