{"type":"FeatureCollection","features":[{"type":"Feature","properties":{"ID_PROPUESTA":"MUN-001","ID_ORIGINAL":"RUR_CACH_01","FILA_ORIGINAL":1.0,"GRUPO":"CABECERA_RURAL","SUBTIPO":"INTERSECCION_CABECERA","X":755780.8388,"Y":9811289.214400003,"LONGITUD":-78.70096998544794,"LATITUD":-1.705937896000835,"PARROQUIA":"Cacha","ID_CANDIDATO":"RUR-CACHA-0003","ORIGEN_CANDIDATO":"INTERSECCION_VIAL_CANTONAL","GRADO_NODO":3,"CRITERIO_PRINCIPAL":"Centralidad vial y nueva evidencia territorial en cabecera PUGS","CRITERIOS_SECUNDARIOS":"Centro de cabecera; nuevos D/V y Convivencia; equipamientos; Gi* D/V rural; nueva area PUGS; menor solape","JUSTIFICACION":"Interseccion vial dentro de la cabecera PUGS de Cacha; seleccion 1/2. 3 eventos adicionales dentro de la localidad y 40807.6 m2 nuevos de su area. Entorno 200 m: 3 incidentes; solape con escenario actual 0.00%. Pendiente inspeccion de campo.","ESTADO":null,"ESTADO_VALIDACION":"PROPUESTA_REVISADA","METODO_FINAL":null,"HOTSPOT_DEL":null,"NIVEL_DEL":0.0,"HOTSPOT_VIOL":null,"NIVEL_VIOL":0.0,"HOTSPOT_CONV":null,"NIVEL_CONV":0.0,"AMBITO_HOTSPOT":"RURAL","COINCIDENCIA_DV":0.0,"DELINCUENCIA_200M":1.0,"VIOLENCIA_200M":0.0,"CONVIVENCIA_200M":2.0,"N_TOTAL":3.0,"COBERTURA_PREVIA":0.0,"POBLACION_ASOCIADA":null,"MANZANAS_POB_VALIDAS":0.0,"MANZANAS_POB_FALTANTES":0.0,"POBLACION_METODO":"Estimacion areal CPV2022 dentro del radio200m y18Plataformas; no poblacion rural completa","UPC_CERCANA":"I0388","NOMBRE_UPC":"YARUQUIES 1","DIST_UPC_M":3224.5702294315115,"INFRA_CERCANA":"I0388","DIST_INFRA_M":3224.5702294315115,"DIST_EXISTENTE":3311.649927711502,"DIST_MUNICIPAL":0.0,"INTERSECCION_O_NODO":"INTERSECCION_VIAL_CANTONAL","CORREDOR_COINCIDENTE":null,"CORREDOR_METODO":"Eje intersecta buffer200m; no implica punto sobre eje ni criterio de seleccion","SOLAPE_OTRAS49_PCT":35.7923123884261,"D_EXCLUSIVOS":1.0,"V_EXCLUSIVOS":0.0,"C_EXCLUSIVOS":2.0,"N_CORREDORES":0.0,"CORREDOR":null,"BENEFICIO_CONTEXTO":"Exclusivo respecto103+otras49;no sumar entre camaras","LONGITUD_EXCLUSIVA_ANILLO_VIAL_M":0.0,"LONGITUD_EXCLUSIVA_CICLOVIAS_M":0.0,"LONGITUD_EXCLUSIVA_BOULEVARD_MACAJI_BELLAVISTA_M":0.0,"LONGITUD_EXCLUSIVA_QUEBRADA_LAS_ABRAS_M":0.0,"INDICADORES_PUNTUALES_RECALCULADOS":null},"geometry":{"type":"Point","coordinates":[-78.70096998544794,-1.705937896000835]}},{"type":"Feature","properties":{"ID_PROPUESTA":"MUN-002","ID_ORIGINAL":"RUR_CACH_02","FILA_ORIGINAL":2.0,"GRUPO":"CABECERA_RURAL","SUBTIPO":"INTERSECCION_CABECERA","X":755598.1800228687,"Y":9811397.050104639,"LONGITUD":-78.70261204360676,"LATITUD":-1.7049650434978976,"PARROQUIA":"Cacha","ID_CANDIDATO":"RUR-CACHA-0001","ORIGEN_CANDIDATO":"INTERSECCION_VIAL_CANTONAL","GRADO_NODO":4,"CRITERIO_PRINCIPAL":"Centralidad vial y nueva evidencia territorial en cabecera PUGS","CRITERIOS_SECUNDARIOS":"Centro de cabecera; nuevos D/V y Convivencia; equipamientos; Gi* D/V rural; nueva area PUGS; menor solape","JUSTIFICACION":"Interseccion vial dentro de la cabecera PUGS de Cacha; seleccion 2/2. 0 eventos adicionales dentro de la localidad y 2914.7 m2 nuevos de su area. Entorno 200 m: 0 incidentes; solape con escenario actual 0.00%. Pendiente inspeccion de campo.","ESTADO":null,"ESTADO_VALIDACION":"PROPUESTA_REVISADA","METODO_FINAL":null,"HOTSPOT_DEL":null,"NIVEL_DEL":0.0,"HOTSPOT_VIOL":null,"NIVEL_VIOL":0.0,"HOTSPOT_CONV":null,"NIVEL_CONV":0.0,"AMBITO_HOTSPOT":"RURAL","COINCIDENCIA_DV":0.0,"DELINCUENCIA_200M":0.0,"VIOLENCIA_200M":0.0,"CONVIVENCIA_200M":0.0,"N_TOTAL":0.0,"COBERTURA_PREVIA":0.0,"POBLACION_ASOCIADA":null,"MANZANAS_POB_VALIDAS":0.0,"MANZANAS_POB_FALTANTES":0.0,"POBLACION_METODO":"Estimacion areal CPV2022 dentro del radio200m y18Plataformas; no poblacion rural completa","UPC_CERCANA":"I0388","NOMBRE_UPC":"YARUQUIES 1","DIST_UPC_M":3320.9060332468207,"INFRA_CERCANA":"I0388","DIST_INFRA_M":3320.9060332468207,"DIST_EXISTENTE":3407.847194788623,"DIST_MUNICIPAL":0.0,"INTERSECCION_O_NODO":"INTERSECCION_VIAL_CANTONAL","CORREDOR_COINCIDENTE":null,"CORREDOR_METODO":"Eje intersecta buffer200m; no implica punto sobre eje ni criterio de seleccion","SOLAPE_OTRAS49_PCT":35.792312388426105,"D_EXCLUSIVOS":0.0,"V_EXCLUSIVOS":0.0,"C_EXCLUSIVOS":0.0,"N_CORREDORES":0.0,"CORREDOR":null,"BENEFICIO_CONTEXTO":"Exclusivo respecto103+otras49;no sumar entre camaras","LONGITUD_EXCLUSIVA_ANILLO_VIAL_M":0.0,"LONGITUD_EXCLUSIVA_CICLOVIAS_M":0.0,"LONGITUD_EXCLUSIVA_BOULEVARD_MACAJI_BELLAVISTA_M":0.0,"LONGITUD_EXCLUSIVA_QUEBRADA_LAS_ABRAS_M":0.0,"INDICADORES_PUNTUALES_RECALCULADOS":null},"geometry":{"type":"Point","coordinates":[-78.70261204360676,-1.7049650434978976]}},{"type":"Feature","properties":{"ID_PROPUESTA":"MUN-003","ID_ORIGINAL":"RUR_CALP_01","FILA_ORIGINAL":3.0,"GRUPO":"CABECERA_RURAL","SUBTIPO":"INTERSECCION_CABECERA","X":751137.2800999988,"Y":9818090.984,"LONGITUD":-78.74275604831962,"LATITUD":-1.6444984692742735,"PARROQUIA":"Calpi","ID_CANDIDATO":"RUR-CALPI-0036","ORIGEN_CANDIDATO":"INTERSECCION_VIAL_CANTONAL","GRADO_NODO":4,"CRITERIO_PRINCIPAL":"Centralidad vial y nueva evidencia territorial en cabecera PUGS","CRITERIOS_SECUNDARIOS":"Centro de cabecera; nuevos D/V y Convivencia; equipamientos; Gi* D/V rural; nueva area PUGS; menor solape","JUSTIFICACION":"Interseccion vial dentro de la cabecera PUGS de Calpi; seleccion 2/2. 7 eventos adicionales dentro de la localidad y 85157.3 m2 nuevos de su area. Entorno 200 m: 13 incidentes; solape con escenario actual 0.00%. Pendiente inspeccion de campo.","ESTADO":null,"ESTADO_VALIDACION":"PROPUESTA_REVISADA","METODO_FINAL":null,"HOTSPOT_DEL":"R-1000-33-17|R-1000-33-18|R-1000-34-18","NIVEL_DEL":99.0,"HOTSPOT_VIOL":"R-1000-33-17|R-1000-33-18|R-1000-34-18","NIVEL_VIOL":90.0,"HOTSPOT_CONV":"R-1000-33-17|R-1000-33-18|R-1000-34-17|R-1000-34-18","NIVEL_CONV":99.0,"AMBITO_HOTSPOT":"RURAL","COINCIDENCIA_DV":1.0,"DELINCUENCIA_200M":2.0,"VIOLENCIA_200M":5.0,"CONVIVENCIA_200M":6.0,"N_TOTAL":13.0,"COBERTURA_PREVIA":0.0,"POBLACION_ASOCIADA":null,"MANZANAS_POB_VALIDAS":0.0,"MANZANAS_POB_FALTANTES":0.0,"POBLACION_METODO":"Estimacion areal CPV2022 dentro del radio200m y18Plataformas; no poblacion rural completa","UPC_CERCANA":"I0429","NOMBRE_UPC":"CALPI","DIST_UPC_M":501.33585963293996,"INFRA_CERCANA":"I0429","DIST_INFRA_M":501.33585963293996,"DIST_EXISTENTE":853.0006953958973,"DIST_MUNICIPAL":0.0,"INTERSECCION_O_NODO":"INTERSECCION_VIAL_CANTONAL","CORREDOR_COINCIDENTE":null,"CORREDOR_METODO":"Eje intersecta buffer200m; no implica punto sobre eje ni criterio de seleccion","SOLAPE_OTRAS49_PCT":21.174025749584416,"D_EXCLUSIVOS":2.0,"V_EXCLUSIVOS":0.0,"C_EXCLUSIVOS":5.0,"N_CORREDORES":0.0,"CORREDOR":null,"BENEFICIO_CONTEXTO":"Exclusivo respecto103+otras49;no sumar entre camaras","LONGITUD_EXCLUSIVA_ANILLO_VIAL_M":0.0,"LONGITUD_EXCLUSIVA_CICLOVIAS_M":0.0,"LONGITUD_EXCLUSIVA_BOULEVARD_MACAJI_BELLAVISTA_M":0.0,"LONGITUD_EXCLUSIVA_QUEBRADA_LAS_ABRAS_M":0.0,"INDICADORES_PUNTUALES_RECALCULADOS":null},"geometry":{"type":"Point","coordinates":[-78.74275604831962,-1.6444984692742735]}},{"type":"Feature","properties":{"ID_PROPUESTA":"MUN-004","ID_ORIGINAL":"RUR_CALP_02","FILA_ORIGINAL":4.0,"GRUPO":"CABECERA_RURAL","SUBTIPO":"INTERSECCION_CABECERA","X":751004.1127000009,"Y":9817856.372300003,"LONGITUD":-78.74394996080791,"LATITUD":-1.6466207624548175,"PARROQUIA":"Calpi","ID_CANDIDATO":"RUR-CALPI-0018","ORIGEN_CANDIDATO":"INTERSECCION_VIAL_CANTONAL","GRADO_NODO":3,"CRITERIO_PRINCIPAL":"Centralidad vial y nueva evidencia territorial en cabecera PUGS","CRITERIOS_SECUNDARIOS":"Centro de cabecera; nuevos D/V y Convivencia; equipamientos; Gi* D/V rural; nueva area PUGS; menor solape","JUSTIFICACION":"Interseccion vial dentro de la cabecera PUGS de Calpi; seleccion 1/2. 23 eventos adicionales dentro de la localidad y 125566.9 m2 nuevos de su area. Entorno 200 m: 23 incidentes; solape con escenario actual 0.00%. Pendiente inspeccion de campo.","ESTADO":null,"ESTADO_VALIDACION":"PROPUESTA_REVISADA","METODO_FINAL":null,"HOTSPOT_DEL":"R-1000-33-17|R-1000-33-18|R-1000-34-18","NIVEL_DEL":99.0,"HOTSPOT_VIOL":"R-1000-33-17|R-1000-33-18|R-1000-34-18","NIVEL_VIOL":90.0,"HOTSPOT_CONV":"R-1000-33-17|R-1000-33-18|R-1000-34-17|R-1000-34-18","NIVEL_CONV":99.0,"AMBITO_HOTSPOT":"RURAL","COINCIDENCIA_DV":1.0,"DELINCUENCIA_200M":2.0,"VIOLENCIA_200M":7.0,"CONVIVENCIA_200M":14.0,"N_TOTAL":23.0,"COBERTURA_PREVIA":0.0,"POBLACION_ASOCIADA":null,"MANZANAS_POB_VALIDAS":0.0,"MANZANAS_POB_FALTANTES":0.0,"POBLACION_METODO":"Estimacion areal CPV2022 dentro del radio200m y18Plataformas; no poblacion rural completa","UPC_CERCANA":"I0429","NOMBRE_UPC":"CALPI","DIST_UPC_M":440.1511734144851,"INFRA_CERCANA":"I0429","DIST_INFRA_M":440.1511734144851,"DIST_EXISTENTE":684.653099151647,"DIST_MUNICIPAL":0.0,"INTERSECCION_O_NODO":"INTERSECCION_VIAL_CANTONAL","CORREDOR_COINCIDENTE":null,"CORREDOR_METODO":"Eje intersecta buffer200m; no implica punto sobre eje ni criterio de seleccion","SOLAPE_OTRAS49_PCT":21.174025749584416,"D_EXCLUSIVOS":2.0,"V_EXCLUSIVOS":2.0,"C_EXCLUSIVOS":13.0,"N_CORREDORES":0.0,"CORREDOR":null,"BENEFICIO_CONTEXTO":"Exclusivo respecto103+otras49;no sumar entre camaras","LONGITUD_EXCLUSIVA_ANILLO_VIAL_M":0.0,"LONGITUD_EXCLUSIVA_CICLOVIAS_M":0.0,"LONGITUD_EXCLUSIVA_BOULEVARD_MACAJI_BELLAVISTA_M":0.0,"LONGITUD_EXCLUSIVA_QUEBRADA_LAS_ABRAS_M":0.0,"INDICADORES_PUNTUALES_RECALCULADOS":null},"geometry":{"type":"Point","coordinates":[-78.74394996080791,-1.6466207624548175]}},{"type":"Feature","properties":{"ID_PROPUESTA":"MUN-005","ID_ORIGINAL":"RUR_FLOR_01","FILA_ORIGINAL":5.0,"GRUPO":"CABECERA_RURAL","SUBTIPO":"INTERSECCION_CABECERA","X":761907.9219000018,"Y":9799043.2934,"LONGITUD":-78.64578990287096,"LATITUD":-1.8165684091605712,"PARROQUIA":"Flores","ID_CANDIDATO":"RUR-FLORES-0011","ORIGEN_CANDIDATO":"INTERSECCION_VIAL_CANTONAL","GRADO_NODO":3,"CRITERIO_PRINCIPAL":"Centralidad vial y nueva evidencia territorial en cabecera PUGS","CRITERIOS_SECUNDARIOS":"Centro de cabecera; nuevos D/V y Convivencia; equipamientos; Gi* D/V rural; nueva area PUGS; menor solape","JUSTIFICACION":"Interseccion vial dentro de la cabecera PUGS de Flores; seleccion 2/2. 0 eventos adicionales dentro de la localidad y 1060.6 m2 nuevos de su area. Entorno 200 m: 2 incidentes; solape con escenario actual 0.00%. Pendiente inspeccion de campo.","ESTADO":null,"ESTADO_VALIDACION":"PROPUESTA_REVISADA","METODO_FINAL":null,"HOTSPOT_DEL":null,"NIVEL_DEL":0.0,"HOTSPOT_VIOL":null,"NIVEL_VIOL":0.0,"HOTSPOT_CONV":null,"NIVEL_CONV":0.0,"AMBITO_HOTSPOT":"RURAL","COINCIDENCIA_DV":0.0,"DELINCUENCIA_200M":1.0,"VIOLENCIA_200M":1.0,"CONVIVENCIA_200M":0.0,"N_TOTAL":2.0,"COBERTURA_PREVIA":0.0,"POBLACION_ASOCIADA":null,"MANZANAS_POB_VALIDAS":0.0,"MANZANAS_POB_FALTANTES":0.0,"POBLACION_METODO":"Estimacion areal CPV2022 dentro del radio200m y18Plataformas; no poblacion rural completa","UPC_CERCANA":"I0433","NOMBRE_UPC":"LICTO","DIST_UPC_M":4873.282554969946,"INFRA_CERCANA":"I0433","DIST_INFRA_M":4873.282554969946,"DIST_EXISTENTE":6601.046225095992,"DIST_MUNICIPAL":0.0,"INTERSECCION_O_NODO":"INTERSECCION_VIAL_CANTONAL","CORREDOR_COINCIDENTE":null,"CORREDOR_METODO":"Eje intersecta buffer200m; no implica punto sobre eje ni criterio de seleccion","SOLAPE_OTRAS49_PCT":86.3369815513209,"D_EXCLUSIVOS":0.0,"V_EXCLUSIVOS":0.0,"C_EXCLUSIVOS":0.0,"N_CORREDORES":0.0,"CORREDOR":null,"BENEFICIO_CONTEXTO":"Exclusivo respecto103+otras49;no sumar entre camaras","LONGITUD_EXCLUSIVA_ANILLO_VIAL_M":0.0,"LONGITUD_EXCLUSIVA_CICLOVIAS_M":0.0,"LONGITUD_EXCLUSIVA_BOULEVARD_MACAJI_BELLAVISTA_M":0.0,"LONGITUD_EXCLUSIVA_QUEBRADA_LAS_ABRAS_M":0.0,"INDICADORES_PUNTUALES_RECALCULADOS":null},"geometry":{"type":"Point","coordinates":[-78.64578990287096,-1.8165684091605712]}},{"type":"Feature","properties":{"ID_PROPUESTA":"MUN-006","ID_ORIGINAL":"RUR_FLOR_02","FILA_ORIGINAL":6.0,"GRUPO":"CABECERA_RURAL","SUBTIPO":"INTERSECCION_CABECERA","X":761865.627999999,"Y":9799051.0789,"LONGITUD":-78.64616994537444,"LATITUD":-1.8164985300573193,"PARROQUIA":"Flores","ID_CANDIDATO":"RUR-FLORES-0008","ORIGEN_CANDIDATO":"INTERSECCION_VIAL_CANTONAL","GRADO_NODO":3,"CRITERIO_PRINCIPAL":"Centralidad vial y nueva evidencia territorial en cabecera PUGS","CRITERIOS_SECUNDARIOS":"Centro de cabecera; nuevos D/V y Convivencia; equipamientos; Gi* D/V rural; nueva area PUGS; menor solape","JUSTIFICACION":"Interseccion vial dentro de la cabecera PUGS de Flores; seleccion 1/2. 1 eventos adicionales dentro de la localidad y 69180.5 m2 nuevos de su area. Entorno 200 m: 2 incidentes; solape con escenario actual 0.00%. Pendiente inspeccion de campo.","ESTADO":null,"ESTADO_VALIDACION":"PROPUESTA_REVISADA","METODO_FINAL":null,"HOTSPOT_DEL":null,"NIVEL_DEL":0.0,"HOTSPOT_VIOL":null,"NIVEL_VIOL":0.0,"HOTSPOT_CONV":null,"NIVEL_CONV":0.0,"AMBITO_HOTSPOT":"RURAL","COINCIDENCIA_DV":0.0,"DELINCUENCIA_200M":1.0,"VIOLENCIA_200M":1.0,"CONVIVENCIA_200M":0.0,"N_TOTAL":2.0,"COBERTURA_PREVIA":0.0,"POBLACION_ASOCIADA":null,"MANZANAS_POB_VALIDAS":0.0,"MANZANAS_POB_FALTANTES":0.0,"POBLACION_METODO":"Estimacion areal CPV2022 dentro del radio200m y18Plataformas; no poblacion rural completa","UPC_CERCANA":"I0433","NOMBRE_UPC":"LICTO","DIST_UPC_M":4911.696797885793,"INFRA_CERCANA":"I0433","DIST_INFRA_M":4911.696797885793,"DIST_EXISTENTE":6629.404396672371,"DIST_MUNICIPAL":0.0,"INTERSECCION_O_NODO":"INTERSECCION_VIAL_CANTONAL","CORREDOR_COINCIDENTE":null,"CORREDOR_METODO":"Eje intersecta buffer200m; no implica punto sobre eje ni criterio de seleccion","SOLAPE_OTRAS49_PCT":86.33698155132096,"D_EXCLUSIVOS":0.0,"V_EXCLUSIVOS":0.0,"C_EXCLUSIVOS":0.0,"N_CORREDORES":0.0,"CORREDOR":null,"BENEFICIO_CONTEXTO":"Exclusivo respecto103+otras49;no sumar entre camaras","LONGITUD_EXCLUSIVA_ANILLO_VIAL_M":0.0,"LONGITUD_EXCLUSIVA_CICLOVIAS_M":0.0,"LONGITUD_EXCLUSIVA_BOULEVARD_MACAJI_BELLAVISTA_M":0.0,"LONGITUD_EXCLUSIVA_QUEBRADA_LAS_ABRAS_M":0.0,"INDICADORES_PUNTUALES_RECALCULADOS":null},"geometry":{"type":"Point","coordinates":[-78.64616994537444,-1.8164985300573193]}},{"type":"Feature","properties":{"ID_PROPUESTA":"MUN-007","ID_ORIGINAL":"RUR_LICT_01","FILA_ORIGINAL":7.0,"GRUPO":"CABECERA_RURAL","SUBTIPO":"INTERSECCION_CABECERA","X":766741.9838000003,"Y":9800253.1719,"LONGITUD":-78.60237771149353,"LATITUD":-1.805574542553597,"PARROQUIA":"Licto","ID_CANDIDATO":"RUR-LICTO-0066","ORIGEN_CANDIDATO":"INTERSECCION_VIAL_CANTONAL","GRADO_NODO":3,"CRITERIO_PRINCIPAL":"Centralidad vial y nueva evidencia territorial en cabecera PUGS","CRITERIOS_SECUNDARIOS":"Centro de cabecera; nuevos D/V y Convivencia; equipamientos; Gi* D/V rural; nueva area PUGS; menor solape","JUSTIFICACION":"Interseccion vial dentro de la cabecera PUGS de Licto; seleccion 1/2. 25 eventos adicionales dentro de la localidad y 125546.3 m2 nuevos de su area. Entorno 200 m: 25 incidentes; solape con escenario actual 0.00%. Pendiente inspeccion de campo.","ESTADO":null,"ESTADO_VALIDACION":"PROPUESTA_REVISADA","METODO_FINAL":null,"HOTSPOT_DEL":null,"NIVEL_DEL":0.0,"HOTSPOT_VIOL":null,"NIVEL_VIOL":0.0,"HOTSPOT_CONV":null,"NIVEL_CONV":0.0,"AMBITO_HOTSPOT":"RURAL","COINCIDENCIA_DV":0.0,"DELINCUENCIA_200M":6.0,"VIOLENCIA_200M":5.0,"CONVIVENCIA_200M":14.0,"N_TOTAL":25.0,"COBERTURA_PREVIA":0.0,"POBLACION_ASOCIADA":null,"MANZANAS_POB_VALIDAS":0.0,"MANZANAS_POB_FALTANTES":0.0,"POBLACION_METODO":"Estimacion areal CPV2022 dentro del radio200m y18Plataformas; no poblacion rural completa","UPC_CERCANA":"I0433","NOMBRE_UPC":"LICTO","DIST_UPC_M":229.72813055654117,"INFRA_CERCANA":"I0433","DIST_INFRA_M":229.72813055654117,"DIST_EXISTENTE":2914.565378537159,"DIST_MUNICIPAL":0.0,"INTERSECCION_O_NODO":"INTERSECCION_VIAL_CANTONAL","CORREDOR_COINCIDENTE":null,"CORREDOR_METODO":"Eje intersecta buffer200m; no implica punto sobre eje ni criterio de seleccion","SOLAPE_OTRAS49_PCT":12.012007727807795,"D_EXCLUSIVOS":6.0,"V_EXCLUSIVOS":5.0,"C_EXCLUSIVOS":13.0,"N_CORREDORES":0.0,"CORREDOR":null,"BENEFICIO_CONTEXTO":"Exclusivo respecto103+otras49;no sumar entre camaras","LONGITUD_EXCLUSIVA_ANILLO_VIAL_M":0.0,"LONGITUD_EXCLUSIVA_CICLOVIAS_M":0.0,"LONGITUD_EXCLUSIVA_BOULEVARD_MACAJI_BELLAVISTA_M":0.0,"LONGITUD_EXCLUSIVA_QUEBRADA_LAS_ABRAS_M":0.0,"INDICADORES_PUNTUALES_RECALCULADOS":null},"geometry":{"type":"Point","coordinates":[-78.60237771149353,-1.805574542553597]}},{"type":"Feature","properties":{"ID_PROPUESTA":"MUN-008","ID_ORIGINAL":"RUR_LICT_02","FILA_ORIGINAL":8.0,"GRUPO":"CABECERA_RURAL","SUBTIPO":"INTERSECCION_CABECERA","X":766457.806000001,"Y":9800381.4114,"LONGITUD":-78.60493207401315,"LATITUD":-1.8044187385853077,"PARROQUIA":"Licto","ID_CANDIDATO":"RUR-LICTO-0026","ORIGEN_CANDIDATO":"INTERSECCION_VIAL_CANTONAL","GRADO_NODO":4,"CRITERIO_PRINCIPAL":"Centralidad vial y nueva evidencia territorial en cabecera PUGS","CRITERIOS_SECUNDARIOS":"Centro de cabecera; nuevos D/V y Convivencia; equipamientos; Gi* D/V rural; nueva area PUGS; menor solape","JUSTIFICACION":"Interseccion vial dentro de la cabecera PUGS de Licto; seleccion 2/2. 1 eventos adicionales dentro de la localidad y 105528.7 m2 nuevos de su area. Entorno 200 m: 2 incidentes; solape con escenario actual 0.00%. Pendiente inspeccion de campo.","ESTADO":null,"ESTADO_VALIDACION":"PROPUESTA_REVISADA","METODO_FINAL":null,"HOTSPOT_DEL":null,"NIVEL_DEL":0.0,"HOTSPOT_VIOL":null,"NIVEL_VIOL":0.0,"HOTSPOT_CONV":null,"NIVEL_CONV":0.0,"AMBITO_HOTSPOT":"RURAL","COINCIDENCIA_DV":0.0,"DELINCUENCIA_200M":0.0,"VIOLENCIA_200M":1.0,"CONVIVENCIA_200M":1.0,"N_TOTAL":2.0,"COBERTURA_PREVIA":0.0,"POBLACION_ASOCIADA":null,"MANZANAS_POB_VALIDAS":0.0,"MANZANAS_POB_FALTANTES":0.0,"POBLACION_METODO":"Estimacion areal CPV2022 dentro del radio200m y18Plataformas; no poblacion rural completa","UPC_CERCANA":"I0433","NOMBRE_UPC":"LICTO","DIST_UPC_M":130.71089313088586,"INFRA_CERCANA":"I0433","DIST_INFRA_M":130.71089313088586,"DIST_EXISTENTE":2835.468932123982,"DIST_MUNICIPAL":0.0,"INTERSECCION_O_NODO":"INTERSECCION_VIAL_CANTONAL","CORREDOR_COINCIDENTE":null,"CORREDOR_METODO":"Eje intersecta buffer200m; no implica punto sobre eje ni criterio de seleccion","SOLAPE_OTRAS49_PCT":12.012007727807795,"D_EXCLUSIVOS":0.0,"V_EXCLUSIVOS":1.0,"C_EXCLUSIVOS":0.0,"N_CORREDORES":0.0,"CORREDOR":null,"BENEFICIO_CONTEXTO":"Exclusivo respecto103+otras49;no sumar entre camaras","LONGITUD_EXCLUSIVA_ANILLO_VIAL_M":0.0,"LONGITUD_EXCLUSIVA_CICLOVIAS_M":0.0,"LONGITUD_EXCLUSIVA_BOULEVARD_MACAJI_BELLAVISTA_M":0.0,"LONGITUD_EXCLUSIVA_QUEBRADA_LAS_ABRAS_M":0.0,"INDICADORES_PUNTUALES_RECALCULADOS":null},"geometry":{"type":"Point","coordinates":[-78.60493207401315,-1.8044187385853077]}},{"type":"Feature","properties":{"ID_PROPUESTA":"MUN-009","ID_ORIGINAL":"RUR_PUNG_01","FILA_ORIGINAL":9.0,"GRUPO":"CABECERA_RURAL","SUBTIPO":"INTERSECCION_CABECERA","X":767740.7544000007,"Y":9798992.8685,"LONGITUD":-78.59339048796326,"LATITUD":-1.8169547310114504,"PARROQUIA":"Pungala","ID_CANDIDATO":"RUR-PUNGALA-0016","ORIGEN_CANDIDATO":"INTERSECCION_VIAL_CANTONAL","GRADO_NODO":4,"CRITERIO_PRINCIPAL":"Centralidad vial y nueva evidencia territorial en cabecera PUGS","CRITERIOS_SECUNDARIOS":"Centro de cabecera; nuevos D/V y Convivencia; equipamientos; Gi* D/V rural; nueva area PUGS; menor solape","JUSTIFICACION":"Interseccion vial dentro de la cabecera PUGS de Pungala; seleccion 1/2. 3 eventos adicionales dentro de la localidad y 111620.9 m2 nuevos de su area. Entorno 200 m: 3 incidentes; solape con escenario actual 0.00%. Pendiente inspeccion de campo.","ESTADO":null,"ESTADO_VALIDACION":"PROPUESTA_REVISADA","METODO_FINAL":null,"HOTSPOT_DEL":null,"NIVEL_DEL":0.0,"HOTSPOT_VIOL":null,"NIVEL_VIOL":0.0,"HOTSPOT_CONV":null,"NIVEL_CONV":0.0,"AMBITO_HOTSPOT":"RURAL","COINCIDENCIA_DV":0.0,"DELINCUENCIA_200M":0.0,"VIOLENCIA_200M":2.0,"CONVIVENCIA_200M":1.0,"N_TOTAL":3.0,"COBERTURA_PREVIA":0.0,"POBLACION_ASOCIADA":null,"MANZANAS_POB_VALIDAS":0.0,"MANZANAS_POB_FALTANTES":0.0,"POBLACION_METODO":"Estimacion areal CPV2022 dentro del radio200m y18Plataformas; no poblacion rural completa","UPC_CERCANA":"I0434","NOMBRE_UPC":"PUNGALA","DIST_UPC_M":94.82137062940006,"INFRA_CERCANA":"I0434","DIST_INFRA_M":94.82137062940006,"DIST_EXISTENTE":4208.157240780435,"DIST_MUNICIPAL":0.0,"INTERSECCION_O_NODO":"INTERSECCION_VIAL_CANTONAL","CORREDOR_COINCIDENTE":null,"CORREDOR_METODO":"Eje intersecta buffer200m; no implica punto sobre eje ni criterio de seleccion","SOLAPE_OTRAS49_PCT":3.8857296120204463,"D_EXCLUSIVOS":0.0,"V_EXCLUSIVOS":2.0,"C_EXCLUSIVOS":1.0,"N_CORREDORES":0.0,"CORREDOR":null,"BENEFICIO_CONTEXTO":"Exclusivo respecto103+otras49;no sumar entre camaras","LONGITUD_EXCLUSIVA_ANILLO_VIAL_M":0.0,"LONGITUD_EXCLUSIVA_CICLOVIAS_M":0.0,"LONGITUD_EXCLUSIVA_BOULEVARD_MACAJI_BELLAVISTA_M":0.0,"LONGITUD_EXCLUSIVA_QUEBRADA_LAS_ABRAS_M":0.0,"INDICADORES_PUNTUALES_RECALCULADOS":null},"geometry":{"type":"Point","coordinates":[-78.59339048796326,-1.8169547310114504]}},{"type":"Feature","properties":{"ID_PROPUESTA":"MUN-010","ID_ORIGINAL":"RUR_PUNG_02","FILA_ORIGINAL":10.0,"GRUPO":"CABECERA_RURAL","SUBTIPO":"INTERSECCION_CABECERA","X":767828.3641999997,"Y":9799340.9402,"LONGITUD":-78.59260763155743,"LATITUD":-1.8138073914459107,"PARROQUIA":"Pungala","ID_CANDIDATO":"RUR-PUNGALA-0035","ORIGEN_CANDIDATO":"INTERSECCION_VIAL_CANTONAL","GRADO_NODO":3,"CRITERIO_PRINCIPAL":"Centralidad vial y nueva evidencia territorial en cabecera PUGS","CRITERIOS_SECUNDARIOS":"Centro de cabecera; nuevos D/V y Convivencia; equipamientos; Gi* D/V rural; nueva area PUGS; menor solape","JUSTIFICACION":"Interseccion vial dentro de la cabecera PUGS de Pungala; seleccion 2/2. 0 eventos adicionales dentro de la localidad y 56766.6 m2 nuevos de su area. Entorno 200 m: 0 incidentes; solape con escenario actual 0.00%. Pendiente inspeccion de campo.","ESTADO":null,"ESTADO_VALIDACION":"PROPUESTA_REVISADA","METODO_FINAL":null,"HOTSPOT_DEL":null,"NIVEL_DEL":0.0,"HOTSPOT_VIOL":null,"NIVEL_VIOL":0.0,"HOTSPOT_CONV":null,"NIVEL_CONV":0.0,"AMBITO_HOTSPOT":"RURAL","COINCIDENCIA_DV":0.0,"DELINCUENCIA_200M":0.0,"VIOLENCIA_200M":0.0,"CONVIVENCIA_200M":0.0,"N_TOTAL":0.0,"COBERTURA_PREVIA":0.0,"POBLACION_ASOCIADA":null,"MANZANAS_POB_VALIDAS":0.0,"MANZANAS_POB_FALTANTES":0.0,"POBLACION_METODO":"Estimacion areal CPV2022 dentro del radio200m y18Plataformas; no poblacion rural completa","UPC_CERCANA":"I0434","NOMBRE_UPC":"PUNGALA","DIST_UPC_M":293.0390981285473,"INFRA_CERCANA":"I0434","DIST_INFRA_M":293.0390981285473,"DIST_EXISTENTE":3880.829350239768,"DIST_MUNICIPAL":0.0,"INTERSECCION_O_NODO":"INTERSECCION_VIAL_CANTONAL","CORREDOR_COINCIDENTE":null,"CORREDOR_METODO":"Eje intersecta buffer200m; no implica punto sobre eje ni criterio de seleccion","SOLAPE_OTRAS49_PCT":3.8857296120204463,"D_EXCLUSIVOS":0.0,"V_EXCLUSIVOS":0.0,"C_EXCLUSIVOS":0.0,"N_CORREDORES":0.0,"CORREDOR":null,"BENEFICIO_CONTEXTO":"Exclusivo respecto103+otras49;no sumar entre camaras","LONGITUD_EXCLUSIVA_ANILLO_VIAL_M":0.0,"LONGITUD_EXCLUSIVA_CICLOVIAS_M":0.0,"LONGITUD_EXCLUSIVA_BOULEVARD_MACAJI_BELLAVISTA_M":0.0,"LONGITUD_EXCLUSIVA_QUEBRADA_LAS_ABRAS_M":0.0,"INDICADORES_PUNTUALES_RECALCULADOS":null},"geometry":{"type":"Point","coordinates":[-78.59260763155743,-1.8138073914459107]}},{"type":"Feature","properties":{"ID_PROPUESTA":"MUN-011","ID_ORIGINAL":"RUR_PUNI_01","FILA_ORIGINAL":11.0,"GRUPO":"CABECERA_RURAL","SUBTIPO":"INTERSECCION_CABECERA","X":760636.2466516002,"Y":9804337.803688096,"LONGITUD":-78.65727504028295,"LATITUD":-1.768723035731322,"PARROQUIA":"Punin","ID_CANDIDATO":"RUR-PUNIN-0011","ORIGEN_CANDIDATO":"INTERSECCION_VIAL_CANTONAL","GRADO_NODO":3,"CRITERIO_PRINCIPAL":"Centralidad vial y nueva evidencia territorial en cabecera PUGS","CRITERIOS_SECUNDARIOS":"Centro de cabecera; nuevos D/V y Convivencia; equipamientos; Gi* D/V rural; nueva area PUGS; menor solape","JUSTIFICACION":"Interseccion vial dentro de la cabecera PUGS de Punin; seleccion 2/2. 0 eventos adicionales dentro de la localidad y 59297.7 m2 nuevos de su area. Entorno 200 m: 5 incidentes; solape con escenario actual 0.00%. Pendiente inspeccion de campo.","ESTADO":null,"ESTADO_VALIDACION":"PROPUESTA_REVISADA","METODO_FINAL":null,"HOTSPOT_DEL":null,"NIVEL_DEL":0.0,"HOTSPOT_VIOL":null,"NIVEL_VIOL":0.0,"HOTSPOT_CONV":null,"NIVEL_CONV":0.0,"AMBITO_HOTSPOT":"RURAL","COINCIDENCIA_DV":0.0,"DELINCUENCIA_200M":1.0,"VIOLENCIA_200M":1.0,"CONVIVENCIA_200M":3.0,"N_TOTAL":5.0,"COBERTURA_PREVIA":0.0,"POBLACION_ASOCIADA":null,"MANZANAS_POB_VALIDAS":0.0,"MANZANAS_POB_FALTANTES":0.0,"POBLACION_METODO":"Estimacion areal CPV2022 dentro del radio200m y18Plataformas; no poblacion rural completa","UPC_CERCANA":"I0435","NOMBRE_UPC":"PUNIN","DIST_UPC_M":803.8479682277766,"INFRA_CERCANA":"I0435","DIST_INFRA_M":803.8479682277766,"DIST_EXISTENTE":4288.243997872234,"DIST_MUNICIPAL":0.0,"INTERSECCION_O_NODO":"INTERSECCION_VIAL_CANTONAL","CORREDOR_COINCIDENTE":null,"CORREDOR_METODO":"Eje intersecta buffer200m; no implica punto sobre eje ni criterio de seleccion","SOLAPE_OTRAS49_PCT":1.9762047621663206,"D_EXCLUSIVOS":1.0,"V_EXCLUSIVOS":1.0,"C_EXCLUSIVOS":3.0,"N_CORREDORES":0.0,"CORREDOR":null,"BENEFICIO_CONTEXTO":"Exclusivo respecto103+otras49;no sumar entre camaras","LONGITUD_EXCLUSIVA_ANILLO_VIAL_M":0.0,"LONGITUD_EXCLUSIVA_CICLOVIAS_M":0.0,"LONGITUD_EXCLUSIVA_BOULEVARD_MACAJI_BELLAVISTA_M":0.0,"LONGITUD_EXCLUSIVA_QUEBRADA_LAS_ABRAS_M":0.0,"INDICADORES_PUNTUALES_RECALCULADOS":null},"geometry":{"type":"Point","coordinates":[-78.65727504028295,-1.768723035731322]}},{"type":"Feature","properties":{"ID_PROPUESTA":"MUN-012","ID_ORIGINAL":"RUR_PUNI_02","FILA_ORIGINAL":12.0,"GRUPO":"CABECERA_RURAL","SUBTIPO":"INTERSECCION_CABECERA","X":760759.5702325433,"Y":9804690.806418572,"LONGITUD":-78.6561711737171,"LATITUD":-1.765530621577225,"PARROQUIA":"Punin","ID_CANDIDATO":"RUR-PUNIN-0027","ORIGEN_CANDIDATO":"INTERSECCION_VIAL_CANTONAL","GRADO_NODO":3,"CRITERIO_PRINCIPAL":"Centralidad vial y nueva evidencia territorial en cabecera PUGS","CRITERIOS_SECUNDARIOS":"Centro de cabecera; nuevos D/V y Convivencia; equipamientos; Gi* D/V rural; nueva area PUGS; menor solape","JUSTIFICACION":"Interseccion vial dentro de la cabecera PUGS de Punin; seleccion 1/2. 8 eventos adicionales dentro de la localidad y 106573.8 m2 nuevos de su area. Entorno 200 m: 8 incidentes; solape con escenario actual 0.00%. Pendiente inspeccion de campo.","ESTADO":null,"ESTADO_VALIDACION":"PROPUESTA_REVISADA","METODO_FINAL":null,"HOTSPOT_DEL":null,"NIVEL_DEL":0.0,"HOTSPOT_VIOL":null,"NIVEL_VIOL":0.0,"HOTSPOT_CONV":null,"NIVEL_CONV":0.0,"AMBITO_HOTSPOT":"RURAL","COINCIDENCIA_DV":0.0,"DELINCUENCIA_200M":5.0,"VIOLENCIA_200M":1.0,"CONVIVENCIA_200M":2.0,"N_TOTAL":8.0,"COBERTURA_PREVIA":0.0,"POBLACION_ASOCIADA":null,"MANZANAS_POB_VALIDAS":0.0,"MANZANAS_POB_FALTANTES":0.0,"POBLACION_METODO":"Estimacion areal CPV2022 dentro del radio200m y18Plataformas; no poblacion rural completa","UPC_CERCANA":"I0435","NOMBRE_UPC":"PUNIN","DIST_UPC_M":435.983659434087,"INFRA_CERCANA":"I0435","DIST_INFRA_M":435.983659434087,"DIST_EXISTENTE":3976.6055369114315,"DIST_MUNICIPAL":0.0,"INTERSECCION_O_NODO":"INTERSECCION_VIAL_CANTONAL","CORREDOR_COINCIDENTE":null,"CORREDOR_METODO":"Eje intersecta buffer200m; no implica punto sobre eje ni criterio de seleccion","SOLAPE_OTRAS49_PCT":1.9762047621663206,"D_EXCLUSIVOS":5.0,"V_EXCLUSIVOS":1.0,"C_EXCLUSIVOS":2.0,"N_CORREDORES":0.0,"CORREDOR":null,"BENEFICIO_CONTEXTO":"Exclusivo respecto103+otras49;no sumar entre camaras","LONGITUD_EXCLUSIVA_ANILLO_VIAL_M":0.0,"LONGITUD_EXCLUSIVA_CICLOVIAS_M":0.0,"LONGITUD_EXCLUSIVA_BOULEVARD_MACAJI_BELLAVISTA_M":0.0,"LONGITUD_EXCLUSIVA_QUEBRADA_LAS_ABRAS_M":0.0,"INDICADORES_PUNTUALES_RECALCULADOS":null},"geometry":{"type":"Point","coordinates":[-78.6561711737171,-1.765530621577225]}},{"type":"Feature","properties":{"ID_PROPUESTA":"MUN-013","ID_ORIGINAL":"RUR_QUIM_01","FILA_ORIGINAL":13.0,"GRUPO":"CABECERA_RURAL","SUBTIPO":"INTERSECCION_CABECERA","X":770618.2252000008,"Y":9816562.891,"LONGITUD":-78.56774496149065,"LATITUD":-1.6581040314220175,"PARROQUIA":"Quimiag","ID_CANDIDATO":"RUR-QUIMIAG-0012","ORIGEN_CANDIDATO":"INTERSECCION_VIAL_CANTONAL","GRADO_NODO":3,"CRITERIO_PRINCIPAL":"Centralidad vial y nueva evidencia territorial en cabecera PUGS","CRITERIOS_SECUNDARIOS":"Centro de cabecera; nuevos D/V y Convivencia; equipamientos; Gi* D/V rural; nueva area PUGS; menor solape","JUSTIFICACION":"Interseccion vial dentro de la cabecera PUGS de Quimiag; seleccion 1/2. 0 eventos adicionales dentro de la localidad y 121829.9 m2 nuevos de su area. Entorno 200 m: 0 incidentes; solape con escenario actual 0.00%. Pendiente inspeccion de campo.","ESTADO":null,"ESTADO_VALIDACION":"PROPUESTA_REVISADA","METODO_FINAL":null,"HOTSPOT_DEL":null,"NIVEL_DEL":0.0,"HOTSPOT_VIOL":null,"NIVEL_VIOL":0.0,"HOTSPOT_CONV":null,"NIVEL_CONV":0.0,"AMBITO_HOTSPOT":"RURAL","COINCIDENCIA_DV":0.0,"DELINCUENCIA_200M":0.0,"VIOLENCIA_200M":0.0,"CONVIVENCIA_200M":0.0,"N_TOTAL":0.0,"COBERTURA_PREVIA":0.0,"POBLACION_ASOCIADA":null,"MANZANAS_POB_VALIDAS":0.0,"MANZANAS_POB_FALTANTES":0.0,"POBLACION_METODO":"Estimacion areal CPV2022 dentro del radio200m y18Plataformas; no poblacion rural completa","UPC_CERCANA":"I0432","NOMBRE_UPC":"QUIMIAG","DIST_UPC_M":70.40570376829109,"INFRA_CERCANA":"I0432","DIST_INFRA_M":70.40570376829109,"DIST_EXISTENTE":7901.621090637217,"DIST_MUNICIPAL":0.0,"INTERSECCION_O_NODO":"INTERSECCION_VIAL_CANTONAL","CORREDOR_COINCIDENTE":null,"CORREDOR_METODO":"Eje intersecta buffer200m; no implica punto sobre eje ni criterio de seleccion","SOLAPE_OTRAS49_PCT":16.235986994973455,"D_EXCLUSIVOS":0.0,"V_EXCLUSIVOS":0.0,"C_EXCLUSIVOS":0.0,"N_CORREDORES":0.0,"CORREDOR":null,"BENEFICIO_CONTEXTO":"Exclusivo respecto103+otras49;no sumar entre camaras","LONGITUD_EXCLUSIVA_ANILLO_VIAL_M":0.0,"LONGITUD_EXCLUSIVA_CICLOVIAS_M":0.0,"LONGITUD_EXCLUSIVA_BOULEVARD_MACAJI_BELLAVISTA_M":0.0,"LONGITUD_EXCLUSIVA_QUEBRADA_LAS_ABRAS_M":0.0,"INDICADORES_PUNTUALES_RECALCULADOS":null},"geometry":{"type":"Point","coordinates":[-78.56774496149065,-1.6581040314220175]}},{"type":"Feature","properties":{"ID_PROPUESTA":"MUN-014","ID_ORIGINAL":"RUR_QUIM_02","FILA_ORIGINAL":14.0,"GRUPO":"CABECERA_RURAL","SUBTIPO":"INTERSECCION_CABECERA","X":770328.1317173912,"Y":9816533.748258958,"LONGITUD":-78.57035035879088,"LATITUD":-1.6583706752410032,"PARROQUIA":"Quimiag","ID_CANDIDATO":"RUR-QUIMIAG-0002","ORIGEN_CANDIDATO":"INTERSECCION_VIAL_CANTONAL","GRADO_NODO":3,"CRITERIO_PRINCIPAL":"Centralidad vial y nueva evidencia territorial en cabecera PUGS","CRITERIOS_SECUNDARIOS":"Centro de cabecera; nuevos D/V y Convivencia; equipamientos; Gi* D/V rural; nueva area PUGS; menor solape","JUSTIFICACION":"Interseccion vial dentro de la cabecera PUGS de Quimiag; seleccion 2/2. 0 eventos adicionales dentro de la localidad y 83581.9 m2 nuevos de su area. Entorno 200 m: 0 incidentes; solape con escenario actual 0.00%. Pendiente inspeccion de campo.","ESTADO":null,"ESTADO_VALIDACION":"PROPUESTA_REVISADA","METODO_FINAL":null,"HOTSPOT_DEL":null,"NIVEL_DEL":0.0,"HOTSPOT_VIOL":null,"NIVEL_VIOL":0.0,"HOTSPOT_CONV":null,"NIVEL_CONV":0.0,"AMBITO_HOTSPOT":"RURAL","COINCIDENCIA_DV":0.0,"DELINCUENCIA_200M":0.0,"VIOLENCIA_200M":0.0,"CONVIVENCIA_200M":0.0,"N_TOTAL":0.0,"COBERTURA_PREVIA":0.0,"POBLACION_ASOCIADA":null,"MANZANAS_POB_VALIDAS":0.0,"MANZANAS_POB_FALTANTES":0.0,"POBLACION_METODO":"Estimacion areal CPV2022 dentro del radio200m y18Plataformas; no poblacion rural completa","UPC_CERCANA":"I0432","NOMBRE_UPC":"QUIMIAG","DIST_UPC_M":352.87289444344344,"INFRA_CERCANA":"I0432","DIST_INFRA_M":352.87289444344344,"DIST_EXISTENTE":7621.848170262664,"DIST_MUNICIPAL":0.0,"INTERSECCION_O_NODO":"INTERSECCION_VIAL_CANTONAL","CORREDOR_COINCIDENTE":null,"CORREDOR_METODO":"Eje intersecta buffer200m; no implica punto sobre eje ni criterio de seleccion","SOLAPE_OTRAS49_PCT":16.23598699497344,"D_EXCLUSIVOS":0.0,"V_EXCLUSIVOS":0.0,"C_EXCLUSIVOS":0.0,"N_CORREDORES":0.0,"CORREDOR":null,"BENEFICIO_CONTEXTO":"Exclusivo respecto103+otras49;no sumar entre camaras","LONGITUD_EXCLUSIVA_ANILLO_VIAL_M":0.0,"LONGITUD_EXCLUSIVA_CICLOVIAS_M":0.0,"LONGITUD_EXCLUSIVA_BOULEVARD_MACAJI_BELLAVISTA_M":0.0,"LONGITUD_EXCLUSIVA_QUEBRADA_LAS_ABRAS_M":0.0,"INDICADORES_PUNTUALES_RECALCULADOS":null},"geometry":{"type":"Point","coordinates":[-78.57035035879088,-1.6583706752410032]}},{"type":"Feature","properties":{"ID_PROPUESTA":"MUN-015","ID_ORIGINAL":"RUR_SAN _01","FILA_ORIGINAL":15.0,"GRUPO":"CABECERA_RURAL","SUBTIPO":"INTERSECCION_CABECERA","X":746769.2216000003,"Y":9819030.9857,"LONGITUD":-78.78200596975456,"LATITUD":-1.6360447443634953,"PARROQUIA":"San Juan","ID_CANDIDATO":"RUR-SAN_JUAN-0024","ORIGEN_CANDIDATO":"INTERSECCION_VIAL_CANTONAL","GRADO_NODO":4,"CRITERIO_PRINCIPAL":"Centralidad vial y nueva evidencia territorial en cabecera PUGS","CRITERIOS_SECUNDARIOS":"Centro de cabecera; nuevos D/V y Convivencia; equipamientos; Gi* D/V rural; nueva area PUGS; menor solape","JUSTIFICACION":"Interseccion vial dentro de la cabecera PUGS de San Juan; seleccion 2/2. 1 eventos adicionales dentro de la localidad y 95202.4 m2 nuevos de su area. Entorno 200 m: 1 incidentes; solape con escenario actual 0.00%. Pendiente inspeccion de campo.","ESTADO":null,"ESTADO_VALIDACION":"PROPUESTA_REVISADA","METODO_FINAL":null,"HOTSPOT_DEL":null,"NIVEL_DEL":0.0,"HOTSPOT_VIOL":null,"NIVEL_VIOL":0.0,"HOTSPOT_CONV":null,"NIVEL_CONV":0.0,"AMBITO_HOTSPOT":"RURAL","COINCIDENCIA_DV":0.0,"DELINCUENCIA_200M":1.0,"VIOLENCIA_200M":0.0,"CONVIVENCIA_200M":0.0,"N_TOTAL":1.0,"COBERTURA_PREVIA":0.0,"POBLACION_ASOCIADA":null,"MANZANAS_POB_VALIDAS":0.0,"MANZANAS_POB_FALTANTES":0.0,"POBLACION_METODO":"Estimacion areal CPV2022 dentro del radio200m y18Plataformas; no poblacion rural completa","UPC_CERCANA":"I0428","NOMBRE_UPC":"SAN JUAN","DIST_UPC_M":170.22369256987895,"INFRA_CERCANA":"I0428","DIST_INFRA_M":170.22369256987895,"DIST_EXISTENTE":1097.050343117405,"DIST_MUNICIPAL":0.0,"INTERSECCION_O_NODO":"INTERSECCION_VIAL_CANTONAL","CORREDOR_COINCIDENTE":null,"CORREDOR_METODO":"Eje intersecta buffer200m; no implica punto sobre eje ni criterio de seleccion","SOLAPE_OTRAS49_PCT":2.4580610072476046,"D_EXCLUSIVOS":1.0,"V_EXCLUSIVOS":0.0,"C_EXCLUSIVOS":0.0,"N_CORREDORES":0.0,"CORREDOR":null,"BENEFICIO_CONTEXTO":"Exclusivo respecto103+otras49;no sumar entre camaras","LONGITUD_EXCLUSIVA_ANILLO_VIAL_M":0.0,"LONGITUD_EXCLUSIVA_CICLOVIAS_M":0.0,"LONGITUD_EXCLUSIVA_BOULEVARD_MACAJI_BELLAVISTA_M":0.0,"LONGITUD_EXCLUSIVA_QUEBRADA_LAS_ABRAS_M":0.0,"INDICADORES_PUNTUALES_RECALCULADOS":null},"geometry":{"type":"Point","coordinates":[-78.78200596975456,-1.6360447443634953]}},{"type":"Feature","properties":{"ID_PROPUESTA":"MUN-016","ID_ORIGINAL":"RUR_SAN _02","FILA_ORIGINAL":16.0,"GRUPO":"CABECERA_RURAL","SUBTIPO":"INTERSECCION_CABECERA","X":746651.3081000012,"Y":9819381.497100001,"LONGITUD":-78.78306873563253,"LATITUD":-1.6328771516593334,"PARROQUIA":"San Juan","ID_CANDIDATO":"RUR-SAN_JUAN-0018","ORIGEN_CANDIDATO":"INTERSECCION_VIAL_CANTONAL","GRADO_NODO":3,"CRITERIO_PRINCIPAL":"Centralidad vial y nueva evidencia territorial en cabecera PUGS","CRITERIOS_SECUNDARIOS":"Centro de cabecera; nuevos D/V y Convivencia; equipamientos; Gi* D/V rural; nueva area PUGS; menor solape","JUSTIFICACION":"Interseccion vial dentro de la cabecera PUGS de San Juan; seleccion 1/2. 24 eventos adicionales dentro de la localidad y 100560.4 m2 nuevos de su area. Entorno 200 m: 25 incidentes; solape con escenario actual 0.00%. Pendiente inspeccion de campo.","ESTADO":null,"ESTADO_VALIDACION":"PROPUESTA_REVISADA","METODO_FINAL":null,"HOTSPOT_DEL":null,"NIVEL_DEL":0.0,"HOTSPOT_VIOL":null,"NIVEL_VIOL":0.0,"HOTSPOT_CONV":null,"NIVEL_CONV":0.0,"AMBITO_HOTSPOT":"RURAL","COINCIDENCIA_DV":0.0,"DELINCUENCIA_200M":4.0,"VIOLENCIA_200M":6.0,"CONVIVENCIA_200M":15.0,"N_TOTAL":25.0,"COBERTURA_PREVIA":0.0,"POBLACION_ASOCIADA":null,"MANZANAS_POB_VALIDAS":0.0,"MANZANAS_POB_FALTANTES":0.0,"POBLACION_METODO":"Estimacion areal CPV2022 dentro del radio200m y18Plataformas; no poblacion rural completa","UPC_CERCANA":"I0428","NOMBRE_UPC":"SAN JUAN","DIST_UPC_M":244.76325252821965,"INFRA_CERCANA":"I0428","DIST_INFRA_M":244.76325252821965,"DIST_EXISTENTE":738.7324434616849,"DIST_MUNICIPAL":0.0,"INTERSECCION_O_NODO":"INTERSECCION_VIAL_CANTONAL","CORREDOR_COINCIDENTE":null,"CORREDOR_METODO":"Eje intersecta buffer200m; no implica punto sobre eje ni criterio de seleccion","SOLAPE_OTRAS49_PCT":2.4580610072476046,"D_EXCLUSIVOS":4.0,"V_EXCLUSIVOS":6.0,"C_EXCLUSIVOS":15.0,"N_CORREDORES":0.0,"CORREDOR":null,"BENEFICIO_CONTEXTO":"Exclusivo respecto103+otras49;no sumar entre camaras","LONGITUD_EXCLUSIVA_ANILLO_VIAL_M":0.0,"LONGITUD_EXCLUSIVA_CICLOVIAS_M":0.0,"LONGITUD_EXCLUSIVA_BOULEVARD_MACAJI_BELLAVISTA_M":0.0,"LONGITUD_EXCLUSIVA_QUEBRADA_LAS_ABRAS_M":0.0,"INDICADORES_PUNTUALES_RECALCULADOS":null},"geometry":{"type":"Point","coordinates":[-78.78306873563253,-1.6328771516593334]}},{"type":"Feature","properties":{"ID_PROPUESTA":"MUN-017","ID_ORIGINAL":"RUR_CUBI_01","FILA_ORIGINAL":17.0,"GRUPO":"CABECERA_RURAL","SUBTIPO":"INTERSECCION_CABECERA","X":768313.1290999989,"Y":9818207.7774,"LONGITUD":-78.58846818584054,"LATITUD":-1.6432611207072307,"PARROQUIA":"Cubijies","ID_CANDIDATO":"RUR-CUBIJIES-0027","ORIGEN_CANDIDATO":"INTERSECCION_VIAL_CANTONAL","GRADO_NODO":3,"CRITERIO_PRINCIPAL":"Centralidad vial y nueva evidencia territorial en cabecera PUGS","CRITERIOS_SECUNDARIOS":"Centro de cabecera; nuevos D/V y Convivencia; equipamientos; Gi* D/V rural; nueva area PUGS; menor solape","JUSTIFICACION":"Interseccion vial dentro de la cabecera PUGS de Cubijies; seleccion 2/2. 2 eventos adicionales dentro de la localidad y 116202.4 m2 nuevos de su area. Entorno 200 m: 2 incidentes; solape con escenario actual 0.00%. Pendiente inspeccion de campo.","ESTADO":null,"ESTADO_VALIDACION":"PROPUESTA_REVISADA","METODO_FINAL":null,"HOTSPOT_DEL":null,"NIVEL_DEL":0.0,"HOTSPOT_VIOL":null,"NIVEL_VIOL":0.0,"HOTSPOT_CONV":null,"NIVEL_CONV":0.0,"AMBITO_HOTSPOT":"RURAL","COINCIDENCIA_DV":0.0,"DELINCUENCIA_200M":0.0,"VIOLENCIA_200M":0.0,"CONVIVENCIA_200M":2.0,"N_TOTAL":2.0,"COBERTURA_PREVIA":0.0,"POBLACION_ASOCIADA":null,"MANZANAS_POB_VALIDAS":0.0,"MANZANAS_POB_FALTANTES":0.0,"POBLACION_METODO":"Estimacion areal CPV2022 dentro del radio200m y18Plataformas; no poblacion rural completa","UPC_CERCANA":"I0431","NOMBRE_UPC":"CUBIJIES","DIST_UPC_M":320.9921319102093,"INFRA_CERCANA":"I0431","DIST_INFRA_M":320.9921319102093,"DIST_EXISTENTE":6121.669165081278,"DIST_MUNICIPAL":0.0,"INTERSECCION_O_NODO":"INTERSECCION_VIAL_CANTONAL","CORREDOR_COINCIDENTE":null,"CORREDOR_METODO":"Eje intersecta buffer200m; no implica punto sobre eje ni criterio de seleccion","SOLAPE_OTRAS49_PCT":0.0,"D_EXCLUSIVOS":0.0,"V_EXCLUSIVOS":0.0,"C_EXCLUSIVOS":2.0,"N_CORREDORES":0.0,"CORREDOR":null,"BENEFICIO_CONTEXTO":"Exclusivo respecto103+otras49;no sumar entre camaras","LONGITUD_EXCLUSIVA_ANILLO_VIAL_M":0.0,"LONGITUD_EXCLUSIVA_CICLOVIAS_M":0.0,"LONGITUD_EXCLUSIVA_BOULEVARD_MACAJI_BELLAVISTA_M":0.0,"LONGITUD_EXCLUSIVA_QUEBRADA_LAS_ABRAS_M":0.0,"INDICADORES_PUNTUALES_RECALCULADOS":null},"geometry":{"type":"Point","coordinates":[-78.58846818584054,-1.6432611207072307]}},{"type":"Feature","properties":{"ID_PROPUESTA":"MUN-018","ID_ORIGINAL":"RUR_CUBI_02","FILA_ORIGINAL":18.0,"GRUPO":"CABECERA_RURAL","SUBTIPO":"INTERSECCION_CABECERA","X":768415.3718000003,"Y":9817809.649800003,"LONGITUD":-78.58754547560767,"LATITUD":-1.6468587459549908,"PARROQUIA":"Cubijies","ID_CANDIDATO":"RUR-CUBIJIES-0044","ORIGEN_CANDIDATO":"INTERSECCION_VIAL_CANTONAL","GRADO_NODO":4,"CRITERIO_PRINCIPAL":"Centralidad vial y nueva evidencia territorial en cabecera PUGS","CRITERIOS_SECUNDARIOS":"Centro de cabecera; nuevos D/V y Convivencia; equipamientos; Gi* D/V rural; nueva area PUGS; menor solape","JUSTIFICACION":"Interseccion vial dentro de la cabecera PUGS de Cubijies; seleccion 1/2. 13 eventos adicionales dentro de la localidad y 121555.1 m2 nuevos de su area. Entorno 200 m: 13 incidentes; solape con escenario actual 0.00%. Pendiente inspeccion de campo.","ESTADO":null,"ESTADO_VALIDACION":"PROPUESTA_REVISADA","METODO_FINAL":null,"HOTSPOT_DEL":null,"NIVEL_DEL":0.0,"HOTSPOT_VIOL":null,"NIVEL_VIOL":0.0,"HOTSPOT_CONV":null,"NIVEL_CONV":0.0,"AMBITO_HOTSPOT":"RURAL","COINCIDENCIA_DV":0.0,"DELINCUENCIA_200M":4.0,"VIOLENCIA_200M":2.0,"CONVIVENCIA_200M":7.0,"N_TOTAL":13.0,"COBERTURA_PREVIA":0.0,"POBLACION_ASOCIADA":null,"MANZANAS_POB_VALIDAS":0.0,"MANZANAS_POB_FALTANTES":0.0,"POBLACION_METODO":"Estimacion areal CPV2022 dentro del radio200m y18Plataformas; no poblacion rural completa","UPC_CERCANA":"I0431","NOMBRE_UPC":"CUBIJIES","DIST_UPC_M":133.87300599332022,"INFRA_CERCANA":"I0431","DIST_INFRA_M":133.87300599332022,"DIST_EXISTENTE":6060.379028177488,"DIST_MUNICIPAL":0.0,"INTERSECCION_O_NODO":"INTERSECCION_VIAL_CANTONAL","CORREDOR_COINCIDENTE":null,"CORREDOR_METODO":"Eje intersecta buffer200m; no implica punto sobre eje ni criterio de seleccion","SOLAPE_OTRAS49_PCT":0.0,"D_EXCLUSIVOS":4.0,"V_EXCLUSIVOS":2.0,"C_EXCLUSIVOS":7.0,"N_CORREDORES":0.0,"CORREDOR":null,"BENEFICIO_CONTEXTO":"Exclusivo respecto103+otras49;no sumar entre camaras","LONGITUD_EXCLUSIVA_ANILLO_VIAL_M":0.0,"LONGITUD_EXCLUSIVA_CICLOVIAS_M":0.0,"LONGITUD_EXCLUSIVA_BOULEVARD_MACAJI_BELLAVISTA_M":0.0,"LONGITUD_EXCLUSIVA_QUEBRADA_LAS_ABRAS_M":0.0,"INDICADORES_PUNTUALES_RECALCULADOS":null},"geometry":{"type":"Point","coordinates":[-78.58754547560767,-1.6468587459549908]}},{"type":"Feature","properties":{"ID_PROPUESTA":"MUN-019","ID_ORIGINAL":"RUR_SAN _01","FILA_ORIGINAL":19.0,"GRUPO":"CABECERA_RURAL","SUBTIPO":"INTERSECCION_CABECERA","X":762457.3087999993,"Y":9810752.8618,"LONGITUD":-78.64098781397688,"LATITUD":-1.7107131889035228,"PARROQUIA":"San Luis","ID_CANDIDATO":"RUR-SAN_LUIS-0037","ORIGEN_CANDIDATO":"INTERSECCION_VIAL_CANTONAL","GRADO_NODO":3,"CRITERIO_PRINCIPAL":"Centralidad vial y nueva evidencia territorial en cabecera PUGS","CRITERIOS_SECUNDARIOS":"Centro de cabecera; nuevos D/V y Convivencia; equipamientos; Gi* D/V rural; nueva area PUGS; menor solape","JUSTIFICACION":"Interseccion vial dentro de la cabecera PUGS de San Luis; seleccion 2/2. 1 eventos adicionales dentro de la localidad y 90069.6 m2 nuevos de su area. Entorno 200 m: 1 incidentes; solape con escenario actual 0.00%. Pendiente inspeccion de campo.","ESTADO":null,"ESTADO_VALIDACION":"PROPUESTA_REVISADA","METODO_FINAL":null,"HOTSPOT_DEL":"R-1000-26-29","NIVEL_DEL":99.0,"HOTSPOT_VIOL":"R-1000-26-29","NIVEL_VIOL":99.0,"HOTSPOT_CONV":"R-1000-26-29","NIVEL_CONV":99.0,"AMBITO_HOTSPOT":"RURAL","COINCIDENCIA_DV":1.0,"DELINCUENCIA_200M":1.0,"VIOLENCIA_200M":0.0,"CONVIVENCIA_200M":0.0,"N_TOTAL":1.0,"COBERTURA_PREVIA":0.0,"POBLACION_ASOCIADA":null,"MANZANAS_POB_VALIDAS":0.0,"MANZANAS_POB_FALTANTES":0.0,"POBLACION_METODO":"Estimacion areal CPV2022 dentro del radio200m y18Plataformas; no poblacion rural completa","UPC_CERCANA":"I0436","NOMBRE_UPC":"SAN LUIS","DIST_UPC_M":727.1149070035392,"INFRA_CERCANA":"I0436","DIST_INFRA_M":727.1149070035392,"DIST_EXISTENTE":2437.967854380135,"DIST_MUNICIPAL":0.0,"INTERSECCION_O_NODO":"INTERSECCION_VIAL_CANTONAL","CORREDOR_COINCIDENTE":null,"CORREDOR_METODO":"Eje intersecta buffer200m; no implica punto sobre eje ni criterio de seleccion","SOLAPE_OTRAS49_PCT":20.56237946549324,"D_EXCLUSIVOS":1.0,"V_EXCLUSIVOS":0.0,"C_EXCLUSIVOS":0.0,"N_CORREDORES":0.0,"CORREDOR":null,"BENEFICIO_CONTEXTO":"Exclusivo respecto103+otras49;no sumar entre camaras","LONGITUD_EXCLUSIVA_ANILLO_VIAL_M":0.0,"LONGITUD_EXCLUSIVA_CICLOVIAS_M":0.0,"LONGITUD_EXCLUSIVA_BOULEVARD_MACAJI_BELLAVISTA_M":0.0,"LONGITUD_EXCLUSIVA_QUEBRADA_LAS_ABRAS_M":0.0,"INDICADORES_PUNTUALES_RECALCULADOS":null},"geometry":{"type":"Point","coordinates":[-78.64098781397688,-1.7107131889035228]}},{"type":"Feature","properties":{"ID_PROPUESTA":"MUN-020","ID_ORIGINAL":"RUR_SAN _02","FILA_ORIGINAL":20.0,"GRUPO":"CABECERA_RURAL","SUBTIPO":"INTERSECCION_CABECERA","X":762204.7269000018,"Y":9810854.819300001,"LONGITUD":-78.64325789853301,"LATITUD":-1.7097943477909467,"PARROQUIA":"San Luis","ID_CANDIDATO":"RUR-SAN_LUIS-0025","ORIGEN_CANDIDATO":"INTERSECCION_VIAL_CANTONAL","GRADO_NODO":3,"CRITERIO_PRINCIPAL":"Centralidad vial y nueva evidencia territorial en cabecera PUGS","CRITERIOS_SECUNDARIOS":"Centro de cabecera; nuevos D/V y Convivencia; equipamientos; Gi* D/V rural; nueva area PUGS; menor solape","JUSTIFICACION":"Interseccion vial dentro de la cabecera PUGS de San Luis; seleccion 1/2. 27 eventos adicionales dentro de la localidad y 120692.2 m2 nuevos de su area. Entorno 200 m: 27 incidentes; solape con escenario actual 0.00%. Pendiente inspeccion de campo.","ESTADO":null,"ESTADO_VALIDACION":"PROPUESTA_REVISADA","METODO_FINAL":null,"HOTSPOT_DEL":"R-1000-26-29|R-1000-27-29","NIVEL_DEL":99.0,"HOTSPOT_VIOL":"R-1000-26-29|R-1000-27-29","NIVEL_VIOL":99.0,"HOTSPOT_CONV":"R-1000-26-29|R-1000-27-29","NIVEL_CONV":99.0,"AMBITO_HOTSPOT":"RURAL","COINCIDENCIA_DV":1.0,"DELINCUENCIA_200M":6.0,"VIOLENCIA_200M":11.0,"CONVIVENCIA_200M":10.0,"N_TOTAL":27.0,"COBERTURA_PREVIA":0.0,"POBLACION_ASOCIADA":null,"MANZANAS_POB_VALIDAS":0.0,"MANZANAS_POB_FALTANTES":0.0,"POBLACION_METODO":"Estimacion areal CPV2022 dentro del radio200m y18Plataformas; no poblacion rural completa","UPC_CERCANA":"I0436","NOMBRE_UPC":"SAN LUIS","DIST_UPC_M":456.5803837212865,"INFRA_CERCANA":"I0436","DIST_INFRA_M":456.5803837212865,"DIST_EXISTENTE":2357.321688661743,"DIST_MUNICIPAL":0.0,"INTERSECCION_O_NODO":"INTERSECCION_VIAL_CANTONAL","CORREDOR_COINCIDENTE":null,"CORREDOR_METODO":"Eje intersecta buffer200m; no implica punto sobre eje ni criterio de seleccion","SOLAPE_OTRAS49_PCT":20.562379465493247,"D_EXCLUSIVOS":6.0,"V_EXCLUSIVOS":11.0,"C_EXCLUSIVOS":10.0,"N_CORREDORES":0.0,"CORREDOR":null,"BENEFICIO_CONTEXTO":"Exclusivo respecto103+otras49;no sumar entre camaras","LONGITUD_EXCLUSIVA_ANILLO_VIAL_M":0.0,"LONGITUD_EXCLUSIVA_CICLOVIAS_M":0.0,"LONGITUD_EXCLUSIVA_BOULEVARD_MACAJI_BELLAVISTA_M":0.0,"LONGITUD_EXCLUSIVA_QUEBRADA_LAS_ABRAS_M":0.0,"INDICADORES_PUNTUALES_RECALCULADOS":null},"geometry":{"type":"Point","coordinates":[-78.64325789853301,-1.7097943477909467]}},{"type":"Feature","properties":{"ID_PROPUESTA":"MUN-021","ID_ORIGINAL":"RUR_LICA_01","FILA_ORIGINAL":21.0,"GRUPO":"CABECERA_RURAL","SUBTIPO":"INTERSECCION_CABECERA","X":755981.3276614937,"Y":9817058.963338243,"LONGITUD":-78.69922995931343,"LATITUD":-1.6537778162057168,"PARROQUIA":"Lican","ID_CANDIDATO":"RUR-LICAN-0082","ORIGEN_CANDIDATO":"INTERSECCION_VIAL_CANTONAL","GRADO_NODO":3,"CRITERIO_PRINCIPAL":"Centralidad vial y nueva evidencia territorial en cabecera PUGS","CRITERIOS_SECUNDARIOS":"Centro de cabecera; nuevos D/V y Convivencia; equipamientos; Gi* D/V rural; nueva area PUGS; menor solape","JUSTIFICACION":"Interseccion vial dentro de la cabecera PUGS de Lican; seleccion 2/2. 9 eventos adicionales dentro de la localidad y 115276.0 m2 nuevos de su area. Entorno 200 m: 10 incidentes; solape con escenario actual 0.00%. Pendiente inspeccion de campo.","ESTADO":null,"ESTADO_VALIDACION":"PROPUESTA_REVISADA","METODO_FINAL":null,"HOTSPOT_DEL":"R-1000-32-22|R-1000-32-23|R-1000-33-22|R-1000-33-23","NIVEL_DEL":99.0,"HOTSPOT_VIOL":"R-1000-32-22|R-1000-32-23|R-1000-33-22|R-1000-33-23","NIVEL_VIOL":99.0,"HOTSPOT_CONV":"R-1000-32-22|R-1000-32-23|R-1000-33-22|R-1000-33-23","NIVEL_CONV":99.0,"AMBITO_HOTSPOT":"RURAL","COINCIDENCIA_DV":1.0,"DELINCUENCIA_200M":5.0,"VIOLENCIA_200M":1.0,"CONVIVENCIA_200M":4.0,"N_TOTAL":10.0,"COBERTURA_PREVIA":0.0,"POBLACION_ASOCIADA":null,"MANZANAS_POB_VALIDAS":0.0,"MANZANAS_POB_FALTANTES":0.0,"POBLACION_METODO":"Estimacion areal CPV2022 dentro del radio200m y18Plataformas; no poblacion rural completa","UPC_CERCANA":"I0395","NOMBRE_UPC":"24 DE MAYO","DIST_UPC_M":1880.301618685998,"INFRA_CERCANA":"I0395","DIST_INFRA_M":1880.301618685998,"DIST_EXISTENTE":755.8247259165526,"DIST_MUNICIPAL":0.0,"INTERSECCION_O_NODO":"INTERSECCION_VIAL_CANTONAL","CORREDOR_COINCIDENTE":null,"CORREDOR_METODO":"Eje intersecta buffer200m; no implica punto sobre eje ni criterio de seleccion","SOLAPE_OTRAS49_PCT":0.0,"D_EXCLUSIVOS":5.0,"V_EXCLUSIVOS":1.0,"C_EXCLUSIVOS":4.0,"N_CORREDORES":0.0,"CORREDOR":null,"BENEFICIO_CONTEXTO":"Exclusivo respecto103+otras49;no sumar entre camaras","LONGITUD_EXCLUSIVA_ANILLO_VIAL_M":0.0,"LONGITUD_EXCLUSIVA_CICLOVIAS_M":0.0,"LONGITUD_EXCLUSIVA_BOULEVARD_MACAJI_BELLAVISTA_M":0.0,"LONGITUD_EXCLUSIVA_QUEBRADA_LAS_ABRAS_M":0.0,"INDICADORES_PUNTUALES_RECALCULADOS":null},"geometry":{"type":"Point","coordinates":[-78.69922995931343,-1.6537778162057168]}},{"type":"Feature","properties":{"ID_PROPUESTA":"MUN-022","ID_ORIGINAL":"RUR_LICA_02","FILA_ORIGINAL":22.0,"GRUPO":"CABECERA_RURAL","SUBTIPO":"INTERSECCION_CABECERA","X":755250.5330999993,"Y":9817255.552200003,"LONGITUD":-78.7057968677663,"LATITUD":-1.652008314510619,"PARROQUIA":"Lican","ID_CANDIDATO":"RUR-LICAN-0042","ORIGEN_CANDIDATO":"INTERSECCION_VIAL_CANTONAL","GRADO_NODO":3,"CRITERIO_PRINCIPAL":"Centralidad vial y nueva evidencia territorial en cabecera PUGS","CRITERIOS_SECUNDARIOS":"Centro de cabecera; nuevos D/V y Convivencia; equipamientos; Gi* D/V rural; nueva area PUGS; menor solape","JUSTIFICACION":"Interseccion vial dentro de la cabecera PUGS de Lican; seleccion 1/2. 94 eventos adicionales dentro de la localidad y 121440.5 m2 nuevos de su area. Entorno 200 m: 95 incidentes; solape con escenario actual 0.00%. Pendiente inspeccion de campo.","ESTADO":null,"ESTADO_VALIDACION":"PROPUESTA_REVISADA","METODO_FINAL":null,"HOTSPOT_DEL":"R-1000-33-22","NIVEL_DEL":99.0,"HOTSPOT_VIOL":"R-1000-33-22","NIVEL_VIOL":99.0,"HOTSPOT_CONV":"R-1000-33-22","NIVEL_CONV":99.0,"AMBITO_HOTSPOT":"RURAL","COINCIDENCIA_DV":1.0,"DELINCUENCIA_200M":28.0,"VIOLENCIA_200M":26.0,"CONVIVENCIA_200M":41.0,"N_TOTAL":95.0,"COBERTURA_PREVIA":0.0,"POBLACION_ASOCIADA":null,"MANZANAS_POB_VALIDAS":0.0,"MANZANAS_POB_FALTANTES":0.0,"POBLACION_METODO":"Estimacion areal CPV2022 dentro del radio200m y18Plataformas; no poblacion rural completa","UPC_CERCANA":"I0395","NOMBRE_UPC":"24 DE MAYO","DIST_UPC_M":2499.791818539102,"INFRA_CERCANA":"I0395","DIST_INFRA_M":2499.791818539102,"DIST_EXISTENTE":1458.7928584828524,"DIST_MUNICIPAL":0.0,"INTERSECCION_O_NODO":"INTERSECCION_VIAL_CANTONAL","CORREDOR_COINCIDENTE":null,"CORREDOR_METODO":"Eje intersecta buffer200m; no implica punto sobre eje ni criterio de seleccion","SOLAPE_OTRAS49_PCT":0.0,"D_EXCLUSIVOS":28.0,"V_EXCLUSIVOS":26.0,"C_EXCLUSIVOS":41.0,"N_CORREDORES":0.0,"CORREDOR":null,"BENEFICIO_CONTEXTO":"Exclusivo respecto103+otras49;no sumar entre camaras","LONGITUD_EXCLUSIVA_ANILLO_VIAL_M":0.0,"LONGITUD_EXCLUSIVA_CICLOVIAS_M":0.0,"LONGITUD_EXCLUSIVA_BOULEVARD_MACAJI_BELLAVISTA_M":0.0,"LONGITUD_EXCLUSIVA_QUEBRADA_LAS_ABRAS_M":0.0,"INDICADORES_PUNTUALES_RECALCULADOS":null},"geometry":{"type":"Point","coordinates":[-78.7057968677663,-1.652008314510619]}},{"type":"Feature","properties":{"ID_PROPUESTA":"MUN-023","ID_ORIGINAL":"ABRAS_01","FILA_ORIGINAL":23.0,"GRUPO":"LAS_ABRAS","SUBTIPO":"CRUCE_VIAL_EJE","X":758998.7175252293,"Y":9818694.39993045,"LONGITUD":-78.67214164931372,"LATITUD":-1.6389621092382802,"PARROQUIA":null,"ID_CANDIDATO":"MAATE-NODO-025","ORIGEN_CANDIDATO":"CRUCE_MAATE_RED_MUNICIPAL","GRADO_NODO":0,"CRITERIO_PRINCIPAL":"Cruce vial y evidencia territorial sobre eje MAATE cantonal","CRITERIOS_SECUNDARIOS":"Proteccion, Jose Marti, poblacion, incidentes, Gi* complementario y longitud adicional","JUSTIFICACION":"Reemplazo propuesto: longitud MAATE adicional 177.5 a 270.6 m; dimensiones con evidencia 2 a 5. Nodo/cruce real y evidencia local, no intervalos iguales; Cunduana distante no se atribuye como beneficio. Pendiente validacion de campo.","ESTADO":null,"ESTADO_VALIDACION":"PROPUESTA_CONSOLIDADA_PARA_REVISION","METODO_FINAL":null,"HOTSPOT_DEL":null,"NIVEL_DEL":0.0,"HOTSPOT_VIOL":null,"NIVEL_VIOL":0.0,"HOTSPOT_CONV":null,"NIVEL_CONV":0.0,"AMBITO_HOTSPOT":"RURAL","COINCIDENCIA_DV":0.0,"DELINCUENCIA_200M":1.0,"VIOLENCIA_200M":1.0,"CONVIVENCIA_200M":0.0,"N_TOTAL":2.0,"COBERTURA_PREVIA":0.0,"POBLACION_ASOCIADA":275.47877119096455,"MANZANAS_POB_VALIDAS":14.0,"MANZANAS_POB_FALTANTES":1.0,"POBLACION_METODO":"Estimacion areal CPV2022 dentro del radio200m y18Plataformas; no poblacion rural completa","UPC_CERCANA":"I0395","NOMBRE_UPC":"24 DE MAYO","DIST_UPC_M":1555.1310043287851,"INFRA_CERCANA":"I0395","DIST_INFRA_M":1555.1310043287851,"DIST_EXISTENTE":585.3612643495568,"DIST_MUNICIPAL":0.0,"INTERSECCION_O_NODO":"CRUCE_MAATE_RED_MUNICIPAL","CORREDOR_COINCIDENTE":"QUEBRADA_LAS_ABRAS","CORREDOR_METODO":"Eje intersecta buffer200m; no implica punto sobre eje ni criterio de seleccion","SOLAPE_OTRAS49_PCT":0.0,"D_EXCLUSIVOS":1.0,"V_EXCLUSIVOS":1.0,"C_EXCLUSIVOS":0.0,"N_CORREDORES":1.0,"CORREDOR":"QUEBRADA_LAS_ABRAS","BENEFICIO_CONTEXTO":"Exclusivo respecto103+otras49;no sumar entre camaras","LONGITUD_EXCLUSIVA_ANILLO_VIAL_M":0.0,"LONGITUD_EXCLUSIVA_CICLOVIAS_M":0.0,"LONGITUD_EXCLUSIVA_BOULEVARD_MACAJI_BELLAVISTA_M":0.0,"LONGITUD_EXCLUSIVA_QUEBRADA_LAS_ABRAS_M":304.4997255743099,"INDICADORES_PUNTUALES_RECALCULADOS":null},"geometry":{"type":"Point","coordinates":[-78.67214164931372,-1.6389621092382802]}},{"type":"Feature","properties":{"ID_PROPUESTA":"MUN-024","ID_ORIGINAL":"ABRAS_02","FILA_ORIGINAL":24.0,"GRUPO":"LAS_ABRAS","SUBTIPO":"CRUCE_VIAL_EJE","X":758067.4395955483,"Y":9819999.417009573,"LONGITUD":-78.68052081270649,"LATITUD":-1.6271748157690087,"PARROQUIA":null,"ID_CANDIDATO":"MAATE-NODO-001","ORIGEN_CANDIDATO":"CRUCE_MAATE_RED_CENSAL","GRADO_NODO":0,"CRITERIO_PRINCIPAL":"Cruce vial y evidencia territorial sobre eje MAATE cantonal","CRITERIOS_SECUNDARIOS":"Proteccion, Jose Marti, poblacion, incidentes, Gi* complementario y longitud adicional","JUSTIFICACION":"Reemplazo propuesto: longitud MAATE adicional 245.5 a 362.3 m; dimensiones con evidencia 3 a 4. Nodo/cruce real y evidencia local, no intervalos iguales; Cunduana distante no se atribuye como beneficio. Pendiente validacion de campo.","ESTADO":null,"ESTADO_VALIDACION":"PROPUESTA_CONSOLIDADA_PARA_REVISION","METODO_FINAL":null,"HOTSPOT_DEL":null,"NIVEL_DEL":0.0,"HOTSPOT_VIOL":null,"NIVEL_VIOL":0.0,"HOTSPOT_CONV":null,"NIVEL_CONV":0.0,"AMBITO_HOTSPOT":"RURAL","COINCIDENCIA_DV":0.0,"DELINCUENCIA_200M":0.0,"VIOLENCIA_200M":0.0,"CONVIVENCIA_200M":2.0,"N_TOTAL":2.0,"COBERTURA_PREVIA":0.0,"POBLACION_ASOCIADA":76.06186292136142,"MANZANAS_POB_VALIDAS":8.0,"MANZANAS_POB_FALTANTES":3.0,"POBLACION_METODO":"Estimacion areal CPV2022 dentro del radio200m y18Plataformas; no poblacion rural completa","UPC_CERCANA":"I0395","NOMBRE_UPC":"24 DE MAYO","DIST_UPC_M":2148.6784121813166,"INFRA_CERCANA":"I0395","DIST_INFRA_M":2148.6784121813166,"DIST_EXISTENTE":958.6514928441939,"DIST_MUNICIPAL":0.0,"INTERSECCION_O_NODO":"CRUCE_MAATE_RED_CENSAL","CORREDOR_COINCIDENTE":"QUEBRADA_LAS_ABRAS","CORREDOR_METODO":"Eje intersecta buffer200m; no implica punto sobre eje ni criterio de seleccion","SOLAPE_OTRAS49_PCT":0.0,"D_EXCLUSIVOS":0.0,"V_EXCLUSIVOS":0.0,"C_EXCLUSIVOS":2.0,"N_CORREDORES":1.0,"CORREDOR":"QUEBRADA_LAS_ABRAS","BENEFICIO_CONTEXTO":"Exclusivo respecto103+otras49;no sumar entre camaras","LONGITUD_EXCLUSIVA_ANILLO_VIAL_M":0.0,"LONGITUD_EXCLUSIVA_CICLOVIAS_M":0.0,"LONGITUD_EXCLUSIVA_BOULEVARD_MACAJI_BELLAVISTA_M":0.0,"LONGITUD_EXCLUSIVA_QUEBRADA_LAS_ABRAS_M":362.2748330627863,"INDICADORES_PUNTUALES_RECALCULADOS":null},"geometry":{"type":"Point","coordinates":[-78.68052081270649,-1.6271748157690087]}},{"type":"Feature","properties":{"ID_PROPUESTA":"MUN-025","ID_ORIGINAL":"ABRAS_03","FILA_ORIGINAL":25.0,"GRUPO":"LAS_ABRAS","SUBTIPO":"CRUCE_VIAL_EJE","X":758345.1972884506,"Y":9819558.71019032,"LONGITUD":-78.67802117231848,"LATITUD":-1.631155810968884,"PARROQUIA":null,"ID_CANDIDATO":"MAATE-NODO-014","ORIGEN_CANDIDATO":"CRUCE_MAATE_RED_MUNICIPAL","GRADO_NODO":0,"CRITERIO_PRINCIPAL":"Cruce vial y evidencia territorial sobre eje MAATE cantonal","CRITERIOS_SECUNDARIOS":"Proteccion, Jose Marti, poblacion, incidentes, Gi* complementario y longitud adicional","JUSTIFICACION":"Reemplazo propuesto: longitud MAATE adicional 409.9 a 421.3 m; dimensiones con evidencia 3 a 4. Nodo/cruce real y evidencia local, no intervalos iguales; Cunduana distante no se atribuye como beneficio. Pendiente validacion de campo.","ESTADO":null,"ESTADO_VALIDACION":"PROPUESTA_CONSOLIDADA_PARA_REVISION","METODO_FINAL":null,"HOTSPOT_DEL":null,"NIVEL_DEL":0.0,"HOTSPOT_VIOL":null,"NIVEL_VIOL":0.0,"HOTSPOT_CONV":null,"NIVEL_CONV":0.0,"AMBITO_HOTSPOT":"RURAL","COINCIDENCIA_DV":0.0,"DELINCUENCIA_200M":0.0,"VIOLENCIA_200M":0.0,"CONVIVENCIA_200M":1.0,"N_TOTAL":1.0,"COBERTURA_PREVIA":0.0,"POBLACION_ASOCIADA":78.31938186518049,"MANZANAS_POB_VALIDAS":5.0,"MANZANAS_POB_FALTANTES":3.0,"POBLACION_METODO":"Estimacion areal CPV2022 dentro del radio200m y18Plataformas; no poblacion rural completa","UPC_CERCANA":"I0395","NOMBRE_UPC":"24 DE MAYO","DIST_UPC_M":1802.3608828366232,"INFRA_CERCANA":"I0395","DIST_INFRA_M":1802.3608828366232,"DIST_EXISTENTE":545.6250723921446,"DIST_MUNICIPAL":0.0,"INTERSECCION_O_NODO":"CRUCE_MAATE_RED_MUNICIPAL","CORREDOR_COINCIDENTE":"QUEBRADA_LAS_ABRAS","CORREDOR_METODO":"Eje intersecta buffer200m; no implica punto sobre eje ni criterio de seleccion","SOLAPE_OTRAS49_PCT":0.0,"D_EXCLUSIVOS":0.0,"V_EXCLUSIVOS":0.0,"C_EXCLUSIVOS":1.0,"N_CORREDORES":1.0,"CORREDOR":"QUEBRADA_LAS_ABRAS","BENEFICIO_CONTEXTO":"Exclusivo respecto103+otras49;no sumar entre camaras","LONGITUD_EXCLUSIVA_ANILLO_VIAL_M":0.0,"LONGITUD_EXCLUSIVA_CICLOVIAS_M":0.0,"LONGITUD_EXCLUSIVA_BOULEVARD_MACAJI_BELLAVISTA_M":0.0,"LONGITUD_EXCLUSIVA_QUEBRADA_LAS_ABRAS_M":421.3315834624809,"INDICADORES_PUNTUALES_RECALCULADOS":null},"geometry":{"type":"Point","coordinates":[-78.67802117231848,-1.631155810968884]}},{"type":"Feature","properties":{"ID_PROPUESTA":"MUN-026","ID_ORIGINAL":"ABRAS_04","FILA_ORIGINAL":26.0,"GRUPO":"LAS_ABRAS","SUBTIPO":"CRUCE_VIAL_EJE","X":759404.5858253237,"Y":9818738.534777902,"LONGITUD":-78.66849622843594,"LATITUD":-1.6385588743021142,"PARROQUIA":null,"ID_CANDIDATO":"MAATE-NODO-030","ORIGEN_CANDIDATO":"CRUCE_MAATE_RED_MUNICIPAL","GRADO_NODO":0,"CRITERIO_PRINCIPAL":"Cruce vial y evidencia territorial sobre eje MAATE cantonal","CRITERIOS_SECUNDARIOS":"Proteccion, Jose Marti, poblacion, incidentes, Gi* complementario y longitud adicional","JUSTIFICACION":"Reemplazo propuesto: longitud MAATE adicional 400.3 a 416.8 m; dimensiones con evidencia 4 a 5. Nodo/cruce real y evidencia local, no intervalos iguales; Cunduana distante no se atribuye como beneficio. Pendiente validacion de campo.","ESTADO":null,"ESTADO_VALIDACION":"PROPUESTA_CONSOLIDADA_PARA_REVISION","METODO_FINAL":null,"HOTSPOT_DEL":null,"NIVEL_DEL":0.0,"HOTSPOT_VIOL":null,"NIVEL_VIOL":0.0,"HOTSPOT_CONV":null,"NIVEL_CONV":0.0,"AMBITO_HOTSPOT":"RURAL","COINCIDENCIA_DV":0.0,"DELINCUENCIA_200M":0.0,"VIOLENCIA_200M":1.0,"CONVIVENCIA_200M":0.0,"N_TOTAL":1.0,"COBERTURA_PREVIA":0.0,"POBLACION_ASOCIADA":309.9074110241869,"MANZANAS_POB_VALIDAS":8.0,"MANZANAS_POB_FALTANTES":1.0,"POBLACION_METODO":"Estimacion areal CPV2022 dentro del radio200m y18Plataformas; no poblacion rural completa","UPC_CERCANA":"I0390","NOMBRE_UPC":"CEMENTO CHIMBORAZO","DIST_UPC_M":1784.4751618527512,"INFRA_CERCANA":"I0390","DIST_INFRA_M":1784.4751618527512,"DIST_EXISTENTE":637.2772460677206,"DIST_MUNICIPAL":0.0,"INTERSECCION_O_NODO":"CRUCE_MAATE_RED_MUNICIPAL","CORREDOR_COINCIDENTE":"QUEBRADA_LAS_ABRAS","CORREDOR_METODO":"Eje intersecta buffer200m; no implica punto sobre eje ni criterio de seleccion","SOLAPE_OTRAS49_PCT":0.0,"D_EXCLUSIVOS":0.0,"V_EXCLUSIVOS":1.0,"C_EXCLUSIVOS":0.0,"N_CORREDORES":1.0,"CORREDOR":"QUEBRADA_LAS_ABRAS","BENEFICIO_CONTEXTO":"Exclusivo respecto103+otras49;no sumar entre camaras","LONGITUD_EXCLUSIVA_ANILLO_VIAL_M":0.0,"LONGITUD_EXCLUSIVA_CICLOVIAS_M":0.0,"LONGITUD_EXCLUSIVA_BOULEVARD_MACAJI_BELLAVISTA_M":0.0,"LONGITUD_EXCLUSIVA_QUEBRADA_LAS_ABRAS_M":416.78530338324197,"INDICADORES_PUNTUALES_RECALCULADOS":null},"geometry":{"type":"Point","coordinates":[-78.66849622843594,-1.6385588743021142]}},{"type":"Feature","properties":{"ID_PROPUESTA":"MUN-027","ID_ORIGINAL":null,"FILA_ORIGINAL":null,"GRUPO":"RED_ESTRUCTURAL","SUBTIPO":null,"X":759422.844406875,"Y":9815679.227550793,"LONGITUD":-78.66829994595419,"LATITUD":-1.6662138927207113,"PARROQUIA":null,"ID_CANDIDATO":"VIAL-EJE-00821","ORIGEN_CANDIDATO":"REFERENCIACION_LINEAL_EJE_VIAL_REAL_20M","GRADO_NODO":0,"CRITERIO_PRINCIPAL":null,"CRITERIOS_SECUNDARIOS":null,"JUSTIFICACION":null,"ESTADO":"ALTERNATIVA_NO_APLICADA","ESTADO_VALIDACION":null,"METODO_FINAL":null,"HOTSPOT_DEL":null,"NIVEL_DEL":null,"HOTSPOT_VIOL":null,"NIVEL_VIOL":null,"HOTSPOT_CONV":null,"NIVEL_CONV":null,"AMBITO_HOTSPOT":null,"COINCIDENCIA_DV":null,"DELINCUENCIA_200M":null,"VIOLENCIA_200M":null,"CONVIVENCIA_200M":null,"N_TOTAL":null,"COBERTURA_PREVIA":null,"POBLACION_ASOCIADA":null,"MANZANAS_POB_VALIDAS":null,"MANZANAS_POB_FALTANTES":null,"POBLACION_METODO":null,"UPC_CERCANA":null,"NOMBRE_UPC":null,"DIST_UPC_M":null,"INFRA_CERCANA":null,"DIST_INFRA_M":null,"DIST_EXISTENTE":null,"DIST_MUNICIPAL":null,"INTERSECCION_O_NODO":null,"CORREDOR_COINCIDENTE":null,"CORREDOR_METODO":null,"SOLAPE_OTRAS49_PCT":null,"D_EXCLUSIVOS":null,"V_EXCLUSIVOS":null,"C_EXCLUSIVOS":null,"N_CORREDORES":null,"CORREDOR":null,"BENEFICIO_CONTEXTO":null,"LONGITUD_EXCLUSIVA_ANILLO_VIAL_M":null,"LONGITUD_EXCLUSIVA_CICLOVIAS_M":null,"LONGITUD_EXCLUSIVA_BOULEVARD_MACAJI_BELLAVISTA_M":null,"LONGITUD_EXCLUSIVA_QUEBRADA_LAS_ABRAS_M":null,"INDICADORES_PUNTUALES_RECALCULADOS":0.0},"geometry":{"type":"Point","coordinates":[-78.66829994595419,-1.6662138927207113]}},{"type":"Feature","properties":{"ID_PROPUESTA":"MUN-028","ID_ORIGINAL":null,"FILA_ORIGINAL":null,"GRUPO":"RED_ESTRUCTURAL","SUBTIPO":null,"X":760877.5970548207,"Y":9814000.114256302,"LONGITUD":-78.65521388089758,"LATITUD":-1.6813768089776941,"PARROQUIA":null,"ID_CANDIDATO":"VIAL-EJE-03262","ORIGEN_CANDIDATO":"REFERENCIACION_LINEAL_EJE_VIAL_REAL_20M","GRADO_NODO":0,"CRITERIO_PRINCIPAL":null,"CRITERIOS_SECUNDARIOS":null,"JUSTIFICACION":null,"ESTADO":"ALTERNATIVA_NO_APLICADA","ESTADO_VALIDACION":null,"METODO_FINAL":null,"HOTSPOT_DEL":null,"NIVEL_DEL":null,"HOTSPOT_VIOL":null,"NIVEL_VIOL":null,"HOTSPOT_CONV":null,"NIVEL_CONV":null,"AMBITO_HOTSPOT":null,"COINCIDENCIA_DV":null,"DELINCUENCIA_200M":null,"VIOLENCIA_200M":null,"CONVIVENCIA_200M":null,"N_TOTAL":null,"COBERTURA_PREVIA":null,"POBLACION_ASOCIADA":null,"MANZANAS_POB_VALIDAS":null,"MANZANAS_POB_FALTANTES":null,"POBLACION_METODO":null,"UPC_CERCANA":null,"NOMBRE_UPC":null,"DIST_UPC_M":null,"INFRA_CERCANA":null,"DIST_INFRA_M":null,"DIST_EXISTENTE":null,"DIST_MUNICIPAL":null,"INTERSECCION_O_NODO":null,"CORREDOR_COINCIDENTE":null,"CORREDOR_METODO":null,"SOLAPE_OTRAS49_PCT":null,"D_EXCLUSIVOS":null,"V_EXCLUSIVOS":null,"C_EXCLUSIVOS":null,"N_CORREDORES":null,"CORREDOR":null,"BENEFICIO_CONTEXTO":null,"LONGITUD_EXCLUSIVA_ANILLO_VIAL_M":null,"LONGITUD_EXCLUSIVA_CICLOVIAS_M":null,"LONGITUD_EXCLUSIVA_BOULEVARD_MACAJI_BELLAVISTA_M":null,"LONGITUD_EXCLUSIVA_QUEBRADA_LAS_ABRAS_M":null,"INDICADORES_PUNTUALES_RECALCULADOS":0.0},"geometry":{"type":"Point","coordinates":[-78.65521388089758,-1.6813768089776941]}},{"type":"Feature","properties":{"ID_PROPUESTA":"MUN-029","ID_ORIGINAL":null,"FILA_ORIGINAL":null,"GRUPO":"RED_ESTRUCTURAL","SUBTIPO":null,"X":760497.0587999998,"Y":9815522.7103,"LONGITUD":-78.6586486074305,"LATITUD":-1.6676172304528458,"PARROQUIA":null,"ID_CANDIDATO":"EST-0442","ORIGEN_CANDIDATO":"NODO_VIAL_URBANO","GRADO_NODO":3,"CRITERIO_PRINCIPAL":null,"CRITERIOS_SECUNDARIOS":null,"JUSTIFICACION":null,"ESTADO":"ALTERNATIVA_NO_APLICADA","ESTADO_VALIDACION":null,"METODO_FINAL":null,"HOTSPOT_DEL":null,"NIVEL_DEL":null,"HOTSPOT_VIOL":null,"NIVEL_VIOL":null,"HOTSPOT_CONV":null,"NIVEL_CONV":null,"AMBITO_HOTSPOT":null,"COINCIDENCIA_DV":null,"DELINCUENCIA_200M":null,"VIOLENCIA_200M":null,"CONVIVENCIA_200M":null,"N_TOTAL":null,"COBERTURA_PREVIA":null,"POBLACION_ASOCIADA":null,"MANZANAS_POB_VALIDAS":null,"MANZANAS_POB_FALTANTES":null,"POBLACION_METODO":null,"UPC_CERCANA":null,"NOMBRE_UPC":null,"DIST_UPC_M":null,"INFRA_CERCANA":null,"DIST_INFRA_M":null,"DIST_EXISTENTE":null,"DIST_MUNICIPAL":null,"INTERSECCION_O_NODO":null,"CORREDOR_COINCIDENTE":null,"CORREDOR_METODO":null,"SOLAPE_OTRAS49_PCT":null,"D_EXCLUSIVOS":null,"V_EXCLUSIVOS":null,"C_EXCLUSIVOS":null,"N_CORREDORES":null,"CORREDOR":null,"BENEFICIO_CONTEXTO":null,"LONGITUD_EXCLUSIVA_ANILLO_VIAL_M":null,"LONGITUD_EXCLUSIVA_CICLOVIAS_M":null,"LONGITUD_EXCLUSIVA_BOULEVARD_MACAJI_BELLAVISTA_M":null,"LONGITUD_EXCLUSIVA_QUEBRADA_LAS_ABRAS_M":null,"INDICADORES_PUNTUALES_RECALCULADOS":0.0},"geometry":{"type":"Point","coordinates":[-78.6586486074305,-1.6676172304528458]}},{"type":"Feature","properties":{"ID_PROPUESTA":"MUN-030","ID_ORIGINAL":null,"FILA_ORIGINAL":null,"GRUPO":"RED_ESTRUCTURAL","SUBTIPO":null,"X":762944.2171999998,"Y":9814999.2859,"LONGITUD":-78.63666036683989,"LATITUD":-1.672322274632554,"PARROQUIA":null,"ID_CANDIDATO":"EST-1661","ORIGEN_CANDIDATO":"NODO_VIAL_URBANO","GRADO_NODO":3,"CRITERIO_PRINCIPAL":null,"CRITERIOS_SECUNDARIOS":null,"JUSTIFICACION":null,"ESTADO":"ALTERNATIVA_NO_APLICADA","ESTADO_VALIDACION":null,"METODO_FINAL":null,"HOTSPOT_DEL":null,"NIVEL_DEL":null,"HOTSPOT_VIOL":null,"NIVEL_VIOL":null,"HOTSPOT_CONV":null,"NIVEL_CONV":null,"AMBITO_HOTSPOT":null,"COINCIDENCIA_DV":null,"DELINCUENCIA_200M":null,"VIOLENCIA_200M":null,"CONVIVENCIA_200M":null,"N_TOTAL":null,"COBERTURA_PREVIA":null,"POBLACION_ASOCIADA":null,"MANZANAS_POB_VALIDAS":null,"MANZANAS_POB_FALTANTES":null,"POBLACION_METODO":null,"UPC_CERCANA":null,"NOMBRE_UPC":null,"DIST_UPC_M":null,"INFRA_CERCANA":null,"DIST_INFRA_M":null,"DIST_EXISTENTE":null,"DIST_MUNICIPAL":null,"INTERSECCION_O_NODO":null,"CORREDOR_COINCIDENTE":null,"CORREDOR_METODO":null,"SOLAPE_OTRAS49_PCT":null,"D_EXCLUSIVOS":null,"V_EXCLUSIVOS":null,"C_EXCLUSIVOS":null,"N_CORREDORES":null,"CORREDOR":null,"BENEFICIO_CONTEXTO":null,"LONGITUD_EXCLUSIVA_ANILLO_VIAL_M":null,"LONGITUD_EXCLUSIVA_CICLOVIAS_M":null,"LONGITUD_EXCLUSIVA_BOULEVARD_MACAJI_BELLAVISTA_M":null,"LONGITUD_EXCLUSIVA_QUEBRADA_LAS_ABRAS_M":null,"INDICADORES_PUNTUALES_RECALCULADOS":0.0},"geometry":{"type":"Point","coordinates":[-78.63666036683989,-1.672322274632554]}},{"type":"Feature","properties":{"ID_PROPUESTA":"MUN-031","ID_ORIGINAL":null,"FILA_ORIGINAL":null,"GRUPO":"RED_ESTRUCTURAL","SUBTIPO":null,"X":763066.8891552695,"Y":9813066.945091253,"LONGITUD":-78.63553739722515,"LATITUD":-1.6897882967750255,"PARROQUIA":null,"ID_CANDIDATO":"VIAL-EJE-08567","ORIGEN_CANDIDATO":"REFERENCIACION_LINEAL_EJE_VIAL_REAL_20M","GRADO_NODO":0,"CRITERIO_PRINCIPAL":null,"CRITERIOS_SECUNDARIOS":null,"JUSTIFICACION":null,"ESTADO":"ALTERNATIVA_NO_APLICADA","ESTADO_VALIDACION":null,"METODO_FINAL":null,"HOTSPOT_DEL":null,"NIVEL_DEL":null,"HOTSPOT_VIOL":null,"NIVEL_VIOL":null,"HOTSPOT_CONV":null,"NIVEL_CONV":null,"AMBITO_HOTSPOT":null,"COINCIDENCIA_DV":null,"DELINCUENCIA_200M":null,"VIOLENCIA_200M":null,"CONVIVENCIA_200M":null,"N_TOTAL":null,"COBERTURA_PREVIA":null,"POBLACION_ASOCIADA":null,"MANZANAS_POB_VALIDAS":null,"MANZANAS_POB_FALTANTES":null,"POBLACION_METODO":null,"UPC_CERCANA":null,"NOMBRE_UPC":null,"DIST_UPC_M":null,"INFRA_CERCANA":null,"DIST_INFRA_M":null,"DIST_EXISTENTE":null,"DIST_MUNICIPAL":null,"INTERSECCION_O_NODO":null,"CORREDOR_COINCIDENTE":null,"CORREDOR_METODO":null,"SOLAPE_OTRAS49_PCT":null,"D_EXCLUSIVOS":null,"V_EXCLUSIVOS":null,"C_EXCLUSIVOS":null,"N_CORREDORES":null,"CORREDOR":null,"BENEFICIO_CONTEXTO":null,"LONGITUD_EXCLUSIVA_ANILLO_VIAL_M":null,"LONGITUD_EXCLUSIVA_CICLOVIAS_M":null,"LONGITUD_EXCLUSIVA_BOULEVARD_MACAJI_BELLAVISTA_M":null,"LONGITUD_EXCLUSIVA_QUEBRADA_LAS_ABRAS_M":null,"INDICADORES_PUNTUALES_RECALCULADOS":0.0},"geometry":{"type":"Point","coordinates":[-78.63553739722515,-1.6897882967750255]}},{"type":"Feature","properties":{"ID_PROPUESTA":"MUN-032","ID_ORIGINAL":null,"FILA_ORIGINAL":null,"GRUPO":"RED_ESTRUCTURAL","SUBTIPO":null,"X":761173.3910203539,"Y":9816343.855156278,"LONGITUD":-78.65258192616457,"LATITUD":-1.6601871303300177,"PARROQUIA":null,"ID_CANDIDATO":"VIAL-EJE-03905","ORIGEN_CANDIDATO":"REFERENCIACION_LINEAL_EJE_VIAL_REAL_20M","GRADO_NODO":0,"CRITERIO_PRINCIPAL":null,"CRITERIOS_SECUNDARIOS":null,"JUSTIFICACION":null,"ESTADO":"ALTERNATIVA_NO_APLICADA","ESTADO_VALIDACION":null,"METODO_FINAL":null,"HOTSPOT_DEL":null,"NIVEL_DEL":null,"HOTSPOT_VIOL":null,"NIVEL_VIOL":null,"HOTSPOT_CONV":null,"NIVEL_CONV":null,"AMBITO_HOTSPOT":null,"COINCIDENCIA_DV":null,"DELINCUENCIA_200M":null,"VIOLENCIA_200M":null,"CONVIVENCIA_200M":null,"N_TOTAL":null,"COBERTURA_PREVIA":null,"POBLACION_ASOCIADA":null,"MANZANAS_POB_VALIDAS":null,"MANZANAS_POB_FALTANTES":null,"POBLACION_METODO":null,"UPC_CERCANA":null,"NOMBRE_UPC":null,"DIST_UPC_M":null,"INFRA_CERCANA":null,"DIST_INFRA_M":null,"DIST_EXISTENTE":null,"DIST_MUNICIPAL":null,"INTERSECCION_O_NODO":null,"CORREDOR_COINCIDENTE":null,"CORREDOR_METODO":null,"SOLAPE_OTRAS49_PCT":null,"D_EXCLUSIVOS":null,"V_EXCLUSIVOS":null,"C_EXCLUSIVOS":null,"N_CORREDORES":null,"CORREDOR":null,"BENEFICIO_CONTEXTO":null,"LONGITUD_EXCLUSIVA_ANILLO_VIAL_M":null,"LONGITUD_EXCLUSIVA_CICLOVIAS_M":null,"LONGITUD_EXCLUSIVA_BOULEVARD_MACAJI_BELLAVISTA_M":null,"LONGITUD_EXCLUSIVA_QUEBRADA_LAS_ABRAS_M":null,"INDICADORES_PUNTUALES_RECALCULADOS":0.0},"geometry":{"type":"Point","coordinates":[-78.65258192616457,-1.6601871303300177]}},{"type":"Feature","properties":{"ID_PROPUESTA":"MUN-033","ID_ORIGINAL":null,"FILA_ORIGINAL":null,"GRUPO":"RED_ESTRUCTURAL","SUBTIPO":null,"X":759803.8327616926,"Y":9815727.40476826,"LONGITUD":-78.66487803357211,"LATITUD":-1.6657743057911936,"PARROQUIA":null,"ID_CANDIDATO":"VIAL-EJE-01128","ORIGEN_CANDIDATO":"REFERENCIACION_LINEAL_EJE_VIAL_REAL_20M","GRADO_NODO":0,"CRITERIO_PRINCIPAL":null,"CRITERIOS_SECUNDARIOS":null,"JUSTIFICACION":null,"ESTADO":"ALTERNATIVA_NO_APLICADA","ESTADO_VALIDACION":null,"METODO_FINAL":null,"HOTSPOT_DEL":null,"NIVEL_DEL":null,"HOTSPOT_VIOL":null,"NIVEL_VIOL":null,"HOTSPOT_CONV":null,"NIVEL_CONV":null,"AMBITO_HOTSPOT":null,"COINCIDENCIA_DV":null,"DELINCUENCIA_200M":null,"VIOLENCIA_200M":null,"CONVIVENCIA_200M":null,"N_TOTAL":null,"COBERTURA_PREVIA":null,"POBLACION_ASOCIADA":null,"MANZANAS_POB_VALIDAS":null,"MANZANAS_POB_FALTANTES":null,"POBLACION_METODO":null,"UPC_CERCANA":null,"NOMBRE_UPC":null,"DIST_UPC_M":null,"INFRA_CERCANA":null,"DIST_INFRA_M":null,"DIST_EXISTENTE":null,"DIST_MUNICIPAL":null,"INTERSECCION_O_NODO":null,"CORREDOR_COINCIDENTE":null,"CORREDOR_METODO":null,"SOLAPE_OTRAS49_PCT":null,"D_EXCLUSIVOS":null,"V_EXCLUSIVOS":null,"C_EXCLUSIVOS":null,"N_CORREDORES":null,"CORREDOR":null,"BENEFICIO_CONTEXTO":null,"LONGITUD_EXCLUSIVA_ANILLO_VIAL_M":null,"LONGITUD_EXCLUSIVA_CICLOVIAS_M":null,"LONGITUD_EXCLUSIVA_BOULEVARD_MACAJI_BELLAVISTA_M":null,"LONGITUD_EXCLUSIVA_QUEBRADA_LAS_ABRAS_M":null,"INDICADORES_PUNTUALES_RECALCULADOS":0.0},"geometry":{"type":"Point","coordinates":[-78.66487803357211,-1.6657743057911936]}},{"type":"Feature","properties":{"ID_PROPUESTA":"MUN-034","ID_ORIGINAL":null,"FILA_ORIGINAL":null,"GRUPO":"RED_ESTRUCTURAL","SUBTIPO":null,"X":761712.0864191926,"Y":9816339.578831082,"LONGITUD":-78.64774284147965,"LATITUD":-1.6602199971128706,"PARROQUIA":null,"ID_CANDIDATO":"VIAL-EJE-05258","ORIGEN_CANDIDATO":"REFERENCIACION_LINEAL_EJE_VIAL_REAL_20M","GRADO_NODO":0,"CRITERIO_PRINCIPAL":null,"CRITERIOS_SECUNDARIOS":null,"JUSTIFICACION":null,"ESTADO":"ALTERNATIVA_NO_APLICADA","ESTADO_VALIDACION":null,"METODO_FINAL":null,"HOTSPOT_DEL":null,"NIVEL_DEL":null,"HOTSPOT_VIOL":null,"NIVEL_VIOL":null,"HOTSPOT_CONV":null,"NIVEL_CONV":null,"AMBITO_HOTSPOT":null,"COINCIDENCIA_DV":null,"DELINCUENCIA_200M":null,"VIOLENCIA_200M":null,"CONVIVENCIA_200M":null,"N_TOTAL":null,"COBERTURA_PREVIA":null,"POBLACION_ASOCIADA":null,"MANZANAS_POB_VALIDAS":null,"MANZANAS_POB_FALTANTES":null,"POBLACION_METODO":null,"UPC_CERCANA":null,"NOMBRE_UPC":null,"DIST_UPC_M":null,"INFRA_CERCANA":null,"DIST_INFRA_M":null,"DIST_EXISTENTE":null,"DIST_MUNICIPAL":null,"INTERSECCION_O_NODO":null,"CORREDOR_COINCIDENTE":null,"CORREDOR_METODO":null,"SOLAPE_OTRAS49_PCT":null,"D_EXCLUSIVOS":null,"V_EXCLUSIVOS":null,"C_EXCLUSIVOS":null,"N_CORREDORES":null,"CORREDOR":null,"BENEFICIO_CONTEXTO":null,"LONGITUD_EXCLUSIVA_ANILLO_VIAL_M":null,"LONGITUD_EXCLUSIVA_CICLOVIAS_M":null,"LONGITUD_EXCLUSIVA_BOULEVARD_MACAJI_BELLAVISTA_M":null,"LONGITUD_EXCLUSIVA_QUEBRADA_LAS_ABRAS_M":null,"INDICADORES_PUNTUALES_RECALCULADOS":0.0},"geometry":{"type":"Point","coordinates":[-78.64774284147965,-1.6602199971128706]}},{"type":"Feature","properties":{"ID_PROPUESTA":"MUN-035","ID_ORIGINAL":null,"FILA_ORIGINAL":null,"GRUPO":"RED_ESTRUCTURAL","SUBTIPO":null,"X":761228.3652000012,"Y":9814511.9031,"LONGITUD":-78.65206845260326,"LATITUD":-1.676746635954689,"PARROQUIA":null,"ID_CANDIDATO":"VIAL-CANT-0924","ORIGEN_CANDIDATO":"NODO_RED_VIAL_CANTONAL_ORIGINAL","GRADO_NODO":4,"CRITERIO_PRINCIPAL":null,"CRITERIOS_SECUNDARIOS":null,"JUSTIFICACION":null,"ESTADO":"ALTERNATIVA_NO_APLICADA","ESTADO_VALIDACION":null,"METODO_FINAL":null,"HOTSPOT_DEL":null,"NIVEL_DEL":null,"HOTSPOT_VIOL":null,"NIVEL_VIOL":null,"HOTSPOT_CONV":null,"NIVEL_CONV":null,"AMBITO_HOTSPOT":null,"COINCIDENCIA_DV":null,"DELINCUENCIA_200M":null,"VIOLENCIA_200M":null,"CONVIVENCIA_200M":null,"N_TOTAL":null,"COBERTURA_PREVIA":null,"POBLACION_ASOCIADA":null,"MANZANAS_POB_VALIDAS":null,"MANZANAS_POB_FALTANTES":null,"POBLACION_METODO":null,"UPC_CERCANA":null,"NOMBRE_UPC":null,"DIST_UPC_M":null,"INFRA_CERCANA":null,"DIST_INFRA_M":null,"DIST_EXISTENTE":null,"DIST_MUNICIPAL":null,"INTERSECCION_O_NODO":null,"CORREDOR_COINCIDENTE":null,"CORREDOR_METODO":null,"SOLAPE_OTRAS49_PCT":null,"D_EXCLUSIVOS":null,"V_EXCLUSIVOS":null,"C_EXCLUSIVOS":null,"N_CORREDORES":null,"CORREDOR":null,"BENEFICIO_CONTEXTO":null,"LONGITUD_EXCLUSIVA_ANILLO_VIAL_M":null,"LONGITUD_EXCLUSIVA_CICLOVIAS_M":null,"LONGITUD_EXCLUSIVA_BOULEVARD_MACAJI_BELLAVISTA_M":null,"LONGITUD_EXCLUSIVA_QUEBRADA_LAS_ABRAS_M":null,"INDICADORES_PUNTUALES_RECALCULADOS":0.0},"geometry":{"type":"Point","coordinates":[-78.65206845260326,-1.676746635954689]}},{"type":"Feature","properties":{"ID_PROPUESTA":"MUN-036","ID_ORIGINAL":null,"FILA_ORIGINAL":null,"GRUPO":"RED_ESTRUCTURAL","SUBTIPO":null,"X":763431.9260654057,"Y":9813156.787373181,"LONGITUD":-78.63225928570593,"LATITUD":-1.6889721506012483,"PARROQUIA":null,"ID_CANDIDATO":"VIAL-EJE-09065","ORIGEN_CANDIDATO":"REFERENCIACION_LINEAL_EJE_VIAL_REAL_20M","GRADO_NODO":0,"CRITERIO_PRINCIPAL":null,"CRITERIOS_SECUNDARIOS":null,"JUSTIFICACION":null,"ESTADO":"ALTERNATIVA_NO_APLICADA","ESTADO_VALIDACION":null,"METODO_FINAL":null,"HOTSPOT_DEL":null,"NIVEL_DEL":null,"HOTSPOT_VIOL":null,"NIVEL_VIOL":null,"HOTSPOT_CONV":null,"NIVEL_CONV":null,"AMBITO_HOTSPOT":null,"COINCIDENCIA_DV":null,"DELINCUENCIA_200M":null,"VIOLENCIA_200M":null,"CONVIVENCIA_200M":null,"N_TOTAL":null,"COBERTURA_PREVIA":null,"POBLACION_ASOCIADA":null,"MANZANAS_POB_VALIDAS":null,"MANZANAS_POB_FALTANTES":null,"POBLACION_METODO":null,"UPC_CERCANA":null,"NOMBRE_UPC":null,"DIST_UPC_M":null,"INFRA_CERCANA":null,"DIST_INFRA_M":null,"DIST_EXISTENTE":null,"DIST_MUNICIPAL":null,"INTERSECCION_O_NODO":null,"CORREDOR_COINCIDENTE":null,"CORREDOR_METODO":null,"SOLAPE_OTRAS49_PCT":null,"D_EXCLUSIVOS":null,"V_EXCLUSIVOS":null,"C_EXCLUSIVOS":null,"N_CORREDORES":null,"CORREDOR":null,"BENEFICIO_CONTEXTO":null,"LONGITUD_EXCLUSIVA_ANILLO_VIAL_M":null,"LONGITUD_EXCLUSIVA_CICLOVIAS_M":null,"LONGITUD_EXCLUSIVA_BOULEVARD_MACAJI_BELLAVISTA_M":null,"LONGITUD_EXCLUSIVA_QUEBRADA_LAS_ABRAS_M":null,"INDICADORES_PUNTUALES_RECALCULADOS":0.0},"geometry":{"type":"Point","coordinates":[-78.63225928570593,-1.6889721506012483]}},{"type":"Feature","properties":{"ID_PROPUESTA":"MUN-037","ID_ORIGINAL":null,"FILA_ORIGINAL":null,"GRUPO":"RED_ESTRUCTURAL","SUBTIPO":null,"X":762690.2215186553,"Y":9814695.4502438,"LONGITUD":-78.63893868762045,"LATITUD":-1.6750715623282,"PARROQUIA":null,"ID_CANDIDATO":"VIAL-EJE-07665","ORIGEN_CANDIDATO":"REFERENCIACION_LINEAL_EJE_VIAL_REAL_20M","GRADO_NODO":0,"CRITERIO_PRINCIPAL":null,"CRITERIOS_SECUNDARIOS":null,"JUSTIFICACION":null,"ESTADO":"ALTERNATIVA_NO_APLICADA","ESTADO_VALIDACION":null,"METODO_FINAL":null,"HOTSPOT_DEL":null,"NIVEL_DEL":null,"HOTSPOT_VIOL":null,"NIVEL_VIOL":null,"HOTSPOT_CONV":null,"NIVEL_CONV":null,"AMBITO_HOTSPOT":null,"COINCIDENCIA_DV":null,"DELINCUENCIA_200M":null,"VIOLENCIA_200M":null,"CONVIVENCIA_200M":null,"N_TOTAL":null,"COBERTURA_PREVIA":null,"POBLACION_ASOCIADA":null,"MANZANAS_POB_VALIDAS":null,"MANZANAS_POB_FALTANTES":null,"POBLACION_METODO":null,"UPC_CERCANA":null,"NOMBRE_UPC":null,"DIST_UPC_M":null,"INFRA_CERCANA":null,"DIST_INFRA_M":null,"DIST_EXISTENTE":null,"DIST_MUNICIPAL":null,"INTERSECCION_O_NODO":null,"CORREDOR_COINCIDENTE":null,"CORREDOR_METODO":null,"SOLAPE_OTRAS49_PCT":null,"D_EXCLUSIVOS":null,"V_EXCLUSIVOS":null,"C_EXCLUSIVOS":null,"N_CORREDORES":null,"CORREDOR":null,"BENEFICIO_CONTEXTO":null,"LONGITUD_EXCLUSIVA_ANILLO_VIAL_M":null,"LONGITUD_EXCLUSIVA_CICLOVIAS_M":null,"LONGITUD_EXCLUSIVA_BOULEVARD_MACAJI_BELLAVISTA_M":null,"LONGITUD_EXCLUSIVA_QUEBRADA_LAS_ABRAS_M":null,"INDICADORES_PUNTUALES_RECALCULADOS":0.0},"geometry":{"type":"Point","coordinates":[-78.63893868762045,-1.6750715623282]}},{"type":"Feature","properties":{"ID_PROPUESTA":"MUN-038","ID_ORIGINAL":null,"FILA_ORIGINAL":null,"GRUPO":"RED_ESTRUCTURAL","SUBTIPO":null,"X":762379.9046096522,"Y":9814457.934989858,"LONGITUD":-78.64172365981628,"LATITUD":-1.6772219656007443,"PARROQUIA":null,"ID_CANDIDATO":"VIAL-EJE-07091","ORIGEN_CANDIDATO":"REFERENCIACION_LINEAL_EJE_VIAL_REAL_20M","GRADO_NODO":0,"CRITERIO_PRINCIPAL":null,"CRITERIOS_SECUNDARIOS":null,"JUSTIFICACION":null,"ESTADO":"ALTERNATIVA_NO_APLICADA","ESTADO_VALIDACION":null,"METODO_FINAL":null,"HOTSPOT_DEL":null,"NIVEL_DEL":null,"HOTSPOT_VIOL":null,"NIVEL_VIOL":null,"HOTSPOT_CONV":null,"NIVEL_CONV":null,"AMBITO_HOTSPOT":null,"COINCIDENCIA_DV":null,"DELINCUENCIA_200M":null,"VIOLENCIA_200M":null,"CONVIVENCIA_200M":null,"N_TOTAL":null,"COBERTURA_PREVIA":null,"POBLACION_ASOCIADA":null,"MANZANAS_POB_VALIDAS":null,"MANZANAS_POB_FALTANTES":null,"POBLACION_METODO":null,"UPC_CERCANA":null,"NOMBRE_UPC":null,"DIST_UPC_M":null,"INFRA_CERCANA":null,"DIST_INFRA_M":null,"DIST_EXISTENTE":null,"DIST_MUNICIPAL":null,"INTERSECCION_O_NODO":null,"CORREDOR_COINCIDENTE":null,"CORREDOR_METODO":null,"SOLAPE_OTRAS49_PCT":null,"D_EXCLUSIVOS":null,"V_EXCLUSIVOS":null,"C_EXCLUSIVOS":null,"N_CORREDORES":null,"CORREDOR":null,"BENEFICIO_CONTEXTO":null,"LONGITUD_EXCLUSIVA_ANILLO_VIAL_M":null,"LONGITUD_EXCLUSIVA_CICLOVIAS_M":null,"LONGITUD_EXCLUSIVA_BOULEVARD_MACAJI_BELLAVISTA_M":null,"LONGITUD_EXCLUSIVA_QUEBRADA_LAS_ABRAS_M":null,"INDICADORES_PUNTUALES_RECALCULADOS":0.0},"geometry":{"type":"Point","coordinates":[-78.64172365981628,-1.6772219656007443]}},{"type":"Feature","properties":{"ID_PROPUESTA":"MUN-039","ID_ORIGINAL":null,"FILA_ORIGINAL":null,"GRUPO":"RED_ESTRUCTURAL","SUBTIPO":null,"X":763648.7455856436,"Y":9813607.205723375,"LONGITUD":-78.63031654809963,"LATITUD":-1.6848982286274772,"PARROQUIA":null,"ID_CANDIDATO":"VIAL-EJE-09327","ORIGEN_CANDIDATO":"REFERENCIACION_LINEAL_EJE_VIAL_REAL_20M","GRADO_NODO":0,"CRITERIO_PRINCIPAL":null,"CRITERIOS_SECUNDARIOS":null,"JUSTIFICACION":null,"ESTADO":"ALTERNATIVA_NO_APLICADA","ESTADO_VALIDACION":null,"METODO_FINAL":null,"HOTSPOT_DEL":null,"NIVEL_DEL":null,"HOTSPOT_VIOL":null,"NIVEL_VIOL":null,"HOTSPOT_CONV":null,"NIVEL_CONV":null,"AMBITO_HOTSPOT":null,"COINCIDENCIA_DV":null,"DELINCUENCIA_200M":null,"VIOLENCIA_200M":null,"CONVIVENCIA_200M":null,"N_TOTAL":null,"COBERTURA_PREVIA":null,"POBLACION_ASOCIADA":null,"MANZANAS_POB_VALIDAS":null,"MANZANAS_POB_FALTANTES":null,"POBLACION_METODO":null,"UPC_CERCANA":null,"NOMBRE_UPC":null,"DIST_UPC_M":null,"INFRA_CERCANA":null,"DIST_INFRA_M":null,"DIST_EXISTENTE":null,"DIST_MUNICIPAL":null,"INTERSECCION_O_NODO":null,"CORREDOR_COINCIDENTE":null,"CORREDOR_METODO":null,"SOLAPE_OTRAS49_PCT":null,"D_EXCLUSIVOS":null,"V_EXCLUSIVOS":null,"C_EXCLUSIVOS":null,"N_CORREDORES":null,"CORREDOR":null,"BENEFICIO_CONTEXTO":null,"LONGITUD_EXCLUSIVA_ANILLO_VIAL_M":null,"LONGITUD_EXCLUSIVA_CICLOVIAS_M":null,"LONGITUD_EXCLUSIVA_BOULEVARD_MACAJI_BELLAVISTA_M":null,"LONGITUD_EXCLUSIVA_QUEBRADA_LAS_ABRAS_M":null,"INDICADORES_PUNTUALES_RECALCULADOS":0.0},"geometry":{"type":"Point","coordinates":[-78.63031654809963,-1.6848982286274772]}},{"type":"Feature","properties":{"ID_PROPUESTA":"MUN-040","ID_ORIGINAL":null,"FILA_ORIGINAL":null,"GRUPO":"RED_ESTRUCTURAL","SUBTIPO":null,"X":760983.168315429,"Y":9814217.918167843,"LONGITUD":-78.65426788334727,"LATITUD":-1.6794068011980585,"PARROQUIA":null,"ID_CANDIDATO":"VIAL-EJE-03469","ORIGEN_CANDIDATO":"REFERENCIACION_LINEAL_EJE_VIAL_REAL_20M","GRADO_NODO":0,"CRITERIO_PRINCIPAL":null,"CRITERIOS_SECUNDARIOS":null,"JUSTIFICACION":null,"ESTADO":"ALTERNATIVA_NO_APLICADA","ESTADO_VALIDACION":null,"METODO_FINAL":null,"HOTSPOT_DEL":null,"NIVEL_DEL":null,"HOTSPOT_VIOL":null,"NIVEL_VIOL":null,"HOTSPOT_CONV":null,"NIVEL_CONV":null,"AMBITO_HOTSPOT":null,"COINCIDENCIA_DV":null,"DELINCUENCIA_200M":null,"VIOLENCIA_200M":null,"CONVIVENCIA_200M":null,"N_TOTAL":null,"COBERTURA_PREVIA":null,"POBLACION_ASOCIADA":null,"MANZANAS_POB_VALIDAS":null,"MANZANAS_POB_FALTANTES":null,"POBLACION_METODO":null,"UPC_CERCANA":null,"NOMBRE_UPC":null,"DIST_UPC_M":null,"INFRA_CERCANA":null,"DIST_INFRA_M":null,"DIST_EXISTENTE":null,"DIST_MUNICIPAL":null,"INTERSECCION_O_NODO":null,"CORREDOR_COINCIDENTE":null,"CORREDOR_METODO":null,"SOLAPE_OTRAS49_PCT":null,"D_EXCLUSIVOS":null,"V_EXCLUSIVOS":null,"C_EXCLUSIVOS":null,"N_CORREDORES":null,"CORREDOR":null,"BENEFICIO_CONTEXTO":null,"LONGITUD_EXCLUSIVA_ANILLO_VIAL_M":null,"LONGITUD_EXCLUSIVA_CICLOVIAS_M":null,"LONGITUD_EXCLUSIVA_BOULEVARD_MACAJI_BELLAVISTA_M":null,"LONGITUD_EXCLUSIVA_QUEBRADA_LAS_ABRAS_M":null,"INDICADORES_PUNTUALES_RECALCULADOS":0.0},"geometry":{"type":"Point","coordinates":[-78.65426788334727,-1.6794068011980585]}},{"type":"Feature","properties":{"ID_PROPUESTA":"MUN-041","ID_ORIGINAL":null,"FILA_ORIGINAL":null,"GRUPO":"RED_ESTRUCTURAL","SUBTIPO":null,"X":760612.0216938151,"Y":9815564.957464473,"LONGITUD":-78.65761635086635,"LATITUD":-1.6672340950503814,"PARROQUIA":null,"ID_CANDIDATO":"VIAL-EJE-02748","ORIGEN_CANDIDATO":"REFERENCIACION_LINEAL_EJE_VIAL_REAL_20M","GRADO_NODO":0,"CRITERIO_PRINCIPAL":null,"CRITERIOS_SECUNDARIOS":null,"JUSTIFICACION":null,"ESTADO":"ALTERNATIVA_NO_APLICADA","ESTADO_VALIDACION":null,"METODO_FINAL":null,"HOTSPOT_DEL":null,"NIVEL_DEL":null,"HOTSPOT_VIOL":null,"NIVEL_VIOL":null,"HOTSPOT_CONV":null,"NIVEL_CONV":null,"AMBITO_HOTSPOT":null,"COINCIDENCIA_DV":null,"DELINCUENCIA_200M":null,"VIOLENCIA_200M":null,"CONVIVENCIA_200M":null,"N_TOTAL":null,"COBERTURA_PREVIA":null,"POBLACION_ASOCIADA":null,"MANZANAS_POB_VALIDAS":null,"MANZANAS_POB_FALTANTES":null,"POBLACION_METODO":null,"UPC_CERCANA":null,"NOMBRE_UPC":null,"DIST_UPC_M":null,"INFRA_CERCANA":null,"DIST_INFRA_M":null,"DIST_EXISTENTE":null,"DIST_MUNICIPAL":null,"INTERSECCION_O_NODO":null,"CORREDOR_COINCIDENTE":null,"CORREDOR_METODO":null,"SOLAPE_OTRAS49_PCT":null,"D_EXCLUSIVOS":null,"V_EXCLUSIVOS":null,"C_EXCLUSIVOS":null,"N_CORREDORES":null,"CORREDOR":null,"BENEFICIO_CONTEXTO":null,"LONGITUD_EXCLUSIVA_ANILLO_VIAL_M":null,"LONGITUD_EXCLUSIVA_CICLOVIAS_M":null,"LONGITUD_EXCLUSIVA_BOULEVARD_MACAJI_BELLAVISTA_M":null,"LONGITUD_EXCLUSIVA_QUEBRADA_LAS_ABRAS_M":null,"INDICADORES_PUNTUALES_RECALCULADOS":0.0},"geometry":{"type":"Point","coordinates":[-78.65761635086635,-1.6672340950503814]}},{"type":"Feature","properties":{"ID_PROPUESTA":"MUN-042","ID_ORIGINAL":null,"FILA_ORIGINAL":null,"GRUPO":"RED_ESTRUCTURAL","SUBTIPO":null,"X":762079.8249000004,"Y":9815405.2812,"LONGITUD":-78.64442947071933,"LATITUD":-1.6686616596117176,"PARROQUIA":null,"ID_CANDIDATO":"EST-1234","ORIGEN_CANDIDATO":"NODO_VIAL_URBANO","GRADO_NODO":3,"CRITERIO_PRINCIPAL":null,"CRITERIOS_SECUNDARIOS":null,"JUSTIFICACION":null,"ESTADO":"ALTERNATIVA_NO_APLICADA","ESTADO_VALIDACION":null,"METODO_FINAL":null,"HOTSPOT_DEL":null,"NIVEL_DEL":null,"HOTSPOT_VIOL":null,"NIVEL_VIOL":null,"HOTSPOT_CONV":null,"NIVEL_CONV":null,"AMBITO_HOTSPOT":null,"COINCIDENCIA_DV":null,"DELINCUENCIA_200M":null,"VIOLENCIA_200M":null,"CONVIVENCIA_200M":null,"N_TOTAL":null,"COBERTURA_PREVIA":null,"POBLACION_ASOCIADA":null,"MANZANAS_POB_VALIDAS":null,"MANZANAS_POB_FALTANTES":null,"POBLACION_METODO":null,"UPC_CERCANA":null,"NOMBRE_UPC":null,"DIST_UPC_M":null,"INFRA_CERCANA":null,"DIST_INFRA_M":null,"DIST_EXISTENTE":null,"DIST_MUNICIPAL":null,"INTERSECCION_O_NODO":null,"CORREDOR_COINCIDENTE":null,"CORREDOR_METODO":null,"SOLAPE_OTRAS49_PCT":null,"D_EXCLUSIVOS":null,"V_EXCLUSIVOS":null,"C_EXCLUSIVOS":null,"N_CORREDORES":null,"CORREDOR":null,"BENEFICIO_CONTEXTO":null,"LONGITUD_EXCLUSIVA_ANILLO_VIAL_M":null,"LONGITUD_EXCLUSIVA_CICLOVIAS_M":null,"LONGITUD_EXCLUSIVA_BOULEVARD_MACAJI_BELLAVISTA_M":null,"LONGITUD_EXCLUSIVA_QUEBRADA_LAS_ABRAS_M":null,"INDICADORES_PUNTUALES_RECALCULADOS":0.0},"geometry":{"type":"Point","coordinates":[-78.64442947071933,-1.6686616596117176]}},{"type":"Feature","properties":{"ID_PROPUESTA":"MUN-043","ID_ORIGINAL":null,"FILA_ORIGINAL":null,"GRUPO":"RED_ESTRUCTURAL","SUBTIPO":null,"X":762265.6914087548,"Y":9813434.529143322,"LONGITUD":-78.64273851971151,"LATITUD":-1.6864743156923443,"PARROQUIA":null,"ID_CANDIDATO":"VIAL-CANT-1513","ORIGEN_CANDIDATO":"NODO_RED_VIAL_CANTONAL_ORIGINAL","GRADO_NODO":3,"CRITERIO_PRINCIPAL":null,"CRITERIOS_SECUNDARIOS":null,"JUSTIFICACION":null,"ESTADO":"ALTERNATIVA_NO_APLICADA","ESTADO_VALIDACION":null,"METODO_FINAL":null,"HOTSPOT_DEL":null,"NIVEL_DEL":null,"HOTSPOT_VIOL":null,"NIVEL_VIOL":null,"HOTSPOT_CONV":null,"NIVEL_CONV":null,"AMBITO_HOTSPOT":null,"COINCIDENCIA_DV":null,"DELINCUENCIA_200M":null,"VIOLENCIA_200M":null,"CONVIVENCIA_200M":null,"N_TOTAL":null,"COBERTURA_PREVIA":null,"POBLACION_ASOCIADA":null,"MANZANAS_POB_VALIDAS":null,"MANZANAS_POB_FALTANTES":null,"POBLACION_METODO":null,"UPC_CERCANA":null,"NOMBRE_UPC":null,"DIST_UPC_M":null,"INFRA_CERCANA":null,"DIST_INFRA_M":null,"DIST_EXISTENTE":null,"DIST_MUNICIPAL":null,"INTERSECCION_O_NODO":null,"CORREDOR_COINCIDENTE":null,"CORREDOR_METODO":null,"SOLAPE_OTRAS49_PCT":null,"D_EXCLUSIVOS":null,"V_EXCLUSIVOS":null,"C_EXCLUSIVOS":null,"N_CORREDORES":null,"CORREDOR":null,"BENEFICIO_CONTEXTO":null,"LONGITUD_EXCLUSIVA_ANILLO_VIAL_M":null,"LONGITUD_EXCLUSIVA_CICLOVIAS_M":null,"LONGITUD_EXCLUSIVA_BOULEVARD_MACAJI_BELLAVISTA_M":null,"LONGITUD_EXCLUSIVA_QUEBRADA_LAS_ABRAS_M":null,"INDICADORES_PUNTUALES_RECALCULADOS":0.0},"geometry":{"type":"Point","coordinates":[-78.64273851971151,-1.6864743156923443]}},{"type":"Feature","properties":{"ID_PROPUESTA":"MUN-044","ID_ORIGINAL":null,"FILA_ORIGINAL":null,"GRUPO":"RED_ESTRUCTURAL","SUBTIPO":null,"X":762476.3599377642,"Y":9815892.34205592,"LONGITUD":-78.64087268796811,"LATITUD":-1.6642545676349212,"PARROQUIA":null,"ID_CANDIDATO":"VIAL-EJE-07257","ORIGEN_CANDIDATO":"REFERENCIACION_LINEAL_EJE_VIAL_REAL_20M","GRADO_NODO":0,"CRITERIO_PRINCIPAL":null,"CRITERIOS_SECUNDARIOS":null,"JUSTIFICACION":null,"ESTADO":"ALTERNATIVA_NO_APLICADA","ESTADO_VALIDACION":null,"METODO_FINAL":null,"HOTSPOT_DEL":null,"NIVEL_DEL":null,"HOTSPOT_VIOL":null,"NIVEL_VIOL":null,"HOTSPOT_CONV":null,"NIVEL_CONV":null,"AMBITO_HOTSPOT":null,"COINCIDENCIA_DV":null,"DELINCUENCIA_200M":null,"VIOLENCIA_200M":null,"CONVIVENCIA_200M":null,"N_TOTAL":null,"COBERTURA_PREVIA":null,"POBLACION_ASOCIADA":null,"MANZANAS_POB_VALIDAS":null,"MANZANAS_POB_FALTANTES":null,"POBLACION_METODO":null,"UPC_CERCANA":null,"NOMBRE_UPC":null,"DIST_UPC_M":null,"INFRA_CERCANA":null,"DIST_INFRA_M":null,"DIST_EXISTENTE":null,"DIST_MUNICIPAL":null,"INTERSECCION_O_NODO":null,"CORREDOR_COINCIDENTE":null,"CORREDOR_METODO":null,"SOLAPE_OTRAS49_PCT":null,"D_EXCLUSIVOS":null,"V_EXCLUSIVOS":null,"C_EXCLUSIVOS":null,"N_CORREDORES":null,"CORREDOR":null,"BENEFICIO_CONTEXTO":null,"LONGITUD_EXCLUSIVA_ANILLO_VIAL_M":null,"LONGITUD_EXCLUSIVA_CICLOVIAS_M":null,"LONGITUD_EXCLUSIVA_BOULEVARD_MACAJI_BELLAVISTA_M":null,"LONGITUD_EXCLUSIVA_QUEBRADA_LAS_ABRAS_M":null,"INDICADORES_PUNTUALES_RECALCULADOS":0.0},"geometry":{"type":"Point","coordinates":[-78.64087268796811,-1.6642545676349212]}},{"type":"Feature","properties":{"ID_PROPUESTA":"MUN-045","ID_ORIGINAL":null,"FILA_ORIGINAL":null,"GRUPO":"RED_ESTRUCTURAL","SUBTIPO":null,"X":761630.4689454996,"Y":9813532.105266022,"LONGITUD":-78.64844576646925,"LATITUD":-1.6855992182633004,"PARROQUIA":null,"ID_CANDIDATO":"VIAL-EJE-05074","ORIGEN_CANDIDATO":"REFERENCIACION_LINEAL_EJE_VIAL_REAL_20M","GRADO_NODO":0,"CRITERIO_PRINCIPAL":null,"CRITERIOS_SECUNDARIOS":null,"JUSTIFICACION":null,"ESTADO":"ALTERNATIVA_NO_APLICADA","ESTADO_VALIDACION":null,"METODO_FINAL":null,"HOTSPOT_DEL":null,"NIVEL_DEL":null,"HOTSPOT_VIOL":null,"NIVEL_VIOL":null,"HOTSPOT_CONV":null,"NIVEL_CONV":null,"AMBITO_HOTSPOT":null,"COINCIDENCIA_DV":null,"DELINCUENCIA_200M":null,"VIOLENCIA_200M":null,"CONVIVENCIA_200M":null,"N_TOTAL":null,"COBERTURA_PREVIA":null,"POBLACION_ASOCIADA":null,"MANZANAS_POB_VALIDAS":null,"MANZANAS_POB_FALTANTES":null,"POBLACION_METODO":null,"UPC_CERCANA":null,"NOMBRE_UPC":null,"DIST_UPC_M":null,"INFRA_CERCANA":null,"DIST_INFRA_M":null,"DIST_EXISTENTE":null,"DIST_MUNICIPAL":null,"INTERSECCION_O_NODO":null,"CORREDOR_COINCIDENTE":null,"CORREDOR_METODO":null,"SOLAPE_OTRAS49_PCT":null,"D_EXCLUSIVOS":null,"V_EXCLUSIVOS":null,"C_EXCLUSIVOS":null,"N_CORREDORES":null,"CORREDOR":null,"BENEFICIO_CONTEXTO":null,"LONGITUD_EXCLUSIVA_ANILLO_VIAL_M":null,"LONGITUD_EXCLUSIVA_CICLOVIAS_M":null,"LONGITUD_EXCLUSIVA_BOULEVARD_MACAJI_BELLAVISTA_M":null,"LONGITUD_EXCLUSIVA_QUEBRADA_LAS_ABRAS_M":null,"INDICADORES_PUNTUALES_RECALCULADOS":0.0},"geometry":{"type":"Point","coordinates":[-78.64844576646925,-1.6855992182633004]}},{"type":"Feature","properties":{"ID_PROPUESTA":"MUN-046","ID_ORIGINAL":null,"FILA_ORIGINAL":null,"GRUPO":"RED_ESTRUCTURAL","SUBTIPO":null,"X":763600.9212396499,"Y":9814562.183149459,"LONGITUD":-78.63075655731579,"LATITUD":-1.6762662843092384,"PARROQUIA":null,"ID_CANDIDATO":"VIAL-EJE-09279","ORIGEN_CANDIDATO":"REFERENCIACION_LINEAL_EJE_VIAL_REAL_20M","GRADO_NODO":0,"CRITERIO_PRINCIPAL":null,"CRITERIOS_SECUNDARIOS":null,"JUSTIFICACION":null,"ESTADO":"ALTERNATIVA_NO_APLICADA","ESTADO_VALIDACION":null,"METODO_FINAL":null,"HOTSPOT_DEL":null,"NIVEL_DEL":null,"HOTSPOT_VIOL":null,"NIVEL_VIOL":null,"HOTSPOT_CONV":null,"NIVEL_CONV":null,"AMBITO_HOTSPOT":null,"COINCIDENCIA_DV":null,"DELINCUENCIA_200M":null,"VIOLENCIA_200M":null,"CONVIVENCIA_200M":null,"N_TOTAL":null,"COBERTURA_PREVIA":null,"POBLACION_ASOCIADA":null,"MANZANAS_POB_VALIDAS":null,"MANZANAS_POB_FALTANTES":null,"POBLACION_METODO":null,"UPC_CERCANA":null,"NOMBRE_UPC":null,"DIST_UPC_M":null,"INFRA_CERCANA":null,"DIST_INFRA_M":null,"DIST_EXISTENTE":null,"DIST_MUNICIPAL":null,"INTERSECCION_O_NODO":null,"CORREDOR_COINCIDENTE":null,"CORREDOR_METODO":null,"SOLAPE_OTRAS49_PCT":null,"D_EXCLUSIVOS":null,"V_EXCLUSIVOS":null,"C_EXCLUSIVOS":null,"N_CORREDORES":null,"CORREDOR":null,"BENEFICIO_CONTEXTO":null,"LONGITUD_EXCLUSIVA_ANILLO_VIAL_M":null,"LONGITUD_EXCLUSIVA_CICLOVIAS_M":null,"LONGITUD_EXCLUSIVA_BOULEVARD_MACAJI_BELLAVISTA_M":null,"LONGITUD_EXCLUSIVA_QUEBRADA_LAS_ABRAS_M":null,"INDICADORES_PUNTUALES_RECALCULADOS":0.0},"geometry":{"type":"Point","coordinates":[-78.63075655731579,-1.6762662843092384]}},{"type":"Feature","properties":{"ID_PROPUESTA":"MUN-047","ID_ORIGINAL":null,"FILA_ORIGINAL":null,"GRUPO":"RED_ESTRUCTURAL","SUBTIPO":null,"X":759652.4839029934,"Y":9815355.353481136,"LONGITUD":-78.66623363840507,"LATITUD":-1.669139152526821,"PARROQUIA":null,"ID_CANDIDATO":"VIAL-EJE-00999","ORIGEN_CANDIDATO":"REFERENCIACION_LINEAL_EJE_VIAL_REAL_20M","GRADO_NODO":0,"CRITERIO_PRINCIPAL":null,"CRITERIOS_SECUNDARIOS":null,"JUSTIFICACION":null,"ESTADO":"ALTERNATIVA_NO_APLICADA","ESTADO_VALIDACION":null,"METODO_FINAL":null,"HOTSPOT_DEL":null,"NIVEL_DEL":null,"HOTSPOT_VIOL":null,"NIVEL_VIOL":null,"HOTSPOT_CONV":null,"NIVEL_CONV":null,"AMBITO_HOTSPOT":null,"COINCIDENCIA_DV":null,"DELINCUENCIA_200M":null,"VIOLENCIA_200M":null,"CONVIVENCIA_200M":null,"N_TOTAL":null,"COBERTURA_PREVIA":null,"POBLACION_ASOCIADA":null,"MANZANAS_POB_VALIDAS":null,"MANZANAS_POB_FALTANTES":null,"POBLACION_METODO":null,"UPC_CERCANA":null,"NOMBRE_UPC":null,"DIST_UPC_M":null,"INFRA_CERCANA":null,"DIST_INFRA_M":null,"DIST_EXISTENTE":null,"DIST_MUNICIPAL":null,"INTERSECCION_O_NODO":null,"CORREDOR_COINCIDENTE":null,"CORREDOR_METODO":null,"SOLAPE_OTRAS49_PCT":null,"D_EXCLUSIVOS":null,"V_EXCLUSIVOS":null,"C_EXCLUSIVOS":null,"N_CORREDORES":null,"CORREDOR":null,"BENEFICIO_CONTEXTO":null,"LONGITUD_EXCLUSIVA_ANILLO_VIAL_M":null,"LONGITUD_EXCLUSIVA_CICLOVIAS_M":null,"LONGITUD_EXCLUSIVA_BOULEVARD_MACAJI_BELLAVISTA_M":null,"LONGITUD_EXCLUSIVA_QUEBRADA_LAS_ABRAS_M":null,"INDICADORES_PUNTUALES_RECALCULADOS":0.0},"geometry":{"type":"Point","coordinates":[-78.66623363840507,-1.669139152526821]}},{"type":"Feature","properties":{"ID_PROPUESTA":"MUN-048","ID_ORIGINAL":null,"FILA_ORIGINAL":null,"GRUPO":"RED_ESTRUCTURAL","SUBTIPO":null,"X":760410.0652632809,"Y":9817307.126803048,"LONGITUD":-78.65944904263677,"LATITUD":-1.6514876851716218,"PARROQUIA":null,"ID_CANDIDATO":"VIAL-EJE-02309","ORIGEN_CANDIDATO":"REFERENCIACION_LINEAL_EJE_VIAL_REAL_20M","GRADO_NODO":0,"CRITERIO_PRINCIPAL":null,"CRITERIOS_SECUNDARIOS":null,"JUSTIFICACION":null,"ESTADO":"ALTERNATIVA_NO_APLICADA","ESTADO_VALIDACION":null,"METODO_FINAL":null,"HOTSPOT_DEL":null,"NIVEL_DEL":null,"HOTSPOT_VIOL":null,"NIVEL_VIOL":null,"HOTSPOT_CONV":null,"NIVEL_CONV":null,"AMBITO_HOTSPOT":null,"COINCIDENCIA_DV":null,"DELINCUENCIA_200M":null,"VIOLENCIA_200M":null,"CONVIVENCIA_200M":null,"N_TOTAL":null,"COBERTURA_PREVIA":null,"POBLACION_ASOCIADA":null,"MANZANAS_POB_VALIDAS":null,"MANZANAS_POB_FALTANTES":null,"POBLACION_METODO":null,"UPC_CERCANA":null,"NOMBRE_UPC":null,"DIST_UPC_M":null,"INFRA_CERCANA":null,"DIST_INFRA_M":null,"DIST_EXISTENTE":null,"DIST_MUNICIPAL":null,"INTERSECCION_O_NODO":null,"CORREDOR_COINCIDENTE":null,"CORREDOR_METODO":null,"SOLAPE_OTRAS49_PCT":null,"D_EXCLUSIVOS":null,"V_EXCLUSIVOS":null,"C_EXCLUSIVOS":null,"N_CORREDORES":null,"CORREDOR":null,"BENEFICIO_CONTEXTO":null,"LONGITUD_EXCLUSIVA_ANILLO_VIAL_M":null,"LONGITUD_EXCLUSIVA_CICLOVIAS_M":null,"LONGITUD_EXCLUSIVA_BOULEVARD_MACAJI_BELLAVISTA_M":null,"LONGITUD_EXCLUSIVA_QUEBRADA_LAS_ABRAS_M":null,"INDICADORES_PUNTUALES_RECALCULADOS":0.0},"geometry":{"type":"Point","coordinates":[-78.65944904263677,-1.6514876851716218]}},{"type":"Feature","properties":{"ID_PROPUESTA":"MUN-049","ID_ORIGINAL":null,"FILA_ORIGINAL":null,"GRUPO":"RED_ESTRUCTURAL","SUBTIPO":null,"X":761250.5227494146,"Y":9813651.55992903,"LONGITUD":-78.6518601173758,"LATITUD":-1.6845235431855126,"PARROQUIA":null,"ID_CANDIDATO":"VIAL-EJE-04142","ORIGEN_CANDIDATO":"REFERENCIACION_LINEAL_EJE_VIAL_REAL_20M","GRADO_NODO":0,"CRITERIO_PRINCIPAL":null,"CRITERIOS_SECUNDARIOS":null,"JUSTIFICACION":null,"ESTADO":"ALTERNATIVA_NO_APLICADA","ESTADO_VALIDACION":null,"METODO_FINAL":null,"HOTSPOT_DEL":null,"NIVEL_DEL":null,"HOTSPOT_VIOL":null,"NIVEL_VIOL":null,"HOTSPOT_CONV":null,"NIVEL_CONV":null,"AMBITO_HOTSPOT":null,"COINCIDENCIA_DV":null,"DELINCUENCIA_200M":null,"VIOLENCIA_200M":null,"CONVIVENCIA_200M":null,"N_TOTAL":null,"COBERTURA_PREVIA":null,"POBLACION_ASOCIADA":null,"MANZANAS_POB_VALIDAS":null,"MANZANAS_POB_FALTANTES":null,"POBLACION_METODO":null,"UPC_CERCANA":null,"NOMBRE_UPC":null,"DIST_UPC_M":null,"INFRA_CERCANA":null,"DIST_INFRA_M":null,"DIST_EXISTENTE":null,"DIST_MUNICIPAL":null,"INTERSECCION_O_NODO":null,"CORREDOR_COINCIDENTE":null,"CORREDOR_METODO":null,"SOLAPE_OTRAS49_PCT":null,"D_EXCLUSIVOS":null,"V_EXCLUSIVOS":null,"C_EXCLUSIVOS":null,"N_CORREDORES":null,"CORREDOR":null,"BENEFICIO_CONTEXTO":null,"LONGITUD_EXCLUSIVA_ANILLO_VIAL_M":null,"LONGITUD_EXCLUSIVA_CICLOVIAS_M":null,"LONGITUD_EXCLUSIVA_BOULEVARD_MACAJI_BELLAVISTA_M":null,"LONGITUD_EXCLUSIVA_QUEBRADA_LAS_ABRAS_M":null,"INDICADORES_PUNTUALES_RECALCULADOS":0.0},"geometry":{"type":"Point","coordinates":[-78.6518601173758,-1.6845235431855126]}},{"type":"Feature","properties":{"ID_PROPUESTA":"MUN-050","ID_ORIGINAL":null,"FILA_ORIGINAL":null,"GRUPO":"RED_ESTRUCTURAL","SUBTIPO":null,"X":763644.9237440862,"Y":9814056.821828486,"LONGITUD":-78.63035578754082,"LATITUD":-1.680833989824836,"PARROQUIA":null,"ID_CANDIDATO":"VIAL-EJE-09324","ORIGEN_CANDIDATO":"REFERENCIACION_LINEAL_EJE_VIAL_REAL_20M","GRADO_NODO":0,"CRITERIO_PRINCIPAL":null,"CRITERIOS_SECUNDARIOS":null,"JUSTIFICACION":null,"ESTADO":"ALTERNATIVA_NO_APLICADA","ESTADO_VALIDACION":null,"METODO_FINAL":null,"HOTSPOT_DEL":null,"NIVEL_DEL":null,"HOTSPOT_VIOL":null,"NIVEL_VIOL":null,"HOTSPOT_CONV":null,"NIVEL_CONV":null,"AMBITO_HOTSPOT":null,"COINCIDENCIA_DV":null,"DELINCUENCIA_200M":null,"VIOLENCIA_200M":null,"CONVIVENCIA_200M":null,"N_TOTAL":null,"COBERTURA_PREVIA":null,"POBLACION_ASOCIADA":null,"MANZANAS_POB_VALIDAS":null,"MANZANAS_POB_FALTANTES":null,"POBLACION_METODO":null,"UPC_CERCANA":null,"NOMBRE_UPC":null,"DIST_UPC_M":null,"INFRA_CERCANA":null,"DIST_INFRA_M":null,"DIST_EXISTENTE":null,"DIST_MUNICIPAL":null,"INTERSECCION_O_NODO":null,"CORREDOR_COINCIDENTE":null,"CORREDOR_METODO":null,"SOLAPE_OTRAS49_PCT":null,"D_EXCLUSIVOS":null,"V_EXCLUSIVOS":null,"C_EXCLUSIVOS":null,"N_CORREDORES":null,"CORREDOR":null,"BENEFICIO_CONTEXTO":null,"LONGITUD_EXCLUSIVA_ANILLO_VIAL_M":null,"LONGITUD_EXCLUSIVA_CICLOVIAS_M":null,"LONGITUD_EXCLUSIVA_BOULEVARD_MACAJI_BELLAVISTA_M":null,"LONGITUD_EXCLUSIVA_QUEBRADA_LAS_ABRAS_M":null,"INDICADORES_PUNTUALES_RECALCULADOS":0.0},"geometry":{"type":"Point","coordinates":[-78.63035578754082,-1.680833989824836]}}]}