{"type": "FeatureCollection", "name": "Nodos Principales", "features": [{"type": "Feature", "properties": {"Id": 0, "Tipo": "CONCENTRACIÓN", "Jerarquía": "PRINCIPAL", "Propuesto": "SI", "Nombre": "Nueva Terminal Terrestre", "Num": 1, "Nodo_Ciclo": null, "Terminal": null}, "geometry": {"type": "Point", "coordinates": [-78.69384876745745, -1.631528987138449]}}, {"type": "Feature", "properties": {"Id": 0, "Tipo": "CONCENTRACIÓN", "Jerarquía": "PRINCIPAL", "Propuesto": "NO", "Nombre": "Parque de la Acacias", "Num": 2, "Nodo_Ciclo": null, "Terminal": null}, "geometry": {"type": "Point", "coordinates": [-78.67646866407259, -1.635880083893055]}}, {"type": "Feature", "properties": {"Id": 0, "Tipo": "CONCENTRACIÓN", "Jerarquía": "PRINCIPAL", "Propuesto": "SI", "Nombre": "Central de Transferencia", "Num": 3, "Nodo_Ciclo": null, "Terminal": null}, "geometry": {"type": "Point", "coordinates": [-78.68130254136409, -1.637224098242559]}}, {"type": "Feature", "properties": {"Id": 0, "Tipo": "ACCESO", "Jerarquía": "PRINCIPAL", "Propuesto": "NO", "Nombre": "Puerta Principal ESPOCH", "Num": 4, "Nodo_Ciclo": 1, "Terminal": null}, "geometry": {"type": "Point", "coordinates": [-78.67732314284021, -1.661166418338228]}}, {"type": "Feature", "properties": {"Id": 0, "Tipo": "CONCENTRACIÓN", "Jerarquía": "PRINCIPAL", "Propuesto": "NO", "Nombre": "Terminal Intercantonal", "Num": 5, "Nodo_Ciclo": 1, "Terminal": 1}, "geometry": {"type": "Point", "coordinates": [-78.6766212062475, -1.650934062567959]}}, {"type": "Feature", "properties": {"Id": 0, "Tipo": "CONCENTRACIÓN", "Jerarquía": "PRINCIPAL", "Propuesto": "NO", "Nombre": "Multiplaza", "Num": 6, "Nodo_Ciclo": 1, "Terminal": null}, "geometry": {"type": "Point", "coordinates": [-78.66389694851595, -1.656462974851745]}}, {"type": "Feature", "properties": {"Id": 0, "Tipo": "CONCENTRACIÓN", "Jerarquía": "PRINCIPAL", "Propuesto": "SI", "Nombre": "Parque Arqueológico Macaxi", "Num": 7, "Nodo_Ciclo": 1, "Terminal": null}, "geometry": {"type": "Point", "coordinates": [-78.66921637658, -1.665294080883134]}}, {"type": "Feature", "properties": {"Id": 0, "Tipo": "CONCENTRACIÓN", "Jerarquía": "PRINCIPAL", "Propuesto": "NO", "Nombre": "Hospital San Juan", "Num": 8, "Nodo_Ciclo": 1, "Terminal": null}, "geometry": {"type": "Point", "coordinates": [-78.65969315520731, -1.662366570585025]}}, {"type": "Feature", "properties": {"Id": 0, "Tipo": "CONCENTRACIÓN", "Jerarquía": "PRINCIPAL", "Propuesto": "SI", "Nombre": "Talleres del Ferrocarril", "Num": 9, "Nodo_Ciclo": 1, "Terminal": 1}, "geometry": {"type": "Point", "coordinates": [-78.6656891352689, -1.667163495471309]}}, {"type": "Feature", "properties": {"Id": 0, "Tipo": "CONCENTRACIÓN", "Jerarquía": "PRINCIPAL", "Propuesto": "NO", "Nombre": "Terminal Terrestre", "Num": 10, "Nodo_Ciclo": 1, "Terminal": 1}, "geometry": {"type": "Point", "coordinates": [-78.6631596050168, -1.662913855213651]}}, {"type": "Feature", "properties": {"Id": 0, "Tipo": "CONCENTRACIÓN", "Jerarquía": "PRINCIPAL", "Propuesto": "NO", "Nombre": "Estadio Olímpico", "Num": 11, "Nodo_Ciclo": 1, "Terminal": null}, "geometry": {"type": "Point", "coordinates": [-78.66015223849402, -1.666264198703989]}}, {"type": "Feature", "properties": {"Id": 0, "Tipo": "CONCENTRACIÓN", "Jerarquía": "PRINCIPAL", "Propuesto": "NO", "Nombre": "Parque Guayaquil", "Num": 12, "Nodo_Ciclo": 1, "Terminal": null}, "geometry": {"type": "Point", "coordinates": [-78.65885916416667, -1.666657981962646]}}, {"type": "Feature", "properties": {"Id": 0, "Tipo": "CONCENTRACIÓN", "Jerarquía": "PRINCIPAL", "Propuesto": "NO", "Nombre": "IESS", "Num": 13, "Nodo_Ciclo": 1, "Terminal": null}, "geometry": {"type": "Point", "coordinates": [-78.65973110306989, -1.668750448277715]}}, {"type": "Feature", "properties": {"Id": 0, "Tipo": "CONCENTRACIÓN", "Jerarquía": "PRINCIPAL", "Propuesto": "NO", "Nombre": "Mercado La Condamine", "Num": 14, "Nodo_Ciclo": 1, "Terminal": null}, "geometry": {"type": "Point", "coordinates": [-78.65636762522156, -1.673158799127043]}}, {"type": "Feature", "properties": {"Id": 0, "Tipo": "CONCENTRACIÓN", "Jerarquía": "PRINCIPAL", "Propuesto": "NO", "Nombre": "Plaza de Toros", "Num": 15, "Nodo_Ciclo": 1, "Terminal": null}, "geometry": {"type": "Point", "coordinates": [-78.6557298230977, -1.668098430091263]}}, {"type": "Feature", "properties": {"Id": 0, "Tipo": "CONCENTRACIÓN", "Jerarquía": "PRINCIPAL", "Propuesto": "SI", "Nombre": "Parque Barriga", "Num": 17, "Nodo_Ciclo": 1, "Terminal": null}, "geometry": {"type": "Point", "coordinates": [-78.65492433488905, -1.66697659215881]}}, {"type": "Feature", "properties": {"Id": 0, "Tipo": "TRANSICIÓN", "Jerarquía": "PRINCIPAL", "Propuesto": "SI", "Nombre": "Plaza Alfaro", "Num": 18, "Nodo_Ciclo": 1, "Terminal": 1}, "geometry": {"type": "Point", "coordinates": [-78.65420292883826, -1.669474891840573]}}, {"type": "Feature", "properties": {"Id": 0, "Tipo": "CONCENTRACIÓN", "Jerarquía": "PRINCIPAL", "Propuesto": "SI", "Nombre": "Parque 21 de Abril", "Num": 19, "Nodo_Ciclo": 1, "Terminal": null}, "geometry": {"type": "Point", "coordinates": [-78.65319713179514, -1.666448851832934]}}, {"type": "Feature", "properties": {"Id": 0, "Tipo": "CONCENTRACIÓN", "Jerarquía": "PRINCIPAL", "Propuesto": "NO", "Nombre": "Parque Maldonado", "Num": 20, "Nodo_Ciclo": null, "Terminal": null}, "geometry": {"type": "Point", "coordinates": [-78.64820896382693, -1.672732634399576]}}, {"type": "Feature", "properties": {"Id": 0, "Tipo": "CONCENTRACIÓN", "Jerarquía": "PRINCIPAL", "Propuesto": "NO", "Nombre": "GADMR", "Num": 21, "Nodo_Ciclo": null, "Terminal": null}, "geometry": {"type": "Point", "coordinates": [-78.64770068337648, -1.673253174131408]}}, {"type": "Feature", "properties": {"Id": 0, "Tipo": "CONCENTRACIÓN", "Jerarquía": "PRINCIPAL", "Propuesto": "NO", "Nombre": "Parque Sucre", "Num": 22, "Nodo_Ciclo": null, "Terminal": null}, "geometry": {"type": "Point", "coordinates": [-78.65040410541326, -1.671857272184629]}}, {"type": "Feature", "properties": {"Id": 0, "Tipo": "CONCENTRACIÓN", "Jerarquía": "PRINCIPAL", "Propuesto": "NO", "Nombre": "Mercado Mariano Borja - La Merced", "Num": 23, "Nodo_Ciclo": null, "Terminal": null}, "geometry": {"type": "Point", "coordinates": [-78.6501636548491, -1.673884395311226]}}, {"type": "Feature", "properties": {"Id": 0, "Tipo": "CONCENTRACIÓN", "Jerarquía": "PRINCIPAL", "Propuesto": "NO", "Nombre": "Mercado Santa Rosa", "Num": 24, "Nodo_Ciclo": null, "Terminal": null}, "geometry": {"type": "Point", "coordinates": [-78.65412488379614, -1.672653052738997]}}, {"type": "Feature", "properties": {"Id": 0, "Tipo": "CONCENTRACIÓN", "Jerarquía": "PRINCIPAL", "Propuesto": "NO", "Nombre": "Plaza Roja - La Concepción", "Num": 25, "Nodo_Ciclo": 1, "Terminal": null}, "geometry": {"type": "Point", "coordinates": [-78.64882248122312, -1.67107359756893]}}, {"type": "Feature", "properties": {"Id": 0, "Tipo": "CONCENTRACIÓN", "Jerarquía": "PRINCIPAL", "Propuesto": "NO", "Nombre": "Mercado El Prado", "Num": 26, "Nodo_Ciclo": 0, "Terminal": 1}, "geometry": {"type": "Point", "coordinates": [-78.64415537830602, -1.666194268401937]}}, {"type": "Feature", "properties": {"Id": 0, "Tipo": "CONCENTRACIÓN", "Jerarquía": "PRINCIPAL", "Propuesto": "NO", "Nombre": "Mercado General Dávalos", "Num": 27, "Nodo_Ciclo": 0, "Terminal": 1}, "geometry": {"type": "Point", "coordinates": [-78.64828856086544, -1.665702234177891]}}, {"type": "Feature", "properties": {"Id": 0, "Tipo": "CONCENTRACIÓN", "Jerarquía": "PRINCIPAL", "Propuesto": "NO", "Nombre": "Mercado San Alfonso", "Num": 28, "Nodo_Ciclo": 1, "Terminal": null}, "geometry": {"type": "Point", "coordinates": [-78.64628413698536, -1.671534725443383]}}, {"type": "Feature", "properties": {"Id": 0, "Tipo": "CONCENTRACIÓN", "Jerarquía": "PRINCIPAL", "Propuesto": "NO", "Nombre": "Paseo Shopping", "Num": 29, "Nodo_Ciclo": 1, "Terminal": null}, "geometry": {"type": "Point", "coordinates": [-78.64578950727775, -1.654233721744059]}}, {"type": "Feature", "properties": {"Id": 0, "Tipo": "CONCENTRACIÓN", "Jerarquía": "PRINCIPAL", "Propuesto": "NO", "Nombre": "UNACH", "Num": 30, "Nodo_Ciclo": 1, "Terminal": 1}, "geometry": {"type": "Point", "coordinates": [-78.64248873142829, -1.652923499054342]}}, {"type": "Feature", "properties": {"Id": 0, "Tipo": "CONCENTRACIÓN", "Jerarquía": "PRINCIPAL", "Propuesto": "NO", "Nombre": "CEMENTERIO GENERAL", "Num": 31, "Nodo_Ciclo": null, "Terminal": null}, "geometry": {"type": "Point", "coordinates": [-78.65734845828655, -1.679987508256611]}}, {"type": "Feature", "properties": {"Id": 0, "Tipo": "CONCENTRACIÓN", "Jerarquía": "PRINCIPAL", "Propuesto": "NO", "Nombre": "Parque La Libertad", "Num": 32, "Nodo_Ciclo": null, "Terminal": null}, "geometry": {"type": "Point", "coordinates": [-78.6460764324531, -1.674629604682012]}}, {"type": "Feature", "properties": {"Id": 0, "Tipo": "CONCENTRACIÓN", "Jerarquía": "PRINCIPAL", "Propuesto": "NO", "Nombre": "Mercado San Francisco", "Num": 33, "Nodo_Ciclo": null, "Terminal": null}, "geometry": {"type": "Point", "coordinates": [-78.64703322970908, -1.674851470471913]}}, {"type": "Feature", "properties": {"Id": 0, "Tipo": "CONCENTRACIÓN", "Jerarquía": "PRINCIPAL", "Propuesto": "NO", "Nombre": "Hospital General de Riobamba", "Num": 34, "Nodo_Ciclo": 1, "Terminal": null}, "geometry": {"type": "Point", "coordinates": [-78.64375474413983, -1.681970381866269]}}, {"type": "Feature", "properties": {"Id": 0, "Tipo": "CONCENTRACIÓN", "Jerarquía": "PRINCIPAL", "Propuesto": "NO", "Nombre": "Parque Abdón Calderon - La Dolorosa", "Num": 35, "Nodo_Ciclo": 1, "Terminal": null}, "geometry": {"type": "Point", "coordinates": [-78.64178628126224, -1.679399065590786]}}, {"type": "Feature", "properties": {"Id": 0, "Tipo": "CONCENTRACIÓN", "Jerarquía": "PRINCIPAL", "Propuesto": "NO", "Nombre": "UNACH - La Dolorosa", "Num": 36, "Nodo_Ciclo": 1, "Terminal": 1}, "geometry": {"type": "Point", "coordinates": [-78.6405872168939, -1.681140900637643]}}, {"type": "Feature", "properties": {"Id": 0, "Tipo": "CONCENTRACIÓN", "Jerarquía": "PRINCIPAL", "Propuesto": "SI", "Nombre": "Parque de La Madre", "Num": 37, "Nodo_Ciclo": null, "Terminal": null}, "geometry": {"type": "Point", "coordinates": [-78.6386804154136, -1.674193436932309]}}, {"type": "Feature", "properties": {"Id": 0, "Tipo": "CONCENTRACIÓN", "Jerarquía": "PRINCIPAL", "Propuesto": "NO", "Nombre": "ITS Carlos Cisneros", "Num": 38, "Nodo_Ciclo": 1, "Terminal": null}, "geometry": {"type": "Point", "coordinates": [-78.6345512388391, -1.67563803982914]}}, {"type": "Feature", "properties": {"Id": 0, "Tipo": "CONCENTRACIÓN", "Jerarquía": "PRINCIPAL", "Propuesto": "NO", "Nombre": "Polideportivo", "Num": 39, "Nodo_Ciclo": null, "Terminal": null}, "geometry": {"type": "Point", "coordinates": [-78.64146942176073, -1.68818012600553]}}, {"type": "Feature", "properties": {"Id": 0, "Tipo": "ACCESO", "Jerarquía": "PRINCIPAL", "Propuesto": "NO", "Nombre": "Salida a San Luis", "Num": 40, "Nodo_Ciclo": null, "Terminal": null}, "geometry": {"type": "Point", "coordinates": [-78.643967482654, -1.69035893576178]}}, {"type": "Feature", "properties": {"Id": 0, "Tipo": "ACCESO", "Jerarquía": "PRINCIPAL", "Propuesto": "NO", "Nombre": "Salida a Guano", "Num": 41, "Nodo_Ciclo": 1, "Terminal": null}, "geometry": {"type": "Point", "coordinates": [-78.64182402408586, -1.647247054761523]}}, {"type": "Feature", "properties": {"Id": 0, "Tipo": "ACCESO", "Jerarquía": "PRINCIPAL", "Propuesto": "NO", "Nombre": "Salida a Chambo", "Num": 42, "Nodo_Ciclo": null, "Terminal": null}, "geometry": {"type": "Point", "coordinates": [-78.62872201507241, -1.693944257903841]}}, {"type": "Feature", "properties": {"Id": 0, "Tipo": "ACCESO", "Jerarquía": "PRINCIPAL", "Propuesto": "NO", "Nombre": "Salida a Cacha", "Num": 43, "Nodo_Ciclo": null, "Terminal": null}, "geometry": {"type": "Point", "coordinates": [-78.67973941488074, -1.684990573246333]}}, {"type": "Feature", "properties": {"Id": 0, "Tipo": "ACCESO", "Jerarquía": "PRINCIPAL", "Propuesto": "NO", "Nombre": "Salida Guayaquil - Cuenca", "Num": 44, "Nodo_Ciclo": null, "Terminal": null}, "geometry": {"type": "Point", "coordinates": [-78.69626023212128, -1.655539002247349]}}, {"type": "Feature", "properties": {"Id": 0, "Tipo": "ACCESO", "Jerarquía": "PRINCIPAL", "Propuesto": "NO", "Nombre": "Salida a Quito", "Num": 45, "Nodo_Ciclo": null, "Terminal": null}, "geometry": {"type": "Point", "coordinates": [-78.68047232259083, -1.627182797007064]}}, {"type": "Feature", "properties": {"Id": 0, "Tipo": "CONCENTRACIÓN", "Jerarquía": "PRINCIPAL", "Propuesto": "NO", "Nombre": "Mercado Mayorista", "Num": 46, "Nodo_Ciclo": null, "Terminal": null}, "geometry": {"type": "Point", "coordinates": [-78.63282774890227, -1.686296836992432]}}, {"type": "Feature", "properties": {"Id": 0, "Tipo": "ACCESO", "Jerarquía": null, "Propuesto": null, "Nombre": "Salida a Penipe", "Num": 47, "Nodo_Ciclo": null, "Terminal": null}, "geometry": {"type": "Point", "coordinates": [-78.63335066388993, -1.6585647250825]}}]}