{"type": "FeatureCollection", "name": "Polígono de Intervención", "features": [{"type": "Feature", "properties": {"Id": 0, "coord": null}, "geometry": {"type": "Polygon", "coordinates": [[[-78.65401277382924, -1.664226508789588], [-78.65304323683198, -1.665092384574866], [-78.65142648461895, -1.666501300848153], [-78.65030722594868, -1.667506819369909], [-78.65171896763201, -1.669286431086759], [-78.65287393055162, -1.668255404603161], [-78.65333245006164, -1.668838368424826], [-78.65434906268317, -1.667968776066025], [-78.65389214480335, -1.667372374588806], [-78.65551499464324, -1.665973333373358], [-78.65401277382924, -1.664226508789588]]]}}, {"type": "Feature", "properties": {"Id": 0, "coord": 0.0}, "geometry": {"type": "Polygon", "coordinates": [[[-78.65061054271801, -1.672196663663526], [-78.64544810715753, -1.672193146561018], [-78.64544585814505, -1.675523672073582], [-78.65060830241444, -1.675527201579817], [-78.65061054271801, -1.672196663663526]]]}}]}