{"type": "FeatureCollection", "name": "CONECTORES_SECUNDARIOS", "features": [{"type": "Feature", "properties": {"OBJECTID": 1, "Id": 0, "NOMBRE": "AV. PEDRO VICENTE MALDONADO", "Shape_Length": 1530.6566469756126}, "geometry": {"type": "MultiLineString", "coordinates": [[[-78.67945551405565, -1.660703172389705], [-78.67792660637738, -1.661127226699775], [-78.67733135007002, -1.661292325367338], [-78.67678264205664, -1.661452332477064], [-78.67511916406372, -1.661924858405795], [-78.67469098957154, -1.662041008988351], [-78.67426122275535, -1.662161505636911], [-78.67422817048423, -1.662170707786287], [-78.67343461415751, -1.662391655440515], [-78.67271209127716, -1.662618216420437], [-78.67231401896709, -1.662745448348987], [-78.67186910577138, -1.662902323648058], [-78.6711230589864, -1.66318739595813], [-78.6707137511625, -1.663369501304702], [-78.66886956670493, -1.664189995351566], [-78.66883686431537, -1.664207279245192], [-78.66857114010242, -1.664347714990982], [-78.668270202669, -1.664517723724256], [-78.66807283159034, -1.664661691104925], [-78.66805563224764, -1.664674280117088], [-78.66765477333833, -1.664967694501916], [-78.66706172027018, -1.665436255278639], [-78.66676149208514, -1.665694301829166]]]}}, {"type": "Feature", "properties": {"OBJECTID": 2, "Id": 0, "NOMBRE": "AV. ATAHUALPA", "Shape_Length": 2463.598810785811}, "geometry": {"type": "MultiLineString", "coordinates": [[[-78.67629996908951, -1.689073380020225], [-78.67586893791865, -1.688681435245353], [-78.67585679058071, -1.688633284831956], [-78.6758497418905, -1.68860118521724], [-78.67530385394025, -1.688103198072824], [-78.67475295266043, -1.687593227459268], [-78.67422999081535, -1.68709489864176], [-78.67421190698606, -1.687085657245896], [-78.67403517422588, -1.686995340027912], [-78.67285391131948, -1.686403095545255], [-78.67230433700398, -1.686123256373172], [-78.67141808507014, -1.685673510775277], [-78.67074472955325, -1.685333699674994], [-78.67039072162802, -1.685156294734491], [-78.66977182649626, -1.684846459954771], [-78.66924700623024, -1.684581607137364], [-78.66880140403968, -1.684356732061664], [-78.66829886583893, -1.684101876071621], [-78.66802407447739, -1.683966942124813], [-78.66761313345094, -1.683757064184948], [-78.6673952843784, -1.683647124924849], [-78.66711059381072, -1.683504701463316], [-78.66687819591411, -1.683393915761524], [-78.66583425946651, -1.682993396652451], [-78.66573700357631, -1.682955164534743], [-78.6656380740276, -1.682921560530269], [-78.66553768812297, -1.682892659025161], [-78.66543606676996, -1.682868524466226], [-78.6653334398816, -1.682849202327771], [-78.66523002840061, -1.682834727225606], [-78.66512605776653, -1.682825129261178], [-78.6650217552239, -1.682820431306379], [-78.66501805337349, -1.682820360855948], [-78.66500927618279, -1.682820198412716], [-78.66492624324819, -1.682819759367878], [-78.66484331260872, -1.682823947857412], [-78.6647607402988, -1.682832749725595], [-78.66467877877349, -1.68284613906083], [-78.66459767960887, -1.682864073679091], [-78.66450099660632, -1.682878209113357], [-78.66440360078188, -1.682885945394768], [-78.66430591078701, -1.682887250486312], [-78.6642083461422, -1.682882116759325], [-78.66411132453351, -1.682870568221855], [-78.66401526182109, -1.682852653286927], [-78.66392057023714, -1.682828449290224], [-78.66382765659262, -1.682798059775907], [-78.6637369186828, -1.682761615396308], [-78.66359401426195, -1.6827009712818], [-78.66345390478868, -1.682634048868212], [-78.6633168622955, -1.682560977752934], [-78.6631831534108, -1.682481899278355], [-78.66317451001827, -1.682476508443022], [-78.66305760536267, -1.682433261805249], [-78.66288218590323, -1.682367318312475], [-78.66277918056153, -1.682284289473527], [-78.66274521944835, -1.682250827051444], [-78.66270332084962, -1.682200798902318], [-78.66267727982984, -1.6821615443716], [-78.6626570525458, -1.682126911603582], [-78.6626115319037, -1.682043745084427], [-78.66254361028356, -1.681917470302676], [-78.66248806055549, -1.681797651210458], [-78.66243991065615, -1.681684982385402], [-78.66241908463195, -1.68162508664632], [-78.66241907567903, -1.681625061324446], [-78.66240282165597, -1.68157831568101], [-78.6623286506042, -1.681399889879448], [-78.66222204400401, -1.681202903623896], [-78.66207278905537, -1.680925431035273], [-78.66192605367796, -1.680652641365105], [-78.66177823285402, -1.68037783549126], [-78.66128073670366, -1.679470857104632], [-78.66122888933707, -1.679376333804081], [-78.66077346685667, -1.678554220336921], [-78.66058689933044, -1.678296922278368], [-78.66026632102731, -1.677904333631812], [-78.65994409794578, -1.677503497159434], [-78.65964356028044, -1.677144750226129], [-78.65917747272391, -1.676637769947669]]]}}, {"type": "Feature", "properties": {"OBJECTID": 3, "Id": 0, "NOMBRE": "CALLE JUAN MONTALVO", "Shape_Length": 1797.6436965057017}, "geometry": {"type": "MultiLineString", "coordinates": [[[-78.65941370321983, -1.676367804876815], [-78.65897157259309, -1.675794997164071], [-78.65850540329974, -1.675189142589928], [-78.65836670670166, -1.675008885260245], [-78.65836167051145, -1.675002339924534], [-78.65805394565352, -1.67460750692743], [-78.6576052331845, -1.674029825157002], [-78.65759610333801, -1.674018070783787], [-78.6571595305854, -1.673484345549413], [-78.6571531511343, -1.673476545713055], [-78.65667754552867, -1.672911884461813], [-78.65616040988091, -1.672271614910435], [-78.65573997061844, -1.671725459555054], [-78.65524870052815, -1.671124186997214], [-78.6547781920965, -1.670565321037555], [-78.65428983207758, -1.669960968234222]], [[-78.65385408768847, -1.669414589409083], [-78.65333726385266, -1.668818498640799], [-78.65287209174264, -1.668250100664895], [-78.65239939575318, -1.667667271231878], [-78.6518833090542, -1.667055403601469], [-78.65142160489171, -1.666500709225079], [-78.65095888014905, -1.665920507756402], [-78.65046491501492, -1.665321915085999], [-78.64997593230406, -1.664702616278952], [-78.64955120744938, -1.664196908570183], [-78.64933478137783, -1.664371958140608], [-78.64936796596338, -1.663914787457486], [-78.64937097648651, -1.663892498545886], [-78.64937200020336, -1.663870029171291], [-78.64936949779883, -1.663834186019908], [-78.64936195782052, -1.663799065417236], [-78.64934953213331, -1.663765380769063], [-78.64933247324701, -1.663733814867177], [-78.64931112893728, -1.663705010843296], [-78.6492859314885, -1.663679553173125], [-78.64930803294142, -1.663646259768267], [-78.64932573311239, -1.663610400169163], [-78.64933874205619, -1.663572561601522], [-78.64934684794247, -1.663533362119394], [-78.64934830187929, -1.663447977744166]]]}}, {"type": "Feature", "properties": {"OBJECTID": 4, "Id": 0, "NOMBRE": "AV. GONZALO DÁVALOS", "Shape_Length": 878.4330554487681}, "geometry": {"type": "MultiLineString", "coordinates": [[[-78.65716841901515, -1.656259664384507], [-78.65689646237998, -1.657005829302661], [-78.65677849125761, -1.657344351509459], [-78.6566838443598, -1.657704117456845], [-78.65661059396857, -1.658078994185361], [-78.65656072778194, -1.658600436616051], [-78.6565103488855, -1.659101675719581], [-78.65647857129828, -1.659667277457386], [-78.6564653558357, -1.659925592688946], [-78.6564638834873, -1.660032379723921], [-78.65645539494862, -1.660138834768454], [-78.65643992939384, -1.660244492326545], [-78.65641755294409, -1.660348888742284], [-78.65638836315254, -1.660451567628915], [-78.65635248990375, -1.660552078966147], [-78.65631008822405, -1.660649981803365], [-78.65549098180618, -1.661881454796484], [-78.65494655474096, -1.662682657555141], [-78.65470864787098, -1.663002118911799], [-78.6543324993903, -1.663442754425322]]]}}, {"type": "Feature", "properties": {"OBJECTID": 5, "Id": 0, "NOMBRE": "AV. 9 DE OCTUBRE", "Shape_Length": 12763.20545166202}, "geometry": {"type": "MultiLineString", "coordinates": [[[-78.66802533456608, -1.667436333635934], [-78.66801101907666, -1.667467701522012], [-78.66786434771117, -1.667689481213132], [-78.66769870788575, -1.667872970437307], [-78.66747790357304, -1.668077441827702], [-78.66715704834175, -1.668355440162294], [-78.66679644503188, -1.668668346469571], [-78.666027971289, -1.669335171962368], [-78.66568988789275, -1.669628532634112], [-78.66552360318583, -1.669772823384249], [-78.6654223792026, -1.669860660364657], [-78.66542046206813, -1.669862312335859], [-78.66466492877692, -1.67051298126093], [-78.66448365525551, -1.670669096665522], [-78.66433897307019, -1.670792651477605], [-78.66393757499563, -1.671135440251327], [-78.66393510216221, -1.67113755347991], [-78.66351326849302, -1.671497793904008], [-78.66343086574264, -1.671570342570974], [-78.66305878895903, -1.671897936703051], [-78.66297133964066, -1.671974932199251], [-78.66292491635758, -1.672015807306288], [-78.66290813204203, -1.67203058061782], [-78.66269147534548, -1.672199333001508], [-78.66257043106141, -1.672400945232662], [-78.66221672538248, -1.672990076608591], [-78.66218422622485, -1.673044208744973], [-78.66175891347204, -1.673738118426792], [-78.66171234970778, -1.673814083413928], [-78.66120176002802, -1.674372000481278], [-78.66071953656518, -1.674908788342679], [-78.66035772545983, -1.675311973325974], [-78.6602297428767, -1.675454591802098], [-78.66020790746947, -1.675479100080124], [-78.66009974146885, -1.675600502770205], [-78.65990252924551, -1.675821843813769], [-78.65985270402119, -1.67587776465516], [-78.65984152120674, -1.675890486268705], [-78.659608366873, -1.676155714863899], [-78.6594157241055, -1.676374858235585], [-78.65936375348922, -1.676433980999168], [-78.65921579276495, -1.676591474309009], [-78.65919100181041, -1.676602462899954], [-78.65898284397771, -1.676866500912357], [-78.6589780623853, -1.676871727303877], [-78.65863806666412, -1.677243167383513], [-78.65863454056526, -1.677247162275986], [-78.65791199875204, -1.678066292218238], [-78.65790520899891, -1.678074158465404], [-78.65696130592748, -1.679215140373783], [-78.65648942937015, -1.679794640462227], [-78.65602980203326, -1.680358056162607], [-78.65555559488125, -1.680946330806531], [-78.65462168751344, -1.682095431916963], [-78.65415669323028, -1.682666365534349], [-78.65364220986828, -1.68329616794767], [-78.65318982950002, -1.683847766523332], [-78.65302804087193, -1.684045038884054], [-78.65288086128254, -1.684192047888878], [-78.65287749491009, -1.684195411061618], [-78.65270619308596, -1.684366508444717], [-78.65268023793041, -1.684392436010626], [-78.65244314608711, -1.684589879920807], [-78.65215014454922, -1.684792757415139], [-78.65214340528425, -1.684797424522244], [-78.6521145525053, -1.684815594376179], [-78.65193159200406, -1.684930801793833], [-78.65149074005811, -1.685147686375412], [-78.65148674784743, -1.685149315889533], [-78.65125605608762, -1.685243515947807], [-78.65100263153913, -1.685326787501163], [-78.65098375727915, -1.685332066309206], [-78.65078498089696, -1.685387650790256], [-78.65076117465944, -1.685393182138404], [-78.65062736948649, -1.685424269536322], [-78.65044684944391, -1.685459521677031], [-78.65024572582283, -1.685490407956556], [-78.65001037265151, -1.685511394052935], [-78.64987927211324, -1.685517936752327], [-78.64948737290202, -1.68553749236894], [-78.64932346539696, -1.685545672008266], [-78.64926566849103, -1.685548859646084], [-78.64885546198374, -1.685571485312001], [-78.64872063432529, -1.68557892011816], [-78.6487041636655, -1.68557993603543], [-78.64828868340143, -1.685605545444718], [-78.64826161789348, -1.685607560006585], [-78.64783404540495, -1.685639428969613], [-78.64781970856983, -1.68564015097445], [-78.64749289631237, -1.685656617796357], [-78.64747288547626, -1.685657625780254], [-78.64747208144928, -1.685657666384498], [-78.6474706719323, -1.685657736986959], [-78.6469652766557, -1.685684899995623], [-78.6469359542725, -1.685686475179045], [-78.6460317102589, -1.685735075458307], [-78.6459865642365, -1.685737501878986], [-78.64597711708336, -1.685738037275903], [-78.64568658124651, -1.685754480096401], [-78.64519962276015, -1.685782043769393], [-78.6451366969397, -1.685785055980627], [-78.6444249713004, -1.685819120025813], [-78.64441002006961, -1.685819835829739], [-78.64404124046655, -1.685837485677255], [-78.64402565888052, -1.685838743986941], [-78.64369233749247, -1.685865661804674], [-78.64351894395404, -1.685879604687656], [-78.64351770418607, -1.685879702612235], [-78.64346653671575, -1.685883819255468], [-78.6434517897447, -1.685885001740181], [-78.6434059775477, -1.685888684680169], [-78.6433343080604, -1.685894448655619], [-78.64313980306625, -1.685917862718797], [-78.64312877630023, -1.685920243857308], [-78.64300533888483, -1.685946897491217], [-78.6428891656594, -1.68597458324156], [-78.64287410588432, -1.685978172569161], [-78.64263951382229, -1.686058079126751], [-78.64256324590744, -1.686084056195142], [-78.64239415307931, -1.686158809541349], [-78.642208348838, -1.686256282339513], [-78.64218958399992, -1.686266248148855], [-78.64217674002452, -1.686273071802259], [-78.64212204579259, -1.686304115583285], [-78.64186026045508, -1.686452714565322], [-78.64176580657445, -1.686515953850015], [-78.64147298001876, -1.686712009445146], [-78.64147029194312, -1.686713810456463], [-78.64117429243157, -1.686912971649332], [-78.64098286657135, -1.687039562644926], [-78.64081152104865, -1.687152874623712], [-78.64080302268016, -1.687158495876356], [-78.64069125114928, -1.68723388288383], [-78.64050195650886, -1.687361560183823], [-78.64025456302316, -1.687530746487761], [-78.64015360720302, -1.687602204476159], [-78.64014331562657, -1.687609487706709], [-78.64001620227538, -1.68769737289182], [-78.63994966751079, -1.687743373300515], [-78.63977155579131, -1.687866516267859], [-78.6394664881247, -1.688077349204301], [-78.63946278225984, -1.688079910091324], [-78.63930742541076, -1.688187278755144], [-78.63929355493669, -1.688196865387301], [-78.63912259458445, -1.688311760223266], [-78.63880933836055, -1.688522289062884], [-78.63861016546942, -1.688660040036222], [-78.63859451847006, -1.688670861086733], [-78.63852226295765, -1.688720145642349], [-78.63814093327285, -1.688980245862149], [-78.63793897022563, -1.689118004066743], [-78.63757246320726, -1.689363264758918], [-78.63748221710216, -1.689420326468966], [-78.63748158871417, -1.689420723438094], [-78.63740684914438, -1.689467983598581], [-78.63738333263989, -1.689482137796835], [-78.63728847104989, -1.68953923450996], [-78.63728757483815, -1.689538254434432], [-78.63679520143414, -1.689818397749119], [-78.63664286198397, -1.689877370194153], [-78.63641535668037, -1.689965442701809], [-78.63615315919513, -1.690049855947756], [-78.63610222523602, -1.690062288842556], [-78.63578568334285, -1.690139552970579], [-78.6355013277983, -1.690181577124705], [-78.63510205296754, -1.69020258184132], [-78.63509096812562, -1.690202496841498], [-78.63505812951747, -1.690202236023849], [-78.63473532718919, -1.690199696131325], [-78.63455086068959, -1.690186460338672], [-78.63448847478976, -1.690172632076786], [-78.63422838825375, -1.690157134968403], [-78.63402321962518, -1.690148467615955], [-78.63401480051851, -1.69014797729483], [-78.63379558754973, -1.690135242105967], [-78.63368731512801, -1.690119163669102], [-78.63355005822639, -1.690098782139671], [-78.63342049641886, -1.690084824457955], [-78.633419850669, -1.690084723327663], [-78.63329480616213, -1.690065761501762], [-78.63329245127191, -1.690065404265584], [-78.63325455926972, -1.690059660201973], [-78.6331830179927, -1.690045132781752], [-78.6330482847925, -1.690006675372618], [-78.63288649631576, -1.689960498504272], [-78.63283031049941, -1.689944463149952], [-78.63274691600547, -1.689913114086231], [-78.63261475063108, -1.689857972952212], [-78.63215408671546, -1.689614897700985], [-78.63193224996802, -1.689454820342308], [-78.631921745214, -1.689444552175388], [-78.63188396021978, -1.689407619356742], [-78.63162141138808, -1.689150993953532], [-78.63154575170101, -1.6890770414488], [-78.63130363008507, -1.68876629116789], [-78.63121815238611, -1.688626852893365], [-78.63110219483829, -1.688437697251482], [-78.63101880432262, -1.688259324980977], [-78.63096389575942, -1.68814187748639], [-78.63085815368113, -1.687808731266427], [-78.63080074100078, -1.687693983527221], [-78.63074219675103, -1.687481821546864], [-78.63070633538331, -1.687351860620639], [-78.63056160465003, -1.686827354653708], [-78.63053283736195, -1.686723103447622], [-78.63042440883889, -1.686330166226607], [-78.63037983270462, -1.686168622552541], [-78.63033053608076, -1.685989980389635], [-78.63030264523688, -1.685888907658141], [-78.6302684832171, -1.685662529493873], [-78.63016716972534, -1.684991177664185], [-78.6301627815452, -1.684934757932791], [-78.6301549285284, -1.684833136665807], [-78.6301285559331, -1.684111449147341], [-78.63011356130457, -1.683651692073409], [-78.6300539307093, -1.682124506608988], [-78.6300111194072, -1.680917874652977], [-78.62995483001329, -1.679569772349577], [-78.62995023589599, -1.679454507327856], [-78.62994610197931, -1.67930472208351], [-78.62993687688197, -1.678970569079464], [-78.62993346481251, -1.678915725237927], [-78.62991842694905, -1.67867391676475], [-78.62990590511998, -1.678376949884179], [-78.6299040360247, -1.678273849879436], [-78.62990205807944, -1.678164908444679], [-78.62990414959613, -1.677952843514529], [-78.6299057046358, -1.677890846483637], [-78.62991187582926, -1.677644706867691], [-78.62991314873862, -1.677593945537745], [-78.62991505577227, -1.677517870883703], [-78.62991653458275, -1.677481865815158], [-78.62992402977775, -1.67737748910412], [-78.6299348680203, -1.677273410249693], [-78.62994946489023, -1.677166168549248], [-78.62996737760322, -1.677059436193806], [-78.62999380892653, -1.676930156250172], [-78.63002535994596, -1.6768020459188], [-78.63005570714556, -1.676697908566086], [-78.63005848893732, -1.676688366287703], [-78.63009661853846, -1.676576284592444], [-78.63013802209534, -1.676465180428896], [-78.63013876372489, -1.676463234232984], [-78.6301390628858, -1.676462460819778], [-78.63016648073972, -1.676391927686046], [-78.63017941023635, -1.676358666476393], [-78.63022718235253, -1.676241050797457], [-78.63027679770403, -1.676124206612351], [-78.63030796709602, -1.676054894743481], [-78.63034094370873, -1.675986431165544], [-78.63036712615843, -1.675936255177714], [-78.63039518208343, -1.675887111063803], [-78.63041088839037, -1.675861873937654], [-78.63041802377812, -1.675850406127545], [-78.63042479194667, -1.675839536282425], [-78.63045619067195, -1.675793138806885], [-78.6305341271196, -1.67568745935406], [-78.6306201487433, -1.675580507934139], [-78.63068833792617, -1.675502441182111], [-78.63075077137559, -1.675430702269142], [-78.6307983065697, -1.675368850656784], [-78.63080387333926, -1.67536129230593], [-78.63088660283401, -1.67524900986922], [-78.63089458723137, -1.675238174038128], [-78.63092472860262, -1.675202759752108], [-78.63099972061276, -1.67512680833144], [-78.63121259189636, -1.674935863686297], [-78.63121397044986, -1.67493462876464], [-78.63138911712282, -1.67477752439609], [-78.6315110603581, -1.674668142407067], [-78.63185711446914, -1.674401916107059], [-78.63190736510592, -1.674363258446504], [-78.63232449361962, -1.674045062701568], [-78.63235998673686, -1.674018787415646], [-78.63250654002213, -1.673910302016014], [-78.63253273211986, -1.673890911631825], [-78.63255135843642, -1.673877117430561], [-78.63266650138276, -1.673791845158338], [-78.63282366371975, -1.673667363663457], [-78.63287154737576, -1.673629436149653], [-78.63291620941315, -1.67359406198631], [-78.63313962792351, -1.673421230090557], [-78.63319842995199, -1.673376788404951], [-78.63350253515812, -1.67314695378947], [-78.63353484340861, -1.673122533990479], [-78.63364430969095, -1.673039801969674], [-78.63381486618717, -1.672910899902189], [-78.63398224534903, -1.672785068259963], [-78.63400766636747, -1.672765956197762], [-78.6340500002631, -1.672734130739039], [-78.63413811967577, -1.672667886957581], [-78.63426363514773, -1.672573528735023], [-78.63451040963619, -1.672385861958214], [-78.63471579652756, -1.672229671005325], [-78.63485179482964, -1.672130168350541], [-78.63492413155333, -1.672077245795561], [-78.63500745495102, -1.672016282368814], [-78.63515367569367, -1.671909303730919], [-78.63529105237622, -1.671817691419033], [-78.63538169077941, -1.671757245736043], [-78.6354734511383, -1.671696050218887], [-78.63555144595307, -1.671644039305788], [-78.63560413292943, -1.671608905181303], [-78.63573935703135, -1.67151751977201], [-78.63583803266742, -1.671450832956412], [-78.63596883674117, -1.671371838007302], [-78.63597162973123, -1.671370152813411], [-78.63601211775999, -1.671344213315928], [-78.63638224286905, -1.671093480247341], [-78.63653648721862, -1.670984844134711], [-78.63666654225204, -1.67088769682636], [-78.63670278542976, -1.67086062492075], [-78.63686527907046, -1.670731412153897], [-78.6369495845, -1.670658206560797], [-78.637029670844, -1.670580351349887], [-78.6370537891792, -1.6705553420226], [-78.63713870430955, -1.670467293366534], [-78.63722837392375, -1.670372594662123], [-78.63725969413427, -1.670339048996324], [-78.6372926561603, -1.670303457867321], [-78.63733572708709, -1.670253176212167], [-78.63737499921768, -1.670199839122176], [-78.63741488178394, -1.67013856427167], [-78.63743839987809, -1.670102424756894], [-78.6374976840824, -1.670002421004564], [-78.63754698280138, -1.669912297998703], [-78.63759380921232, -1.669820852225969], [-78.63764909267178, -1.669706350561168], [-78.63765586273031, -1.669692333048461], [-78.6377153871992, -1.669562608543627], [-78.63773370390686, -1.6695206937015], [-78.63777070662512, -1.66943601745793], [-78.63782389729857, -1.669308505371921], [-78.63783847347746, -1.66926964587304], [-78.63785085784767, -1.669230025307979], [-78.63788163955745, -1.669109533312225], [-78.63788333535521, -1.66910290126587], [-78.63791810061247, -1.6689413078088], [-78.63793207920399, -1.668875538764343], [-78.63796297683018, -1.668717355746879], [-78.63797436842745, -1.668659043879157], [-78.6379922235138, -1.668568096339646], [-78.6380202174069, -1.668426833571137], [-78.63803323381077, -1.668361142900517], [-78.63804210122923, -1.668316361932747], [-78.63805310416049, -1.668260799407498], [-78.63805922980323, -1.668229739815883], [-78.63806812382114, -1.668184494247493], [-78.63808130441387, -1.668117451459263], [-78.63810452638907, -1.667993647242685], [-78.63810848486591, -1.667972036744019], [-78.63813781904271, -1.667811851349407], [-78.63814999918047, -1.667745346099983], [-78.63815155992535, -1.667737461010797], [-78.63817671886649, -1.66761038952822], [-78.6382154409666, -1.66741480858695], [-78.63821746622283, -1.667405333103686], [-78.63825602011651, -1.667224979006398], [-78.63829260383035, -1.667053842822827], [-78.63833814577592, -1.666840795795714], [-78.63834001114952, -1.666832059549788], [-78.6383548310515, -1.666762739850376], [-78.63836083394627, -1.66673665454025], [-78.6383686093575, -1.66670286518396], [-78.63838564012377, -1.666628862066016], [-78.63839094955087, -1.666605781555989], [-78.6384013137846, -1.666567496356616], [-78.63840688703135, -1.66654690745454], [-78.63840780879093, -1.666544546542031], [-78.6384119139009, -1.6665340394458], [-78.63848049013708, -1.666394386685144], [-78.63854481973858, -1.666263379599563], [-78.638576431927, -1.66620178000315], [-78.63859355436999, -1.666168414117672], [-78.6386449273645, -1.666074864687299], [-78.63864538283195, -1.666074079702915], [-78.6387211559437, -1.665943573616153], [-78.63876465088862, -1.665871949952822], [-78.63879994906749, -1.665813825050563], [-78.6388733398735, -1.665694647090165], [-78.63887622585118, -1.665690299851349], [-78.638905196302, -1.665646671211789], [-78.63897786186888, -1.665543587216371], [-78.63907108796754, -1.665411335778885], [-78.63910953491622, -1.665358986375595], [-78.63915938041386, -1.665296649387856], [-78.63917024993367, -1.665284349763959], [-78.63921520857298, -1.665233484355494], [-78.63923051116102, -1.665218139236909], [-78.6392701638825, -1.665178377900033], [-78.6392860161112, -1.665164633437437], [-78.63932893825121, -1.665127418854539], [-78.63943862772156, -1.66504224150439], [-78.63945409431452, -1.665030233064348], [-78.63958259737646, -1.664937579178802], [-78.63964828308197, -1.664892707509959], [-78.63965250845737, -1.664889820858924], [-78.63971439671674, -1.664847544373719], [-78.6397193246673, -1.664844560038136], [-78.63973632258732, -1.664834269137968], [-78.63976658805716, -1.664818041699311], [-78.63980707174845, -1.664796338677778], [-78.639967737357, -1.664711690007436], [-78.64011946446747, -1.66463279684916], [-78.640150942645, -1.664615795265271], [-78.64021018849071, -1.664583798918396], [-78.64021921936272, -1.6645789239334], [-78.64060322112536, -1.664388592759005], [-78.64095490868026, -1.664214283032603], [-78.6410778207672, -1.664172260693531], [-78.6410821450754, -1.664170782512374], [-78.64112626610239, -1.664161021408706], [-78.64117350360442, -1.664154012976942], [-78.64118760067957, -1.66415378045626], [-78.64121800375705, -1.664153280107692], [-78.64125507801052, -1.664157644730343], [-78.64125676314714, -1.664158440429882], [-78.64126123562187, -1.664144914536943], [-78.64126934936633, -1.664120373836413], [-78.64127535082193, -1.664102230582316], [-78.64127845256104, -1.664083373330276], [-78.64127858217402, -1.664064262105502], [-78.64127573461401, -1.664045364245898], [-78.64127288966512, -1.664036361062354], [-78.64139198412975, -1.663987463133219], [-78.64152823884024, -1.663931520540375], [-78.64210175238976, -1.66364714250012], [-78.64210626084763, -1.663644907926102], [-78.64210898514264, -1.663643569735861], [-78.64229530284302, -1.66355310106584], [-78.64270506158543, -1.663354131866815], [-78.64286734885204, -1.663275331338991], [-78.64297631371096, -1.663220088811707], [-78.64299329615682, -1.663211480079496], [-78.64303303241945, -1.663191337124025], [-78.64344840580004, -1.663001930913989], [-78.64382648550463, -1.662829531900314], [-78.64389523650473, -1.662799489299561], [-78.6440691604598, -1.662723495740647], [-78.64424646426488, -1.662643302814993], [-78.64453661844153, -1.662512070659514], [-78.64537179444794, -1.662134333082089], [-78.6454864143627, -1.662087919623181], [-78.64550046583413, -1.662082228908139], [-78.6455800438032, -1.662050003458659], [-78.6457250526096, -1.661980247419255], [-78.64627494659314, -1.661715718861144], [-78.6464699547572, -1.661621911428413], [-78.64651541963272, -1.661595514371651], [-78.64658730066095, -1.661553781725129], [-78.64674316198676, -1.661475434659413], [-78.6468331027233, -1.661430225331274], [-78.64709672754945, -1.661297712125628], [-78.6471482337744, -1.66127100950427], [-78.6471549885566, -1.661267507535557], [-78.64720122937376, -1.66124353758934], [-78.6472547506145, -1.661215945170643], [-78.64799032723225, -1.660836734178095], [-78.64805384190367, -1.660771199203489], [-78.64811497050059, -1.660708124647741], [-78.64821451574595, -1.660876314052599], [-78.6483631242536, -1.661137472856486], [-78.64838675850518, -1.661179010919487], [-78.64874540835058, -1.661809397264236], [-78.64877724595624, -1.661868251455228], [-78.64911454082272, -1.662491779462784], [-78.64913150213415, -1.662524586364671], [-78.64913853312969, -1.662538181287343], [-78.6491412710743, -1.662544289904368], [-78.64922570472531, -1.662732706451038], [-78.64925488653182, -1.662825333901701], [-78.64928035134609, -1.662927710612375], [-78.64934633326638, -1.663335330394025], [-78.64936461270926, -1.663448259451123], [-78.6493768965954, -1.663448462204527], [-78.64938491637523, -1.663448597471522], [-78.64940474187514, -1.663452202728704], [-78.64942086020585, -1.66345801914306], [-78.64942436114674, -1.663459281651489], [-78.64942976882706, -1.663462341708142], [-78.64944253038225, -1.663469559753049], [-78.64945509703325, -1.663479791362404], [-78.64945873519785, -1.66348275257369], [-78.64947251522041, -1.663498479898837], [-78.64948305991169, -1.663515460751135], [-78.64949077504147, -1.663533912567184], [-78.6494909305828, -1.663534555468312], [-78.64949148878608, -1.663535764730409], [-78.64949730260163, -1.663557699027369], [-78.6494984544651, -1.663571138658205], [-78.6494969312553, -1.663572409605452], [-78.6494984544651, -1.663571138658205], [-78.64961188233019, -1.663476502734078], [-78.64975822463906, -1.663354406012997], [-78.64975840087828, -1.663354258878991], [-78.65012276706487, -1.663049532646499], [-78.65018251314793, -1.662999566495966], [-78.65026668278418, -1.662929173010483], [-78.65048243494904, -1.662748735491534], [-78.65081065316271, -1.662479427844182], [-78.6508428108552, -1.662453044525463], [-78.65085147391868, -1.662445497798979], [-78.6508602574802, -1.662437843645501], [-78.65121666515768, -1.662127291117775], [-78.6512720551397, -1.662081331413166], [-78.65183235520666, -1.661616393908205], [-78.65183721178245, -1.661612244214315], [-78.65196225620352, -1.66150543092367], [-78.65225883540442, -1.661252083799382], [-78.65231732238783, -1.661197988439145], [-78.652319668594, -1.661195818124138], [-78.652405979096, -1.661116000387518], [-78.65246790848653, -1.661054162185426], [-78.65250023210153, -1.66102188605371], [-78.65258840154905, -1.660923476039003], [-78.65266846568596, -1.660825839147386], [-78.6527471361895, -1.660722430593321], [-78.65281601529102, -1.660620553381474], [-78.65281885885796, -1.660616347034814], [-78.65282448549064, -1.660607440706495], [-78.65288990090312, -1.660503925883235], [-78.65296573770316, -1.66035599472599], [-78.65303550556378, -1.660205067802488], [-78.6530990865127, -1.660051395371144], [-78.65315637424075, -1.659895240359869], [-78.65317950323507, -1.659819277405489], [-78.65329816734155, -1.659429509968054], [-78.6534450435805, -1.658947089372922], [-78.65348280935147, -1.658823044978978], [-78.65353148417077, -1.658666809976096], [-78.653568660837, -1.658563169077487], [-78.65358672823777, -1.658512804737843], [-78.65364844241694, -1.658361303947764], [-78.65371651139527, -1.658212589501841], [-78.65378685015084, -1.658074704493578], [-78.65379081807947, -1.658066929734683], [-78.65387122292992, -1.657924583914618], [-78.65395758011499, -1.657785814918513], [-78.65404973303448, -1.657650876570958], [-78.65414751522111, -1.65752001093348], [-78.6541587506315, -1.657506632137669], [-78.65419325386716, -1.657465544827112], [-78.65419176778602, -1.657464280220569], [-78.65421831269785, -1.657435706001093], [-78.6542317038081, -1.65742096931128], [-78.65431793739549, -1.6573260811043], [-78.65442231943177, -1.657221034097148], [-78.65453125105265, -1.657120778066249], [-78.6546445209345, -1.657025506207029], [-78.65465025087633, -1.657021145995351], [-78.65475500457373, -1.656941459119018], [-78.6548354189759, -1.656885511100097], [-78.6548784151999, -1.656857682332392], [-78.65488242627833, -1.656855215679226], [-78.65499521113928, -1.656785836271959], [-78.65500550831365, -1.65677967719012], [-78.65507033995647, -1.656742896273102], [-78.65513601513211, -1.656707610605275], [-78.65520246554, -1.656673846320253], [-78.655269660611, -1.656641626884706], [-78.65533757697493, -1.656610964926398], [-78.65540617239874, -1.656581872146607], [-78.65547540373821, -1.656554371093178], [-78.6555452557185, -1.65652846536386], [-78.65561568429708, -1.656504177505421], [-78.65568662298274, -1.656481522806206], [-78.65575805649529, -1.65646050938384], [-78.65582997764339, -1.656441141749759], [-78.65585843293691, -1.656434177153754], [-78.65590231903751, -1.656423435191279], [-78.65597501957927, -1.656407402291322], [-78.65606589021226, -1.656389553264472], [-78.65612144417443, -1.656380387234375], [-78.65616865008336, -1.656373707104955], [-78.65626894236917, -1.656360138698974], [-78.65628653721383, -1.656357847308237], [-78.65652893620843, -1.656327057613905], [-78.65668635937206, -1.65630706130401], [-78.65681544958875, -1.656292349272697], [-78.65707967939007, -1.656267310271403], [-78.6571512643804, -1.656261908399629], [-78.65715996152119, -1.656261252527981], [-78.65725846174976, -1.656253818027211], [-78.65727647820687, -1.656254326702139], [-78.6574623808945, -1.656259575752336], [-78.65766457546798, -1.65627899391854], [-78.65783162384959, -1.656308022786138], [-78.6581273780892, -1.656397303918531], [-78.65828400126293, -1.656463535680979], [-78.65832265718511, -1.656479881047659], [-78.65840775174247, -1.656525662309794], [-78.65843778965774, -1.656541823864499], [-78.65875709365109, -1.656735189289964], [-78.65893094349498, -1.656849612943553], [-78.65912729441176, -1.65697884681853], [-78.65916529758425, -1.657004134341996], [-78.65940842493035, -1.657165916000487], [-78.65980168633418, -1.657431530360498], [-78.65984213930493, -1.657461303573961], [-78.65986443815903, -1.65747771808778], [-78.6599939210767, -1.657575609759915], [-78.66002231861302, -1.657598776016928], [-78.66011972891279, -1.657678238369699], [-78.66020658430519, -1.657754598418752], [-78.66024169384389, -1.657785468123808], [-78.66035964537173, -1.65789714605026], [-78.660473426466, -1.65801312461668], [-78.66050734818545, -1.658050352316137], [-78.66058288190445, -1.658133246349086], [-78.6606878609647, -1.658257346546928], [-78.6607882228119, -1.658385255097437], [-78.66079852794833, -1.658399115213024], [-78.6608883638067, -1.658519943144109], [-78.66101335752387, -1.658709293777781], [-78.66104664811051, -1.658766099752089], [-78.66104684175667, -1.658766428122222], [-78.66109067248377, -1.658841216584432], [-78.66133083615529, -1.659207712670271], [-78.66133348586752, -1.659211758361074], [-78.66184920281549, -1.660028662976049], [-78.66187264335812, -1.660065792383907], [-78.6627589752008, -1.661405794529139], [-78.66273282208212, -1.661424176294394], [-78.66271023824673, -1.66144684892196], [-78.66269191170379, -1.661473122600314], [-78.66267839314857, -1.661502200686408], [-78.6626701004284, -1.661533201406199], [-78.66266728168712, -1.66156517950585], [-78.6626700252037, -1.661597162422174], [-78.66267824498333, -1.661628181000239], [-78.6626916951036, -1.661657292109549], [-78.66270995979804, -1.661683608463211], [-78.66271729917297, -1.661691011657027], [-78.6627324902405, -1.661706337532237], [-78.66275860005578, -1.661724779732258], [-78.66276663358379, -1.661728561556201], [-78.66278749759444, -1.661738382700106], [-78.66281830122085, -1.661746726848484], [-78.66285007789531, -1.661749563378654], [-78.66288186115376, -1.66174680255034], [-78.66291268432367, -1.661738531800647], [-78.66293357317653, -1.661728760384279], [-78.66294161378012, -1.661724999512356], [-78.66295057543113, -1.661718699588877], [-78.66295706904549, -1.661728788367146], [-78.66318485936888, -1.662082678195518], [-78.66347474257536, -1.662533036678857], [-78.66382869294608, -1.663090733763812], [-78.66398687418503, -1.663339967241412], [-78.66407280617645, -1.663468475595899], [-78.66420799153838, -1.663670642844185], [-78.66423156726994, -1.663705894965558], [-78.6642384020843, -1.663716118855764], [-78.66478418561279, -1.664576860058029], [-78.66482151583007, -1.664629927740184], [-78.66483638567996, -1.664651065788936], [-78.66491404240563, -1.664756053981095], [-78.66507289403724, -1.664970815699857], [-78.66526299396844, -1.665132970274564], [-78.66527917679073, -1.665146775997615], [-78.6652793266973, -1.665146869285127], [-78.66537921548974, -1.665209161549363], [-78.66547184930857, -1.665259498313339], [-78.66557405980963, -1.66529391765761], [-78.66556527197682, -1.665321932030269], [-78.66555982766076, -1.665342284731019], [-78.66555797669554, -1.665363279013905], [-78.66555977822323, -1.665384275843482], [-78.66556517460046, -1.665404641468855], [-78.66557400217062, -1.665423753764288], [-78.66558121498188, -1.665434143544905], [-78.66558599751671, -1.665441032067638], [-78.66560078845926, -1.665455953441033], [-78.66561792997548, -1.665468063561336], [-78.66563690148415, -1.665476993892317], [-78.6656571265954, -1.665482472555917], [-78.66567798747299, -1.665484333388947], [-78.66569885447066, -1.665482522306376], [-78.66571909242671, -1.665477091884935], [-78.66573808311512, -1.665468206813832], [-78.66574468301177, -1.665463569184655], [-78.66576844466556, -1.6654691117256], [-78.66586716939872, -1.665490888526852], [-78.66597844079469, -1.665524819687758], [-78.66628845318317, -1.665619358459434], [-78.66662831184455, -1.665722998711603], [-78.6666285094007, -1.665723058609083], [-78.66662871588747, -1.665725452567141], [-78.66663438862636, -1.665746859004976], [-78.66664366870157, -1.665766949946957], [-78.66665627566414, -1.665785113975282], [-78.66667182479405, -1.66580079740189], [-78.66668984324193, -1.66581352779084], [-78.66670978799499, -1.665822913979809], [-78.6667310485401, -1.66582867320236], [-78.6667529765066, -1.665830632027204], [-78.66677491171812, -1.665828725485397], [-78.66677685625928, -1.665828204404634], [-78.66679618486411, -1.665823016960837], [-78.66681614806556, -1.665813678339439], [-78.66683419822978, -1.665800990940869], [-78.66684702318598, -1.665788115616026], [-78.6668471917901, -1.665788350849162], [-78.66688474550602, -1.665840881910203], [-78.66711381118449, -1.666161299537126], [-78.66798399172022, -1.667378504341658], [-78.66802533456608, -1.667436333635934]]]}}, {"type": "Feature", "properties": {"OBJECTID": 6, "Id": 0, "NOMBRE": "CALLE BARÓN DE CARONDELET", "Shape_Length": 670.8484039157369}, "geometry": {"type": "MultiLineString", "coordinates": [[[-78.65469241294586, -1.676454025796338], [-78.65468576888507, -1.676445922805987]], [[-78.65468576888507, -1.676445922805987], [-78.65413481777772, -1.676913072997855], [-78.6535983781226, -1.677376022293538], [-78.65358733912076, -1.677385647908122], [-78.65302246331304, -1.677878203222484], [-78.65300310386627, -1.677894933853297], [-78.65300289487108, -1.677894675068086]], [[-78.65468576888507, -1.676445922805987], [-78.65468911213983, -1.676443088396634], [-78.65470808902408, -1.676426998156073], [-78.65526620616066, -1.675960941709244], [-78.65528148166544, -1.675948186226099], [-78.65583506965599, -1.675489442255326], [-78.65583694805655, -1.67548788608613], [-78.65584755756052, -1.67547909426824], [-78.65648996545161, -1.674960130705869], [-78.65704069781299, -1.674489649617991], [-78.6576052331845, -1.674029825157002], [-78.65761955549291, -1.67401789107356], [-78.6576182161736, -1.674016338261022]]]}}, {"type": "Feature", "properties": {"OBJECTID": 7, "Id": 0, "NOMBRE": "CALLE CRISTOBAL COLÓN", "Shape_Length": 334.219524049302}, "geometry": {"type": "MultiLineString", "coordinates": [[[-78.64602235110995, -1.66825884524243], [-78.64652816700568, -1.668839771033653], [-78.64651142893895, -1.668855046724088], [-78.64699223355811, -1.669417398903883], [-78.6474634363199, -1.669982959679538], [-78.64794121564722, -1.670544779935001], [-78.64794556897128, -1.670549899772776]]]}}, {"type": "Feature", "properties": {"OBJECTID": 8, "Id": 0, "NOMBRE": "AV. CARLOS ZAMBRANO", "Shape_Length": 91.30203170048668}, "geometry": {"type": "MultiLineString", "coordinates": [[[-78.65830237270556, -1.664459568418215], [-78.6586611784654, -1.664847083047919], [-78.65887294099986, -1.665052057976141]]]}}, {"type": "Feature", "properties": {"OBJECTID": 9, "Id": 0, "NOMBRE": "AV. 11 DE NOVIEMBRE", "Shape_Length": 2303.7240995264765}, "geometry": {"type": "MultiLineString", "coordinates": [[[-78.67511916406372, -1.661924858405795], [-78.67505745347101, -1.661759470814264], [-78.6750530829295, -1.661753568101616], [-78.67486813448521, -1.661503800307856], [-78.67475900907662, -1.661356429758775], [-78.67465381653537, -1.661214371122375], [-78.67441569967497, -1.660892801008798], [-78.67441483866142, -1.660891638381266], [-78.67419418337282, -1.660593650224989], [-78.67395070307302, -1.660268022298583], [-78.67372373176558, -1.659967831051724], [-78.67349356804559, -1.659660623062575], [-78.67323902650205, -1.659320876662881], [-78.6724950551746, -1.658340908180124], [-78.67190567006315, -1.657537333065922], [-78.67152362710648, -1.657030261911425], [-78.67144059484924, -1.656929121183689], [-78.67060981888503, -1.655957777888168], [-78.67031679131641, -1.655631731849385], [-78.67031427485333, -1.655628931982724], [-78.67023909586332, -1.655545281675816], [-78.66994966266189, -1.655216019152183], [-78.66965103880064, -1.654878494397027], [-78.66930180123038, -1.654460969870366], [-78.66878548062951, -1.653860699062341], [-78.66825198115448, -1.653245863357462], [-78.66761773613614, -1.652501677263126], [-78.66712390477319, -1.651941033344099], [-78.66712129329035, -1.651938068851403], [-78.66702043768089, -1.651823567602106], [-78.66664883929916, -1.651390955774396], [-78.66626120475934, -1.650917458497527], [-78.665987149734, -1.650597371743499], [-78.66577433595685, -1.650355919589807], [-78.66575339566114, -1.650332162040598], [-78.66548559998887, -1.650028328972857], [-78.6651978573427, -1.649715602678952], [-78.66518893600909, -1.649705907017433], [-78.66491944159156, -1.64940456796534], [-78.66463927948145, -1.649103673800653], [-78.66462904097266, -1.649092678489753], [-78.66418644590543, -1.648643869682663], [-78.6636844301815, -1.648224812793526], [-78.66366199918038, -1.648206088630365], [-78.66334815817083, -1.647907901279019], [-78.66333306291708, -1.647893558276213], [-78.66323679354936, -1.647802090520085], [-78.66310508794945, -1.647652416034546], [-78.66173402009171, -1.646094290609085]]]}}, {"type": "Feature", "properties": {"OBJECTID": 10, "Id": 0, "NOMBRE": "AV. SERGIO QUIROLA", "Shape_Length": 971.9643497441115}, "geometry": {"type": "MultiLineString", "coordinates": [[[-78.66529123779848, -1.665136510442645], [-78.66532046567211, -1.665108424622998], [-78.66580332352045, -1.664644435057234], [-78.66639769019064, -1.664064250524541], [-78.66676384168186, -1.663647105789361], [-78.66693879248659, -1.663338173484248], [-78.66708590293179, -1.663013256505526], [-78.6671766551233, -1.662703279217662], [-78.66733768575264, -1.662144775564071], [-78.66734785732297, -1.662109497563569], [-78.6674073146457, -1.661916999081485], [-78.66742827984392, -1.661849121371739], [-78.66758295246885, -1.661335253422319], [-78.66767213879372, -1.66104640614547], [-78.66784532579263, -1.660511197350168], [-78.66793309667091, -1.660260993921178], [-78.66829258007547, -1.659175425367107], [-78.66854025748222, -1.658579816965187], [-78.6686900030378, -1.658122802993084], [-78.66885007542496, -1.65762879979641], [-78.66884907944709, -1.657329957469608]]]}}, {"type": "Feature", "properties": {"OBJECTID": 11, "Id": 0, "NOMBRE": "AV. CARLOS ZAMBRANO", "Shape_Length": 313.7909386759755}, "geometry": {"type": "MultiLineString", "coordinates": [[[-78.65994733076299, -1.667712776706434], [-78.65994360984395, -1.667703032929825], [-78.65967627948037, -1.667002957994506], [-78.65967772844479, -1.667006752766285], [-78.65944749883, -1.666403836307166], [-78.65944543821678, -1.666398441690583], [-78.65917451299995, -1.665688954413732], [-78.65911916978914, -1.665548940910847], [-78.65911875780112, -1.665547899954646], [-78.65897594985445, -1.665186608816825], [-78.65890335537476, -1.665091785619156]]]}}, {"type": "Feature", "properties": {"OBJECTID": 12, "Id": 0, "NOMBRE": "AV. MIGUEL ANGEL LEON", "Shape_Length": 113.83245079243953}, "geometry": {"type": "MultiLineString", "coordinates": [[[-78.65538661778918, -1.66810857579133], [-78.65601493845074, -1.668920402753821]]]}}, {"type": "Feature", "properties": {"OBJECTID": 13, "Id": 0, "NOMBRE": "CALLE EPILCACHIMA", "Shape_Length": 494.2646910527545}, "geometry": {"type": "MultiLineString", "coordinates": [[[-78.66450836515583, -1.665959451018712], [-78.66447159764193, -1.665812330590285], [-78.66396775519604, -1.665023579534719], [-78.66341143317973, -1.664179242826469], [-78.6628318632414, -1.663291519213969], [-78.66213503362093, -1.662196592847443], [-78.66213333717666, -1.662193927739321]]]}}, {"type": "Feature", "properties": {"OBJECTID": 14, "Id": 0, "NOMBRE": "CALLE ANTONIO ANTE", "Shape_Length": 522.0869117805278}, "geometry": {"type": "MultiLineString", "coordinates": [[[-78.66886956670493, -1.664189995351566], [-78.66897656787734, -1.66421393144427], [-78.66921011431334, -1.664268973670658], [-78.6694177365179, -1.664307296831008], [-78.66958833599283, -1.664340315733148], [-78.66985819083358, -1.664392544563996], [-78.67001440494306, -1.664418665305571], [-78.67044010627312, -1.664487387091285], [-78.67053840531322, -1.664500955989354], [-78.67089229768732, -1.6645539762108], [-78.67097480417694, -1.664567105972242], [-78.67105057015117, -1.664579162838405], [-78.67109073012607, -1.664578107736272], [-78.67110770641668, -1.664573416412898], [-78.67114694905099, -1.66454955208395], [-78.6711530115447, -1.664545104513603], [-78.67122254138766, -1.664509806579931], [-78.67123205397034, -1.664501789705879], [-78.67124238451596, -1.664494873034856], [-78.67127144763919, -1.664484710769433], [-78.67130126507149, -1.664477072387834], [-78.67138702665069, -1.664469873843236], [-78.67139819278923, -1.664468936136039], [-78.67176031206138, -1.664438541039648], [-78.67232914621884, -1.664395690640825], [-78.67258438260382, -1.664179916149], [-78.672586411721, -1.664177751734432], [-78.67261273447897, -1.664149673940156], [-78.67267830204952, -1.664076732440017], [-78.67279792836388, -1.663945159209884], [-78.6728183046564, -1.663920632383489], [-78.67314226373942, -1.663555704899826]]]}}, {"type": "Feature", "properties": {"OBJECTID": 15, "Id": 0, "NOMBRE": "CALLE ABDON CALDERON", "Shape_Length": 114.22973469927472}, "geometry": {"type": "MultiLineString", "coordinates": [[[-78.67314226373942, -1.663555704899826], [-78.67303730519178, -1.663326966204959], [-78.67271209127716, -1.662618216420437]]]}}, {"type": "Feature", "properties": {"OBJECTID": 16, "Id": 0, "NOMBRE": "BULEVAR CALLE PURUHA", "Shape_Length": 240.9981861993415}, "geometry": {"type": "MultiLineString", "coordinates": [[[-78.64185187494706, -1.678849342319014], [-78.64140454072201, -1.678327636649376], [-78.6408953402859, -1.677694385158682], [-78.64046703923923, -1.677175105801954]]]}}, {"type": "Feature", "properties": {"OBJECTID": 17, "Id": 0, "NOMBRE": "AV. LEOPOLDO FREIRE", "Shape_Length": 435.5945318788421}, "geometry": {"type": "MultiLineString", "coordinates": [[[-78.64185187494706, -1.678849342319014], [-78.64126562490735, -1.67936382321446], [-78.6407378322705, -1.679847319245698], [-78.63923004656958, -1.681186808719286], [-78.63892535436763, -1.681462923201524]]]}}, {"type": "Feature", "properties": {"OBJECTID": 18, "Id": 0, "NOMBRE": "CALLE AMSTERDAM", "Shape_Length": 243.92331934300364}, "geometry": {"type": "MultiLineString", "coordinates": [[[-78.6404984756805, -1.682988462693092], [-78.63993643788302, -1.682425745835153], [-78.63973092890227, -1.682209978924977], [-78.63930617987229, -1.681739507056196], [-78.63922126584824, -1.681676935176559], [-78.63892535436763, -1.681462923201524]]]}}, {"type": "Feature", "properties": {"OBJECTID": 19, "Id": 0, "NOMBRE": "CALLE OLMEDO", "Shape_Length": 125.56847073467245}, "geometry": {"type": "MultiLineString", "coordinates": [[[-78.6404984756805, -1.682988462693092], [-78.64029141528971, -1.683361922575015], [-78.6402386728578, -1.683444806812662], [-78.63991231635444, -1.683957671487731]]]}}, {"type": "Feature", "properties": {"OBJECTID": 20, "Id": 0, "NOMBRE": "CALLE PARIS", "Shape_Length": 359.8520583894594}, "geometry": {"type": "MultiLineString", "coordinates": [[[-78.64218823033251, -1.686266939830865], [-78.64174490869198, -1.685829608038964], [-78.64123528832702, -1.685295463574356], [-78.64069484201083, -1.684766813981405], [-78.64011333312047, -1.684153126801532], [-78.63991231635444, -1.683957671487731]]]}}]}