{"type": "FeatureCollection", "name": "NODOS SECUNDARIOS ", "features": [{"type": "Feature", "properties": {"Id": 0, "TIPO_": "CONCENTRACION", "JERARQUIA": "SECUNDARIA", "PROPUESTO": null, "NOMBRE": "SAN MIGUEL DE TAPI", "Num": 1, "Nodo_cicl": null, "intersec": null}, "geometry": {"type": "Point", "coordinates": [-78.67191261001446, -1.644644373231337]}}, {"type": "Feature", "properties": {"Id": 0, "TIPO_": "LUGAR DE REFERENCIA", "JERARQUIA": "SECUNDARIA", "PROPUESTO": null, "NOMBRE": "PLAZA CULTURAL DEL MEDIO MUNDO", "Num": 2, "Nodo_cicl": null, "intersec": null}, "geometry": {"type": "Point", "coordinates": [-78.6877997827236, -1.634652411827365]}}, {"type": "Feature", "properties": {"Id": 0, "TIPO_": "CONCENTRACION", "JERARQUIA": "SECUNDARIA", "PROPUESTO": null, "NOMBRE": "UE FRANCISCANA", "Num": 3, "Nodo_cicl": null, "intersec": null}, "geometry": {"type": "Point", "coordinates": [-78.68770470339183, -1.635982465214731]}}, {"type": "Feature", "properties": {"Id": 0, "TIPO_": "LUGAR DE REFERENCIA", "JERARQUIA": "SECUNDARIA", "PROPUESTO": "SI", "NOMBRE": "CEMENTERIO PUBLICO", "Num": 4, "Nodo_cicl": null, "intersec": null}, "geometry": {"type": "Point", "coordinates": [-78.69264844415387, -1.636326095518878]}}, {"type": "Feature", "properties": {"Id": 0, "TIPO_": "CONCENTRACION", "JERARQUIA": "SECUNDARIA", "PROPUESTO": "SI", "NOMBRE": "HOSPITAL ANDINO", "Num": 5, "Nodo_cicl": null, "intersec": null}, "geometry": {"type": "Point", "coordinates": [-78.67945579750413, -1.644918518470958]}}, {"type": "Feature", "properties": {"Id": 0, "TIPO_": "CONCENTRACION", "JERARQUIA": "SECUNDARIA", "PROPUESTO": null, "NOMBRE": "SUBCENTRO DE SALUD LIZARZABURU", "Num": 6, "Nodo_cicl": null, "intersec": null}, "geometry": {"type": "Point", "coordinates": [-78.68550325682483, -1.647400028003801]}}, {"type": "Feature", "properties": {"Id": 0, "TIPO_": "INTERSECCION", "JERARQUIA": "SECUNDARIA", "PROPUESTO": null, "NOMBRE": "INTERSECCION DE LA AV PEDRO VICENTE MALDONADO Y JOSE DE PERALTA", "Num": 7, "Nodo_cicl": null, "intersec": 1}, "geometry": {"type": "Point", "coordinates": [-78.6814920195105, -1.660065567234254]}}, {"type": "Feature", "properties": {"Id": 0, "TIPO_": "CONCENTRACION", "JERARQUIA": "SECUNDARIA", "PROPUESTO": null, "NOMBRE": "PARQUE DE LA CIUDADELA LOS MAESTROS", "Num": 8, "Nodo_cicl": null, "intersec": null}, "geometry": {"type": "Point", "coordinates": [-78.68167956501615, -1.658690084047849]}}, {"type": "Feature", "properties": {"Id": 0, "TIPO_": "CONCENTRACION", "JERARQUIA": "SECUNDARIA", "PROPUESTO": null, "NOMBRE": "CIUDADELA LOS OLIVOS INGRESO SECUNDARIO A LA ESPOCH", "Num": 9, "Nodo_cicl": null, "intersec": null}, "geometry": {"type": "Point", "coordinates": [-78.6804208280971, -1.657211759902543]}}, {"type": "Feature", "properties": {"Id": 0, "TIPO_": "INTERSECCION", "JERARQUIA": "SECUNDARIA", "PROPUESTO": null, "NOMBRE": "AV PEDRO VICENTE MALDONADO Y 11 DE NOVIEMBRE", "Num": 10, "Nodo_cicl": null, "intersec": 1}, "geometry": {"type": "Point", "coordinates": [-78.67508361515509, -1.661936562537944]}}, {"type": "Feature", "properties": {"Id": 0, "TIPO_": "ACCESO", "JERARQUIA": "SECUNDARIA", "PROPUESTO": null, "NOMBRE": "INGRESO CANONIGO RAMOS ESPOCH", "Num": 11, "Nodo_cicl": 1, "intersec": 1}, "geometry": {"type": "Point", "coordinates": [-78.67415585256276, -1.653308677063827]}}, {"type": "Feature", "properties": {"Id": 0, "TIPO_": "INTERSECCION", "JERARQUIA": "SECUNDARIA", "PROPUESTO": null, "NOMBRE": "AV 11 DE NOVIEMBRE Y MILTON REYES", "Num": 12, "Nodo_cicl": null, "intersec": 1}, "geometry": {"type": "Point", "coordinates": [-78.6725181010263, -1.658351002109144]}}, {"type": "Feature", "properties": {"Id": 0, "TIPO_": "CONCENTRACION", "JERARQUIA": "SECUNDARIA", "PROPUESTO": null, "NOMBRE": "PARQUE SESQUICENTENARIO", "Num": 13, "Nodo_cicl": 1, "intersec": null}, "geometry": {"type": "Point", "coordinates": [-78.66909417187956, -1.657228390183666]}}, {"type": "Feature", "properties": {"Id": 0, "TIPO_": "CONCENTRACION", "JERARQUIA": "SECUNDARIA", "PROPUESTO": null, "NOMBRE": "INGRESO DE LA UNIANDES", "Num": 14, "Nodo_cicl": null, "intersec": null}, "geometry": {"type": "Point", "coordinates": [-78.66996129881268, -1.649414986446027]}}, {"type": "Feature", "properties": {"Id": 0, "TIPO_": "INTERSECCION", "JERARQUIA": "SECUNDARIA", "PROPUESTO": null, "NOMBRE": "REDONDEL EL LIBRO", "Num": 15, "Nodo_cicl": 1, "intersec": 1}, "geometry": {"type": "Point", "coordinates": [-78.66568107457367, -1.665242997347578]}}, {"type": "Feature", "properties": {"Id": 0, "TIPO_": "INTERSECCION", "JERARQUIA": "SECUNDARIA", "PROPUESTO": null, "NOMBRE": "GONZALO DAVALOS Y URUGUAY", "Num": 16, "Nodo_cicl": null, "intersec": null}, "geometry": {"type": "Point", "coordinates": [-78.65384001196101, -1.664037424771583]}}, {"type": "Feature", "properties": {"Id": 0, "TIPO_": "INTERSECCION", "JERARQUIA": "SECUNDARIA", "PROPUESTO": "SI", "NOMBRE": "AV. LA PRENSA Y AV BICENTENARIO", "Num": 17, "Nodo_cicl": 1, "intersec": 1}, "geometry": {"type": "Point", "coordinates": [-78.6571494152948, -1.656323105395922]}}, {"type": "Feature", "properties": {"Id": 0, "TIPO_": "CONCENTRACION", "JERARQUIA": "SECUNDARIA", "PROPUESTO": null, "NOMBRE": "INGRESO A LA BRIGADA BLINDADA GALAPAGOS", "Num": 18, "Nodo_cicl": 1, "intersec": 1}, "geometry": {"type": "Point", "coordinates": [-78.65414712798882, -1.657397606141251]}}, {"type": "Feature", "properties": {"Id": 0, "TIPO_": "CONCENTRACION", "JERARQUIA": "SECUNDARIA", "PROPUESTO": null, "NOMBRE": "INGRESO A LA UE COMBATIENTES DE TAPI", "Num": 19, "Nodo_cicl": 1, "intersec": 1}, "geometry": {"type": "Point", "coordinates": [-78.650133688613, -1.662936624527483]}}, {"type": "Feature", "properties": {"Id": 0, "TIPO_": "INTERSECCION", "JERARQUIA": "SECUNDARIA", "PROPUESTO": "SI", "NOMBRE": "AV UNIDAD NACIONAL Y AV CARLOS ZAMBRANO", "Num": 20, "Nodo_cicl": 1, "intersec": null}, "geometry": {"type": "Point", "coordinates": [-78.6600049834327, -1.667898654676103]}}, {"type": "Feature", "properties": {"Id": 0, "TIPO_": "CONCENTRACION", "JERARQUIA": "SECUNDARIA", "PROPUESTO": null, "NOMBRE": "MACAJI", "Num": 21, "Nodo_cicl": null, "intersec": null}, "geometry": {"type": "Point", "coordinates": [-78.66693597193927, -1.668908285505153]}}, {"type": "Feature", "properties": {"Id": 0, "TIPO_": "CONCENTRACION", "JERARQUIA": "SECUNDARIA", "PROPUESTO": null, "NOMBRE": "UE LA PROVICENCIA", "Num": 22, "Nodo_cicl": null, "intersec": null}, "geometry": {"type": "Point", "coordinates": [-78.66265021617339, -1.672142484759745]}}, {"type": "Feature", "properties": {"Id": 0, "TIPO_": "INTERSECCION", "JERARQUIA": "SECUNDARIA", "PROPUESTO": null, "NOMBRE": "AV DANIEL LEON BORJA Y AV MIGUEL ANGEL LEON", "Num": 23, "Nodo_cicl": 1, "intersec": null}, "geometry": {"type": "Point", "coordinates": [-78.65538989018596, -1.66816150552462]}}, {"type": "Feature", "properties": {"Id": 0, "TIPO_": "CONCENTRACION", "JERARQUIA": "SECUNDARIO", "PROPUESTO": null, "NOMBRE": "CONCEJO PROVINCIAL", "Num": 24, "Nodo_cicl": 1, "intersec": 1}, "geometry": {"type": "Point", "coordinates": [-78.65307006175674, -1.668824435836431]}}, {"type": "Feature", "properties": {"Id": 0, "TIPO_": "INTERSECCION", "JERARQUIA": "SECUNDARIA", "PROPUESTO": null, "NOMBRE": "CARABOBO ENTRE AV DANIEL LEON BORJA Y 10 DE AGOSTO", "Num": 25, "Nodo_cicl": 1, "intersec": 1}, "geometry": {"type": "Point", "coordinates": [-78.65330436677841, -1.669880853632069]}}, {"type": "Feature", "properties": {"Id": 0, "TIPO_": "INTERSECCION", "JERARQUIA": "SECUNDARIA", "PROPUESTO": null, "NOMBRE": "PRIMERA CONSTITUYENTE Y GARCIA MORENO", "Num": 26, "Nodo_cicl": null, "intersec": 1}, "geometry": {"type": "Point", "coordinates": [-78.65102284729691, -1.670830931691888]}}, {"type": "Feature", "properties": {"Id": 0, "TIPO_": "INTERSECCION", "JERARQUIA": "SECUNDARIA", "PROPUESTO": null, "NOMBRE": "COLON Y OLMEDO", "Num": 27, "Nodo_cicl": null, "intersec": 1}, "geometry": {"type": "Point", "coordinates": [-78.65079341450856, -1.674033136817372]}}, {"type": "Feature", "properties": {"Id": 0, "TIPO_": "CONCENTRACION", "JERARQUIA": "SECUNDARIA", "PROPUESTO": null, "NOMBRE": "GADMR", "Num": 28, "Nodo_cicl": null, "intersec": 1}, "geometry": {"type": "Point", "coordinates": [-78.6499587099531, -1.674288640097999]}}, {"type": "Feature", "properties": {"Id": 0, "TIPO_": "INTERSECCION", "JERARQUIA": "SECUNDARIA", "PROPUESTO": null, "NOMBRE": "COLON Y 10 DE AGOSTO", "Num": 29, "Nodo_cicl": null, "intersec": 1}, "geometry": {"type": "Point", "coordinates": [-78.64982701145829, -1.672878237470236]}}, {"type": "Feature", "properties": {"Id": 0, "TIPO_": "INTERSECCION", "JERARQUIA": "SECUNDARIA", "PROPUESTO": null, "NOMBRE": "EUGENIO ESPEJO Y 10 DE AGOSTO", "Num": 30, "Nodo_cicl": null, "intersec": 1}, "geometry": {"type": "Point", "coordinates": [-78.64929358955486, -1.673362818508055]}}, {"type": "Feature", "properties": {"Id": 0, "TIPO_": "INTERSECCION", "JERARQUIA": "SECUNDARIA", "PROPUESTO": null, "NOMBRE": "5 DE JUNIO Y PRIMERA CONSTITUYENTE", "Num": 31, "Nodo_cicl": null, "intersec": 1}, "geometry": {"type": "Point", "coordinates": [-78.64825331833175, -1.673276697224473]}}, {"type": "Feature", "properties": {"Id": 0, "TIPO_": "INTERSECCION", "JERARQUIA": "SECUNDARIA", "PROPUESTO": null, "NOMBRE": "ESPAÑA Y PRIMERA CONSTITUYENTE", "Num": 32, "Nodo_cicl": null, "intersec": 1}, "geometry": {"type": "Point", "coordinates": [-78.65050002209648, -1.671308910114137]}}, {"type": "Feature", "properties": {"Id": 0, "TIPO_": "INTERSECCION", "JERARQUIA": "SECUNDARIA", "PROPUESTO": null, "NOMBRE": "COLON Y VELOZ", "Num": 33, "Nodo_cicl": null, "intersec": 1}, "geometry": {"type": "Point", "coordinates": [-78.64885454262306, -1.671736642018868]}}, {"type": "Feature", "properties": {"Id": 0, "TIPO_": "LUGAR DE REFERENCIA", "JERARQUIA": "SECUNDARIA", "PROPUESTO": "SI", "NOMBRE": "MONUMENTO AL INDIO PURUHA", "Num": 34, "Nodo_cicl": 1, "intersec": null}, "geometry": {"type": "Point", "coordinates": [-78.66248264123065, -1.667137535665459]}}, {"type": "Feature", "properties": {"Id": 0, "TIPO_": "LUGAR DE REFERENCIA", "JERARQUIA": "SECUNDARIA", "PROPUESTO": null, "NOMBRE": "MONUMENTO EDMUNDO CHIRIBOGA - X", "Num": 35, "Nodo_cicl": 1, "intersec": null}, "geometry": {"type": "Point", "coordinates": [-78.65886693905064, -1.665220489139773]}}, {"type": "Feature", "properties": {"Id": 0, "TIPO_": "INTERSECCION", "JERARQUIA": "SECUNDARIA", "PROPUESTO": null, "NOMBRE": "5 DE JUNIO Y JOSE OROZCO", "Num": 36, "Nodo_cicl": null, "intersec": 1}, "geometry": {"type": "Point", "coordinates": [-78.64732117617747, -1.672129739506753]}}, {"type": "Feature", "properties": {"Id": 0, "TIPO_": "INTERSECCION", "JERARQUIA": "SECUNDARIA", "PROPUESTO": null, "NOMBRE": "5 DE JUNIO Y ARGENTINOS", "Num": 37, "Nodo_cicl": 1, "intersec": 1}, "geometry": {"type": "Point", "coordinates": [-78.64683543968964, -1.671540564781736]}}, {"type": "Feature", "properties": {"Id": 0, "TIPO_": "CONCENTRACION", "JERARQUIA": "SECUNDARIA", "PROPUESTO": null, "NOMBRE": "UE LA SALLE", "Num": 38, "Nodo_cicl": null, "intersec": null}, "geometry": {"type": "Point", "coordinates": [-78.64703622083779, -1.668315432785054]}}, {"type": "Feature", "properties": {"Id": 0, "TIPO_": "INTERSECCION", "JERARQUIA": "SECUNDARIA", "PROPUESTO": null, "NOMBRE": "EUGENIO ESPEJO Y AV LUIS CORDOVEZ", "Num": 39, "Nodo_cicl": null, "intersec": null}, "geometry": {"type": "Point", "coordinates": [-78.64339177249852, -1.666231332834325]}}, {"type": "Feature", "properties": {"Id": 0, "TIPO_": "CONCENTRACION", "JERARQUIA": "SEUNDARIA", "PROPUESTO": null, "NOMBRE": "UE MALDONADO", "Num": 40, "Nodo_cicl": 1, "intersec": null}, "geometry": {"type": "Point", "coordinates": [-78.64767861766275, -1.65799241492014]}}, {"type": "Feature", "properties": {"Id": 0, "TIPO_": "CONCENTRACION", "JERARQUIA": "SECUNDARIA", "PROPUESTO": "SI", "NOMBRE": "PARQUE LINEAL LAS ABRAS", "Num": 41, "Nodo_cicl": null, "intersec": null}, "geometry": {"type": "Point", "coordinates": [-78.6474049397077, -1.647224361271264]}}, {"type": "Feature", "properties": {"Id": 0, "TIPO_": "LUGAR DE REFERENCIA", "JERARQUIA": "SECUNDARIA", "PROPUESTO": "SI", "NOMBRE": "LAGUNA SAN ANTONIO", "Num": 42, "Nodo_cicl": 1, "intersec": null}, "geometry": {"type": "Point", "coordinates": [-78.63924853833733, -1.651344976795772]}}, {"type": "Feature", "properties": {"Id": 0, "TIPO_": "CONCENTRACION", "JERARQUIA": "SECUNDARIA", "PROPUESTO": null, "NOMBRE": "MERCADO LA ESPERANZA", "Num": 43, "Nodo_cicl": null, "intersec": null}, "geometry": {"type": "Point", "coordinates": [-78.64052592151765, -1.660817444775112]}}, {"type": "Feature", "properties": {"Id": 0, "TIPO_": "ACCESO", "JERARQUIA": "SECUNDARIA", "PROPUESTO": null, "NOMBRE": "AV ATAHUALPA Y VIA SANTA CRUZ - PUENTE DE YARUQUIES", "Num": 44, "Nodo_cicl": null, "intersec": null}, "geometry": {"type": "Point", "coordinates": [-78.66283928877579, -1.682316231608157]}}, {"type": "Feature", "properties": {"Id": 0, "TIPO_": "LUGAR DE REFERENCIA", "JERARQUIA": "SECUDARIA", "PROPUESTO": null, "NOMBRE": "PARQUE CENTRAL YARUQUIES", "Num": 45, "Nodo_cicl": null, "intersec": null}, "geometry": {"type": "Point", "coordinates": [-78.67598512961021, -1.6888702038122]}}, {"type": "Feature", "properties": {"Id": 0, "TIPO_": "CONCENTRACION", "JERARQUIA": "SECUNADIA", "PROPUESTO": null, "NOMBRE": "UE EDMUNDO CHIRIBOGA", "Num": 46, "Nodo_cicl": 1, "intersec": null}, "geometry": {"type": "Point", "coordinates": [-78.65844191482371, -1.677945207476732]}}, {"type": "Feature", "properties": {"Id": 0, "TIPO_": "LUGAR DE REFERENCIA", "JERARQUIA": "SECUNDARIA", "PROPUESTO": "SI", "NOMBRE": "BOULEVARD DE LAS ANIMAS", "Num": 47, "Nodo_cicl": null, "intersec": null}, "geometry": {"type": "Point", "coordinates": [-78.66004067574988, -1.679393451711123]}}, {"type": "Feature", "properties": {"Id": 0, "TIPO_": "CONCENTRACION", "JERARQUIA": "SECUNDARIA", "PROPUESTO": null, "NOMBRE": "HOSPITAL GERIATRICO  BOLIVAR ARGUELLO", "Num": 48, "Nodo_cicl": null, "intersec": null}, "geometry": {"type": "Point", "coordinates": [-78.65385510393087, -1.679912047275787]}}, {"type": "Feature", "properties": {"Id": 0, "TIPO_": "CONCENTRACION", "JERARQUIA": "SECUNDARIA", "PROPUESTO": null, "NOMBRE": "UE ISABEL DE GODIN", "Num": 49, "Nodo_cicl": null, "intersec": null}, "geometry": {"type": "Point", "coordinates": [-78.65149266786634, -1.680690908335874]}}, {"type": "Feature", "properties": {"Id": 0, "TIPO_": "LUGAR DE REFERENCIA", "JERARQUIA": "SECUNDARIA", "PROPUESTO": null, "NOMBRE": "BASILICA DEL SAGRADO CORAZON DE JESUS", "Num": 50, "Nodo_cicl": null, "intersec": 1}, "geometry": {"type": "Point", "coordinates": [-78.64579977304186, -1.674250774657955]}}, {"type": "Feature", "properties": {"Id": 0, "TIPO_": "INTERSECCION", "JERARQUIA": "SECUNDARIA", "PROPUESTO": null, "NOMBRE": "OLMEDO Y AV JUAN FELIX PROAÑO", "Num": 51, "Nodo_cicl": null, "intersec": 1}, "geometry": {"type": "Point", "coordinates": [-78.64305255790887, -1.680571576742074]}}, {"type": "Feature", "properties": {"Id": 0, "TIPO_": "INTERSECCION", "JERARQUIA": "SECUNDARIA", "PROPUESTO": null, "NOMBRE": "AV ELOY ALFARO Y AV LEOPOLDO FREIRE", "Num": 52, "Nodo_cicl": null, "intersec": 1}, "geometry": {"type": "Point", "coordinates": [-78.64127551033201, -1.679448528531638]}}, {"type": "Feature", "properties": {"Id": 0, "TIPO_": "CONCENTRACION", "JERARQUIA": "SECUNDARIA", "PROPUESTO": "SI", "NOMBRE": "PARQUE VILLAMARIA", "Num": 53, "Nodo_cicl": null, "intersec": 1}, "geometry": {"type": "Point", "coordinates": [-78.64330777559097, -1.676203698576471]}}, {"type": "Feature", "properties": {"Id": 0, "TIPO_": "LUGAR DE REFERENCIA", "JERARQUIA": "SECUNDARIA", "PROPUESTO": null, "NOMBRE": "ARCO DE BELLAVISTA", "Num": 54, "Nodo_cicl": null, "intersec": null}, "geometry": {"type": "Point", "coordinates": [-78.64108294726145, -1.672908794811717]}}, {"type": "Feature", "properties": {"Id": 0, "TIPO_": "TRANSICION", "JERARQUIA": "SECUNDARIA", "PROPUESTO": null, "NOMBRE": "ARCO DE LA TRINIDAD", "Num": 55, "Nodo_cicl": null, "intersec": null}, "geometry": {"type": "Point", "coordinates": [-78.6422702647464, -1.671690706185534]}}, {"type": "Feature", "properties": {"Id": 0, "TIPO_": "CONCENTRACION", "JERARQUIA": "SECUNDARIA", "PROPUESTO": null, "NOMBRE": "UE JUAN DE VELASCO", "Num": 56, "Nodo_cicl": null, "intersec": null}, "geometry": {"type": "Point", "coordinates": [-78.6377573474098, -1.672424351195022]}}, {"type": "Feature", "properties": {"Id": 0, "TIPO_": "INTERSECCION", "JERARQUIA": "SECUNDARIA", "PROPUESTO": null, "NOMBRE": "AV JUAN FERNANDO DE LEON Y JOAQUIN CHIRIBOGA", "Num": 57, "Nodo_cicl": null, "intersec": null}, "geometry": {"type": "Point", "coordinates": [-78.64039588294611, -1.673276839143854]}}, {"type": "Feature", "properties": {"Id": 0, "TIPO_": "INTERSECCION", "JERARQUIA": "SECUNDARIA", "PROPUESTO": null, "NOMBRE": "AV 9 DE OCTUBRE Y AVJUAN FELIX PROAÑO", "Num": 58, "Nodo_cicl": null, "intersec": null}, "geometry": {"type": "Point", "coordinates": [-78.64350666384559, -1.685928737864681]}}, {"type": "Feature", "properties": {"Id": 0, "TIPO_": "INTERSECCION", "JERARQUIA": "SEUNDARIA", "PROPUESTO": null, "NOMBRE": "AV LEOPOLDO FREIRE Y AV 9 DE OCTUBRE", "Num": 59, "Nodo_cicl": null, "intersec": 1}, "geometry": {"type": "Point", "coordinates": [-78.6318997004546, -1.68938035563883]}}, {"type": "Feature", "properties": {"Id": 0, "TIPO_": "ACCESO", "JERARQUIA": "SECUNDARIA", "PROPUESTO": null, "NOMBRE": "INGRESO AL CANTON GUANO", "Num": 60, "Nodo_cicl": 1, "intersec": 1}, "geometry": {"type": "Point", "coordinates": [-78.66331254644845, -1.643358518897092]}}, {"type": "Feature", "properties": {"Id": 0, "TIPO_": "INTERSECCION", "JERARQUIA": "SECUNDARIA", "PROPUESTO": "SI", "NOMBRE": "AV MONSEÑOR LEONIDAS PROAÑO Y AV JOSE A. LIZARZABURU", "Num": 61, "Nodo_cicl": null, "intersec": null}, "geometry": {"type": "Point", "coordinates": [-78.67366523379779, -1.644961525721213]}}, {"type": "Feature", "properties": {"Id": 0, "TIPO_": "LUGAR DE REFERENCIA", "JERARQUIA": "SECUNDARIA", "PROPUESTO": null, "NOMBRE": "MONUMENTO \"LA CAMPANA DE LA PAZ\"", "Num": 62, "Nodo_cicl": 1, "intersec": 1}, "geometry": {"type": "Point", "coordinates": [-78.68165254596276, -1.646628212877181]}}, {"type": "Feature", "properties": {"Id": 0, "TIPO_": "INTERSECCION", "JERARQUIA": "SECUNDARIA", "PROPUESTO": "SI", "NOMBRE": "MEDIA LUNA", "Num": 63, "Nodo_cicl": null, "intersec": 1}, "geometry": {"type": "Point", "coordinates": [-78.69512570602177, -1.65590137563319]}}, {"type": "Feature", "properties": {"Id": 0, "TIPO_": "LUGAR DE REFERENCIA", "JERARQUIA": "SECUNDARIA", "PROPUESTO": null, "NOMBRE": "REDONDEL DEL TERMINAL", "Num": 64, "Nodo_cicl": 1, "intersec": null}, "geometry": {"type": "Point", "coordinates": [-78.66285493769334, -1.661580346357131]}}, {"type": "Feature", "properties": {"Id": 0, "TIPO_": "INTERSECCION", "JERARQUIA": "SECUNDARIA", "PROPUESTO": null, "NOMBRE": "AV SESQUI CENTENARIO Y CANAL DE RIEGO", "Num": 65, "Nodo_cicl": null, "intersec": null}, "geometry": {"type": "Point", "coordinates": [-78.66477160184161, -1.660433806888121]}}, {"type": "Feature", "properties": {"Id": 0, "TIPO_": "LUGAR DE REFERENCIA", "JERARQUIA": "SECUNDARIA", "PROPUESTO": null, "NOMBRE": "REDONDEL DEL COMIL", "Num": 66, "Nodo_cicl": 1, "intersec": 1}, "geometry": {"type": "Point", "coordinates": [-78.64938283107223, -1.663587310588597]}}, {"type": "Feature", "properties": {"Id": 0, "TIPO_": "INTERSECCIÓN", "JERARQUIA": "SECUNDARIA", "PROPUESTO": null, "NOMBRE": "AV 11 DE NOVIEMBRE Y LIZARZABURU", "Num": 66, "Nodo_cicl": 1, "intersec": 1}, "geometry": {"type": "Point", "coordinates": [-78.66761035671288, -1.652555061324168]}}, {"type": "Feature", "properties": {"Id": 0, "TIPO_": "INTERSECCIÓN", "JERARQUIA": "SECUNDARIA", "PROPUESTO": null, "NOMBRE": "AV 11 DE NOVIEMBRE Y CANONIGO RAMOS", "Num": 67, "Nodo_cicl": 1, "intersec": 1}, "geometry": {"type": "Point", "coordinates": [-78.67076625000472, -1.655964475999931]}}, {"type": "Feature", "properties": {"Id": 0, "TIPO_": "INTERSECCIÓN", "JERARQUIA": "SECUNDARIA", "PROPUESTO": null, "NOMBRE": "AV 11 DE NOVIEMBRE Y AV BICENTENARIO", "Num": 68, "Nodo_cicl": 1, "intersec": 1}, "geometry": {"type": "Point", "coordinates": [-78.66157900533406, -1.646381146961888]}}]}