{"type": "FeatureCollection", "name": "SISTEMA_DE_CORREDORES", "features": [{"type": "Feature", "properties": {"OBJECTID": 1, "Id": 0, "Nombre": "Bulevar Jardín de la Unidad de los Deportes", "SISTEMA_B": "Bulevar Histórico Patrimonial y Comercial", "Shape_Leng": 2539.7578606932484, "TIPOLOGIA": "BULEVAR ESTRUCTURANTE", "NOMBRE_DE": "AVENIDA UNIDAD NACIONAL", "CORREDOR": "CORREDOR MACAJÍ-BELLAVISTA", "Shape_Length": 2539.7578606932484}, "geometry": {"type": "MultiLineString", "coordinates": [[[-78.66677629360314, -1.665828474924947], [-78.6667529765066, -1.665830632027204], [-78.6667310485401, -1.66582867320236], [-78.66670978799499, -1.665822913979809], [-78.66668984324193, -1.66581352779084], [-78.66667182479405, -1.66580079740189], [-78.66665627566414, -1.665785113975282], [-78.66664366870157, -1.665766949946957], [-78.66663438862636, -1.665746859004976], [-78.66662871588747, -1.665725452567141], [-78.6666285094007, -1.665723058609083], [-78.66662831184455, -1.665722998711603], [-78.66628845318317, -1.665619358459434], [-78.66597844079469, -1.665524819687758], [-78.66586716939872, -1.665490888526852], [-78.66576844466556, -1.6654691117256], [-78.66574468301177, -1.665463569184655], [-78.66573808311512, -1.665468206813832], [-78.66571909242671, -1.665477091884935], [-78.66569885447066, -1.665482522306376], [-78.66567798747299, -1.665484333388947], [-78.6656571265954, -1.665482472555917], [-78.66563690148415, -1.665476993892317], [-78.66561792997548, -1.665468063561336], [-78.66560078845926, -1.665455953441033], [-78.66558599751671, -1.665441032067638], [-78.66558121498188, -1.665434143544905], [-78.66553511459566, -1.665466544685066], [-78.66538901690677, -1.665569225880692], [-78.66489103220998, -1.665837128750971], [-78.66465442585799, -1.665964417229669], [-78.66459237458928, -1.665996588651942], [-78.66416627702503, -1.666217523467363], [-78.66402669177509, -1.666289899393325], [-78.66394526667479, -1.666332116035142], [-78.6636722121488, -1.666455248560766], [-78.66322607432654, -1.666656435285688], [-78.66294644879035, -1.666777250097304], [-78.66290835797042, -1.666789570867605], [-78.66239267657731, -1.666956384819066], [-78.66239101580447, -1.666952421651016], [-78.66232374667025, -1.666973636917552], [-78.66179169717839, -1.667141434412449], [-78.6617773282095, -1.667145792433645], [-78.66176024539861, -1.667150976147729], [-78.66045504621897, -1.6675469795409], [-78.65999519986218, -1.667686498769452], [-78.65988996373925, -1.667720225425541], [-78.65899326891116, -1.667992189180064], [-78.65873794641813, -1.668065762642334], [-78.65842436918221, -1.668156120680044], [-78.6578416254014, -1.668325782694134], [-78.65775897905742, -1.668351755786415], [-78.65744097995923, -1.668451685734979], [-78.6574166171322, -1.668459342937496], [-78.6573025216892, -1.668491126039388], [-78.65674857057968, -1.6686454518779], [-78.65607380855221, -1.668847462101883], [-78.65602990132027, -1.668884066933341], [-78.65600488327638, -1.668904926598316], [-78.65606543966514, -1.668990311646948], [-78.6568134598098, -1.668793565440801], [-78.65685978599302, -1.668781380424591], [-78.65708829397063, -1.668742093362166], [-78.65720585200188, -1.668709853428186], [-78.65748013043049, -1.668634635275451], [-78.65761007077997, -1.66860530011405], [-78.65763414622315, -1.66859986360551], [-78.65817524812226, -1.668468490830966], [-78.65838783410537, -1.668416879686195], [-78.6589809353379, -1.668275452570144], [-78.6599108107454, -1.668053721403116], [-78.659954619411, -1.668041234939444], [-78.66066805232352, -1.667837894660304], [-78.66189241401509, -1.667488927512582], [-78.66190691477378, -1.667484793835057], [-78.66191836836929, -1.667481528841962], [-78.6630369891226, -1.667119419528624], [-78.66307305981566, -1.66710774087896], [-78.66484645089962, -1.666608975265279], [-78.66667147800146, -1.665878678505642], [-78.66677629360314, -1.665828474924947]]]}}, {"type": "Feature", "properties": {"OBJECTID": 2, "Id": 0, "Nombre": "Bulevar Avenida Daniel León Borja", "SISTEMA_B": "Comercial Alta Intensidad Urbana", "Shape_Leng": 1387.779123426542, "TIPOLOGIA": "CORREDORES URBANOS DE ARTICULACION", "NOMBRE_DE": "AVENIDA DANIEL LEON BORJA", "CORREDOR": " ", "Shape_Length": 1387.779123426542}, "geometry": {"type": "MultiLineString", "coordinates": [[[-78.66271729917297, -1.661691011657027], [-78.66211767872733, -1.6622116620842], [-78.66207289500763, -1.662250547988921], [-78.66177232349688, -1.662511531929507], [-78.66157841981612, -1.662679899557255], [-78.66156294607974, -1.662693334840649], [-78.6615631766185, -1.662693609921358], [-78.66155486394022, -1.662701091179984], [-78.66098595635006, -1.663201470325789], [-78.66097540388817, -1.66321075050816], [-78.66095291324665, -1.663230533189199], [-78.66042129417124, -1.663686363606323], [-78.66039840396016, -1.663705992114241], [-78.66038583844407, -1.663716765945995], [-78.65965248830047, -1.66435852925592], [-78.6596314104411, -1.664376974799413], [-78.65897473121136, -1.664949650159523], [-78.65888374614832, -1.665130836053822], [-78.65867965273547, -1.665249692104003], [-78.65706874958167, -1.666631711862719], [-78.65638151636341, -1.667230123227907], [-78.65592732839029, -1.66762559691145], [-78.65536695247785, -1.668097787819653], [-78.65480453414591, -1.668585468739902], [-78.65441316228556, -1.668925940893237], [-78.65329850129098, -1.669878731560722]]]}}, {"type": "Feature", "properties": {"OBJECTID": 3, "Id": 0, "Nombre": "Bulevar Calle Guayaquil", "SISTEMA_B": "Bulevar Comercial Alta Intensidad Urbana", "Shape_Leng": 897.5994096853677, "TIPOLOGIA": "BULEVAR ESTRUCTURANTE", "NOMBRE_DE": "CALLE GUAYAQUIL", "CORREDOR": "CORREDOR MACAJÍ-BELLAVISTA", "Shape_Length": 897.5994096853677}, "geometry": {"type": "MultiLineString", "coordinates": [[[-78.65601493845074, -1.668920402753821], [-78.65523564984252, -1.669192115412379], [-78.65425824480509, -1.669946967695496], [-78.65374407691408, -1.670414698672896], [-78.65374396450483, -1.670414801589382], [-78.65374334940232, -1.670415364018026], [-78.65311898315117, -1.670986398631593], [-78.65311874214393, -1.670986620716139], [-78.65267419152703, -1.671391045951579], [-78.65258829789144, -1.671469186725416], [-78.65254195001283, -1.671501166415716], [-78.65253801853906, -1.671503878990471], [-78.65198879565087, -1.671993591140784], [-78.65197632783837, -1.672004469754785], [-78.65197622199538, -1.672004338553127], [-78.65196984030081, -1.671996193420002], [-78.65196963077666, -1.671996379383552], [-78.6514288719443, -1.672472049116264], [-78.65139466811438, -1.672501000618694], [-78.65089811147845, -1.67292461884374], [-78.65086664511144, -1.672963074227949], [-78.65083806826915, -1.672998001322882], [-78.65037518521777, -1.673406314049761], [-78.65031777158883, -1.673456809581968], [-78.64976745955119, -1.673940836847935]]]}}, {"type": "Feature", "properties": {"OBJECTID": 4, "Id": 0, "Nombre": "Bulevar Loma de Quito", "SISTEMA_B": "Bulevar Histórico Barrial", "Shape_Leng": 368.42286575987305, "TIPOLOGIA": "CORREDORES URBANOS DE ARTICULACION", "NOMBRE_DE": "AVENIDA MIGUEL ANGEL LEÓN", "CORREDOR": " ", "Shape_Length": 368.42286575987305}, "geometry": {"type": "MultiLineString", "coordinates": [[[-78.65601493845074, -1.668920402753821], [-78.65538661778918, -1.66810857579133], [-78.65397691707939, -1.666314093686428], [-78.65398493800764, -1.666325431748565]]]}}, {"type": "Feature", "properties": {"OBJECTID": 5, "Id": 0, "Nombre": "Bulevar Cívico", "SISTEMA_B": "Bulevar Cívico Institucional", "Shape_Leng": 891.7802717581148, "TIPOLOGIA": "CORREDORES URBANOS DE ARTICULACION", "NOMBRE_DE": "CALLE JOSE VELOZ", "CORREDOR": " ", "Shape_Length": 891.7802717581148}, "geometry": {"type": "MultiLineString", "coordinates": [[[-78.65439468831642, -1.666931572838397], [-78.65388452191543, -1.667371576285648], [-78.65232717788238, -1.668730968825755], [-78.6483400007365, -1.67221000005466]]]}}, {"type": "Feature", "properties": {"OBJECTID": 6, "Id": 0, "Nombre": "Bulevar de las Artes", "SISTEMA_B": "Bulevar Histórico Patrimonial", "Shape_Leng": 578.6182113459133, "TIPOLOGIA": "CORREDORES URBANOS DE ARTICULACION", "NOMBRE_DE": "CALLE JOSE VELOZ", "CORREDOR": " ", "Shape_Length": 578.6182113459133}, "geometry": {"type": "MultiLineString", "coordinates": [[[-78.6477400002397, -1.672719999686341], [-78.64551761594527, -1.674656507602157], [-78.64378977700453, -1.676119210418982]]]}}, {"type": "Feature", "properties": {"OBJECTID": 7, "Id": 0, "Nombre": "Bulevar de las Animas", "SISTEMA_B": "Bulevar Patrimonial Residencial", "Shape_Leng": 1401.5287959902012, "TIPOLOGIA": "CORREDORES URBANOS DE ARTICULACION", "NOMBRE_DE": "CALLE ESPAÑA Y  CALLE STA. ISABEL", "CORREDOR": " ", "Shape_Length": 1401.5287959902012}, "geometry": {"type": "MultiLineString", "coordinates": [[[-78.65924585102181, -1.680084986746084], [-78.65749502943447, -1.678567705547328], [-78.65695567053406, -1.679225980231034], [-78.65566310407411, -1.677624769869503], [-78.65469241294586, -1.676454025796338], [-78.65330522856866, -1.67476229806844], [-78.65142887373982, -1.672472050022386], [-78.65094707390064, -1.671910687447582]]]}}, {"type": "Feature", "properties": {"OBJECTID": 8, "Id": 0, "Nombre": "Corredor Yaruquies", "SISTEMA_B": "Corredor Conector Urbano Rural", "Shape_Leng": 654.0481173009567, "TIPOLOGIA": "CORREDORES DE INTEGRACION TERRITORIAL", "NOMBRE_DE": "AVENIDA CRISTOBAL COLÓN", "CORREDOR": " ", "Shape_Length": 654.0481173009567}, "geometry": {"type": "MultiLineString", "coordinates": [[[-78.67630179660385, -1.689076879702299], [-78.67681283499564, -1.688523160285215], [-78.67787635594898, -1.687504092686418], [-78.67839247585844, -1.68697333063962], [-78.67865785299524, -1.686679519527736], [-78.67888219464194, -1.686428257142012], [-78.67938541529591, -1.685863866867076], [-78.67936660265823, -1.685694029352368], [-78.67930988806896, -1.685416513358985], [-78.6792727342365, -1.685279420342221], [-78.67927001804699, -1.68516461190936], [-78.67926874197423, -1.685038324686346], [-78.67925739451088, -1.684986646941906], [-78.67948639974558, -1.684865898794074], [-78.6797434300303, -1.684982515479895], [-78.67973941488074, -1.684990573246333]]]}}, {"type": "Feature", "properties": {"OBJECTID": 9, "Id": 0, "Nombre": "Bulevar Calle Eugenio Espejo", "SISTEMA_B": "Histórico Patrimonial Comercial", "Shape_Leng": 2447.803680828964, "TIPOLOGIA": "BULEVAR ESTRUCTURANTE", "NOMBRE_DE": "CALLE EUGENIO ESPEJO", "CORREDOR": "CORREDOR MACAJÍ-BELLAVISTA", "Shape_Length": 2447.803680828964}, "geometry": {"type": "MultiLineString", "coordinates": [[[-78.64124423777007, -1.664133233981833], [-78.6414763395219, -1.664292730301363], [-78.64197319797665, -1.664634169531946], [-78.6419970936395, -1.664654284149432], [-78.64245676048951, -1.665017727982113], [-78.64245949238023, -1.665021338047496], [-78.64270271503477, -1.665342704517718], [-78.64290205346805, -1.665606085605282], [-78.64339432512472, -1.666179465499], [-78.6434030695259, -1.666189650942447], [-78.64343467180562, -1.666230021647092], [-78.64343468974558, -1.666230043363604], [-78.64389386737764, -1.666816610375001], [-78.64407213734928, -1.667037860171299], [-78.64423750001936, -1.667243092645778], [-78.64427913355209, -1.667294762252682], [-78.64458997974128, -1.667675094427832], [-78.64460509571637, -1.667693589486236], [-78.64498302386657, -1.668155998615536], [-78.64546785627611, -1.668767579187127], [-78.64595919591576, -1.669350640851298]], [[-78.6459591977102, -1.66935064266137], [-78.64644697180357, -1.669934835683863], [-78.64690495507743, -1.670479846321162], [-78.64739252328442, -1.671059261330252], [-78.64764702233573, -1.671380635736137], [-78.64786428029308, -1.671654983029592], [-78.64834000073758, -1.672209999150705], [-78.64880451288127, -1.672788806848401], [-78.64928177268148, -1.673350473065915], [-78.64929208502602, -1.673362609396624], [-78.64932808390638, -1.673408861371933], [-78.64976046882002, -1.673964372019618], [-78.65023261646213, -1.67452408729865], [-78.65035356210265, -1.674668150762756], [-78.65071221000669, -1.675095349963943], [-78.65118006655702, -1.675663640979735], [-78.6513430262545, -1.67586299446693], [-78.65163071602909, -1.676214917043447], [-78.65170050003964, -1.676300298948886], [-78.65207645034012, -1.676755522500114], [-78.65212195112034, -1.676811143871754], [-78.65255087989371, -1.677335474283574], [-78.6525777752905, -1.677368353070588], [-78.65300289487108, -1.677894675068086], [-78.65304119930404, -1.677942099723366], [-78.65335299063716, -1.678291238884081], [-78.65350421153917, -1.678460574346321], [-78.65396711312927, -1.679026794503957], [-78.65450095194987, -1.679683391946647], [-78.65453339949475, -1.679723299480846], [-78.65488591070128, -1.680164782894813], [-78.65492999994957, -1.680219999549982], [-78.65521643631227, -1.68056014324642], [-78.65552216880815, -1.680896844567331]]]}}, {"type": "Feature", "properties": {"OBJECTID": 10, "Id": 0, "Nombre": "Bulevar Juan Bernardo de León", "SISTEMA_B": "Bulevar Patrimonial Residencial", "Shape_Leng": 1089.6648991523855, "TIPOLOGIA": "CORREDORES URBANOS DE ARTICULACION", "NOMBRE_DE": "CALLE JUAN BERNARDO DE LEON", "CORREDOR": " ", "Shape_Length": 1089.6648991523855}, "geometry": {"type": "MultiLineString", "coordinates": [[[-78.64602235110995, -1.66825884524243], [-78.6454718342638, -1.668745386436746], [-78.64491830744505, -1.669241383354171], [-78.64433530318247, -1.669744009925428], [-78.6441008496527, -1.669954930788614], [-78.64381669699047, -1.670210561749744], [-78.64321431079745, -1.670748570770182], [-78.64305467621341, -1.6709326554322], [-78.64278621675653, -1.671242232001507], [-78.64277972554368, -1.671247644268863], [-78.6422527350687, -1.67168698719094], [-78.64205878532859, -1.671848753919128], [-78.64154489191324, -1.672277373964576], [-78.64097428968513, -1.672771080962439], [-78.64039621527839, -1.673279047228951], [-78.63983032637604, -1.673769366239577], [-78.63924425580608, -1.674264590373217], [-78.63904026070702, -1.674446877170469], [-78.6386830907083, -1.674766037084921]]]}}, {"type": "Feature", "properties": {"OBJECTID": 11, "Id": 0, "Nombre": "Corredor Loja", "SISTEMA_B": "Corredor Conector Comercial", "Shape_Leng": 483.6736310723058, "TIPOLOGIA": "CORREDORES URBANOS DE ARTICULACION", "NOMBRE_DE": "CALLE LOJA", "CORREDOR": " ", "Shape_Length": 483.6736310723058}, "geometry": {"type": "MultiLineString", "coordinates": [[[-78.6409807718071, -1.672783805618258], [-78.6414850578488, -1.673380195218275], [-78.64148844865716, -1.67338415140642], [-78.6419806275855, -1.673958153799493], [-78.6423413187553, -1.674389145443667], [-78.6428962666286, -1.675043189928702], [-78.64317987104157, -1.675387887520276], [-78.6433378648192, -1.675579914260317], [-78.64378977610731, -1.676119209513925]]]}}, {"type": "Feature", "properties": {"OBJECTID": 12, "Id": 0, "Nombre": "Corredor Carabobo", "SISTEMA_B": "Corredor Conector Barrial", "Shape_Leng": 1166.8383208337443, "TIPOLOGIA": "CORREDORES URBANOS DE ARTICULACION", "NOMBRE_DE": "CALLE CARABOBO", "CORREDOR": " ", "Shape_Length": 1166.8383208337443}, "geometry": {"type": "MultiLineString", "coordinates": [[[-78.65900032948663, -1.676840020427898], [-78.65847870213186, -1.676215811552811], [-78.65847247763273, -1.676208389744726], [-78.65799152464125, -1.675634908181536], [-78.65751468967616, -1.675068230558987], [-78.65708001690574, -1.674537644052633], [-78.65704069781299, -1.674489649617991], [-78.65658719594714, -1.673970414377666], [-78.65658197404423, -1.673964435610898], [-78.65611022766, -1.6733902041542], [-78.65610158369364, -1.673397454386869]], [[-78.65610547466756, -1.673402379337074], [-78.65610158369364, -1.673397454386869]], [[-78.65610158369364, -1.673397454386869], [-78.65560235964429, -1.672765572484134], [-78.65516382111815, -1.672215513702248], [-78.6546771572153, -1.671621682606478], [-78.65423560361643, -1.671049549583397], [-78.653762123687, -1.670436654986461], [-78.65329850129098, -1.669878731560722], [-78.6528017855756, -1.669286239135431], [-78.65232717788238, -1.668730968825755]]]}}, {"type": "Feature", "properties": {"OBJECTID": 13, "Id": 0, "Nombre": "Bulevar 10 de Agosto", "SISTEMA_B": "Histórico Patrimonial Comercial", "Shape_Leng": 1005.9967166917403, "TIPOLOGIA": "CORREDORES URBANOS DE ARTICULACION", "NOMBRE_DE": "CALLE 10 DE AGOSTO", "CORREDOR": " ", "Shape_Length": 1005.9967166917403}, "geometry": {"type": "MultiLineString", "coordinates": [[[-78.65330436644332, -1.669880853878118], [-78.65291090035268, -1.670188700338462], [-78.65263800217463, -1.670428049282297], [-78.6520769258909, -1.670920149486887], [-78.65151368044869, -1.671414136699506], [-78.6509611689284, -1.671898711592384], [-78.65094707390064, -1.671910687447582], [-78.65038749526637, -1.672386202826905], [-78.64982979650586, -1.672870061658686], [-78.64928177268148, -1.673350473065915], [-78.64872094566716, -1.673839571793205], [-78.64816299902893, -1.67435297091921], [-78.6475986859021, -1.674824977706315], [-78.64703188100786, -1.675301998796547], [-78.64701196836451, -1.675320180417797], [-78.64646369563695, -1.675820794918061]]]}}, {"type": "Feature", "properties": {"OBJECTID": 14, "Id": 0, "Nombre": "Bulevar Calle Primera Constituyente", "SISTEMA_B": "Bulevar Cívico Institucional y Conector Urbano", "Shape_Leng": 2514.0283166092186, "TIPOLOGIA": "BULEVAR ESTRUCTURANTE", "NOMBRE_DE": "CALLE PRIMERA CONSTITUYENTE", "CORREDOR": "CORREDOR MACAJÍ-BELLAVISTA", "Shape_Length": 2514.0283166092186}, "geometry": {"type": "MultiLineString", "coordinates": [[[-78.64126562490735, -1.67936382321446], [-78.64183534333546, -1.678863850589503], [-78.64184800462279, -1.678852738293364], [-78.64185187494706, -1.678849342319014], [-78.6425484256086, -1.678233350439947], [-78.64428371252967, -1.676705747799236], [-78.64485871206558, -1.676220477707682], [-78.64541996337496, -1.675737150182019], [-78.64543114516516, -1.675727520310307], [-78.64655174872912, -1.674757357538612], [-78.64675414559558, -1.67458916428463], [-78.64712799348318, -1.674271210735301], [-78.6476658129083, -1.673793831447392], [-78.64769007910758, -1.673772256165487], [-78.64824689943903, -1.673277199770291], [-78.64880451288019, -1.672788807752356], [-78.64935967218142, -1.672302491326253], [-78.6493906003842, -1.672275399006917], [-78.64943900043697, -1.67223320000058], [-78.64993019281275, -1.67180274556689], [-78.6504874650932, -1.671314383103884], [-78.65103701275022, -1.670832789583356], [-78.65103036870852, -1.670824686628305], [-78.65159631422915, -1.670346366552615], [-78.65159456334925, -1.670344184094903], [-78.65167001336434, -1.670278063400279], [-78.65215215599243, -1.66985553923306], [-78.65221063299005, -1.669804293517118], [-78.65241900279868, -1.669621689981112], [-78.65243544523632, -1.669607280727093], [-78.6527734517164, -1.669311068530441], [-78.6528017855756, -1.669286239135431], [-78.65331873162486, -1.668833215470057], [-78.65365189266757, -1.668548970796367], [-78.65393143133156, -1.668310474338173], [-78.65393198705303, -1.668309989577887], [-78.653935783581, -1.668306680211909], [-78.65433071687, -1.667962409401261], [-78.654331039692, -1.667962127752529], [-78.65483366571186, -1.667489916996713], [-78.65484134301785, -1.667500141879524], [-78.65487644294406, -1.667468365409573], [-78.65488479977007, -1.667460799324439], [-78.65490938649381, -1.667436981383001], [-78.6549295997854, -1.66741740049051], [-78.65538040567348, -1.667024766162172], [-78.65540491220538, -1.667003422247421], [-78.65595297879969, -1.666526076191591], [-78.65596396370763, -1.666516508249051], [-78.65653051454092, -1.666023033576034], [-78.65654634535542, -1.666009244492249], [-78.656555378153, -1.666001286871325], [-78.65828592450374, -1.664476636396166], [-78.658289130815, -1.664480196424573]]]}}, {"type": "Feature", "properties": {"OBJECTID": 15, "Id": 0, "Nombre": "Bulevar Calle Puruha", "SISTEMA_B": "Bulevar Conector Barrial", "Shape_Leng": 1142.50921913197, "TIPOLOGIA": "BULEVAR ESTRUCTURANTE", "NOMBRE_DE": "CALLE PURUHÁ", "CORREDOR": "CORREDOR MACAJÍ-BELLAVISTA", "Shape_Length": 1142.50921913197}, "geometry": {"type": "MultiLineString", "coordinates": [[[-78.6423445896625, -1.679415736045702], [-78.6418531787671, -1.67884376650846], [-78.64142925891086, -1.678347221877544], [-78.64140914140742, -1.6783219491366], [-78.64136636111729, -1.678270257065633], [-78.64090744520419, -1.677715754835784], [-78.64090387337974, -1.677711438644818], [-78.64046617776886, -1.677181109714094], [-78.64040297343163, -1.676920728095354], [-78.64036817459399, -1.67680373157529], [-78.64030557263506, -1.676683831276736], [-78.64004853600257, -1.676381445613667], [-78.64004164688676, -1.676373302587793], [-78.63967103671432, -1.675935258710233], [-78.63966540792082, -1.675928599697897], [-78.6391746642134, -1.675348067675879], [-78.63917139458141, -1.675344199315858], [-78.63868152880416, -1.674767353152004]], [[-78.63868152880416, -1.674767353152004], [-78.6386814642184, -1.674767277141742]], [[-78.63597102599094, -1.671376235663872], [-78.63616199025896, -1.671631146799176], [-78.63642871446014, -1.671987186104761], [-78.63667452319287, -1.672315306967259], [-78.63691489484204, -1.672656019680525], [-78.6369260903184, -1.67267017193932], [-78.63719561860486, -1.673010895683597], [-78.6376770692125, -1.67358418458604], [-78.63818009366454, -1.674163193010991], [-78.6386830907083, -1.674766037084921], [-78.63868152880416, -1.674767353152004]]]}}, {"type": "Feature", "properties": {"OBJECTID": 16, "Id": 0, "Nombre": "Corredor Polipasaje", "SISTEMA_B": "Corredor Peatonal Recreativo", "Shape_Leng": 109.17237763616836, "TIPOLOGIA": "CORREDORES DE INTEGRACION TERRITORIAL", "NOMBRE_DE": "CALLEJÓN", "CORREDOR": " ", "Shape_Length": 109.17237763616836}, "geometry": {"type": "MultiLineString", "coordinates": [[[-78.67947411562004, -1.660763738304994], [-78.67971429438242, -1.661720578458922]]]}}, {"type": "Feature", "properties": {"OBJECTID": 17, "Id": 0, "Nombre": "Corredor Calle Brasil", "SISTEMA_B": "Corredor Conector Barrial", "Shape_Leng": 691.7874819228009, "TIPOLOGIA": "CORREDORES URBANOS DE ARTICULACION", "NOMBRE_DE": "CALLE BRASIL", "CORREDOR": " ", "Shape_Length": 691.7874819228009}, "geometry": {"type": "MultiLineString", "coordinates": [[[-78.65842325580876, -1.668179984007357], [-78.65840763979314, -1.6681609910876], [-78.65805053011603, -1.667726667693472], [-78.65773401446839, -1.667370718839496], [-78.65708532111188, -1.66661749518448]], [[-78.65708532111188, -1.66661749518448], [-78.65707916062898, -1.666622779610243], [-78.65706874958167, -1.666631711862719]], [[-78.65708532111188, -1.66661749518448], [-78.6570852699785, -1.666617436365616], [-78.65654546795015, -1.666009809322706], [-78.65434918818445, -1.663487362311962]]]}}, {"type": "Feature", "properties": {"OBJECTID": 18, "Id": 0, "Nombre": "Corredor Argentinos", "SISTEMA_B": "Corredor Conector Barrial", "Shape_Leng": 1132.1010791967772, "TIPOLOGIA": "CORREDORES URBANOS DE ARTICULACION", "NOMBRE_DE": "CALLE ARGENTINOS", "CORREDOR": " ", "Shape_Length": 1132.1010791967772}, "geometry": {"type": "MultiLineString", "coordinates": [[[-78.64737310205496, -1.671053339594456], [-78.64738140019041, -1.671046042008667], [-78.64794556897128, -1.670549899772776], [-78.64849027593866, -1.670059851516858], [-78.64905905836454, -1.669552734233759], [-78.64959711959726, -1.669083601718589], [-78.65018941370991, -1.668567225203187], [-78.65074892471347, -1.668067947739815], [-78.65134488148195, -1.667534234650391], [-78.6518833090542, -1.667055403601469], [-78.65249035309748, -1.666531429209173], [-78.65298093360308, -1.66611014007095], [-78.65343822793137, -1.665711377099761], [-78.65351347061893, -1.665642527588577], [-78.6537427549252, -1.665446671694003], [-78.65393040428407, -1.665286381005896], [-78.6545074299771, -1.664782228523956], [-78.6550231274805, -1.66431115486784]]]}}]}