{"type": "FeatureCollection", "features": [{"type": "Feature", "properties": {"ID_CANDIDATO": "CAND-POL-01220", "X": 760420.4501, "Y": 9816184.3041, "AMBITO_HOTSPOT": "URBANO", "NIVEL_DEL": 99, "NIVEL_VIOL": 99, "COINCIDENCIA_DV": true, "NIVEL_DEL_RESIDUAL": 99, "NIVEL_VIOL_RESIDUAL": 99, "NIVEL_DV_RESIDUAL": 99, "EVENTOS_D_NUEVOS": 7, "EVENTOS_V_NUEVOS": 3, "EVENTOS_DV_NUEVOS": 10, "EVENTOS_C_NUEVOS": 13, "AREA_HOTSPOT_D_NUEVA_M2": 21775.943889455615, "AREA_HOTSPOT_V_NUEVA_M2": 4918.8735236220045, "COINCIDENCIA_DV_RESIDUAL_M2": 4918.8735236220045, "ESTADO_HOTSPOT_DV_PREVIO": "PARCIALMENTE CUBIERTO", "SOLAPE_PREVIO_PCT": 69.50023850515322, "DIST_EXISTENTE_M": 211.1096210684201, "DIST_MUNICIPAL_M": 666.014451129063, "DIST_POLICIA_M": 653.2050246555515, "UPC_CERCANA": "I0419", "NOMBRE_UPC": "TERMINAL TERRESTRE 1", "DIST_UPC_M": 387.44826649761524, "INTERSECCION_O_NODO": "INTERSECCION_VIAL_URBANA", "GRADO_NODO": 3, "DIST_DESDE_POL20_M": 0.0, "NUCLEOS99_ABANDONADOS": 0, "IDS_99_ABANDONADOS": "", "PREFERIBLE": false, "MENOR_SOLAPE_SIN_REDUCIR_DV": false, "DV_ACTUALES_CONSERVADOS": 10, "MISMA_PLATAFORMA": true, "PLATAFORMA": "PLATAFORMA I", "AREA_BUFFER_M2": 125651.0900372239, "AREA_SOLAPADA_M2": 87327.80726019542, "AREA_EXCLUSIVA_M2": 38323.28277702862, "APORTE_EXCLUSIVO_PCT": 30.499761494846894, "REDUNDANCIA": "MEDIA", "POBLACION_ADICIONAL_ESTIMADA": 404.78948851196446, "POBLACION_ASOCIADA_ESTIMADA": 1470.3711104666875, "MANZANAS_ADICIONALES_VALIDAS": 13, "MANZANAS_ADICIONALES_SIN_POBLACION": 1, "POBLACION_ADICIONAL_PARCIAL": true, "POBLACION_ASOCIADA_PARCIAL": true, "CORREDOR_COINCIDENTE": null, "EXISTENTE_MENOS_200M": false, "MUNICIPAL_MENOS_200M": false, "POLICIA_MENOS_200M": false, "EXISTENTE_MENOS_300M": true, "MUNICIPAL_MENOS_300M": false, "POLICIA_MENOS_300M": false, "EXISTENTE_MENOS_400M": true, "MUNICIPAL_MENOS_400M": false, "POLICIA_MENOS_400M": false, "HOTSPOT_D": "GIU100-35-42|GIU100-35-43|GIU100-36-41|GIU100-36-42|GIU100-36-43|GIU100-37-41|GIU100-37-42", "HOTSPOTS_D_CON_APORTE": 5, "HOTSPOTS_D_PRIMERA_ATENCION": 0, "HOTSPOTS_D_COMPLETADOS": 3, "IDS_HOTSPOTS_D_CON_APORTE": "GIU100-36-42|GIU100-36-41|GIU100-36-43|GIU100-37-41|GIU100-37-42", "HOTSPOT_V": "GIU100-36-41|GIU100-37-41", "HOTSPOTS_V_CON_APORTE": 2, "HOTSPOTS_V_PRIMERA_ATENCION": 0, "HOTSPOTS_V_COMPLETADOS": 0, "IDS_HOTSPOTS_V_CON_APORTE": "GIU100-36-41|GIU100-37-41", "GI_D_CELDAS_SITIO": "GIU100-37-43", "GI_D_CLASE_SITIO": "NO SIGNIFICATIVO", "GI_D_ZSCORE_SITIO": 0.24237296765885585, "GI_D_PVALUE_SITIO": 0.8084911786855664, "GI_V_CELDAS_SITIO": "GIU100-37-43", "GI_V_CLASE_SITIO": "NO SIGNIFICATIVO", "GI_V_ZSCORE_SITIO": 0.7172272711759251, "GI_V_PVALUE_SITIO": 0.473233874702297, "DIST_RED_VIAL_CONTEXTO_M": 0.0, "VIA_CONTEXTO_CERCANA": "VELASCO", "PERDIDOS_D": 0, "GANADOS_D": 0, "TOTAL_CUBIERTO_D": 1783, "PERDIDOS_V": 0, "GANADOS_V": 0, "TOTAL_CUBIERTO_V": 989, "PERDIDOS_C": 0, "GANADOS_C": 0, "TOTAL_CUBIERTO_C": 4999, "OPCION": "ACTUAL", "ESTADO": "COMPARACION_NO_INCORPORADA", "RADIO_M": 200}, "geometry": {"type": "Point", "coordinates": [-78.65934383832672, -1.6616374860247993]}}, {"type": "Feature", "properties": {"ID_CANDIDATO": "CAND-POL-00491", "X": 757479.5180000002, "Y": 9818092.9015, "AMBITO_HOTSPOT": "URBANO", "NIVEL_DEL": 0, "NIVEL_VIOL": 99, "COINCIDENCIA_DV": false, "NIVEL_DEL_RESIDUAL": 0, "NIVEL_VIOL_RESIDUAL": 99, "NIVEL_DV_RESIDUAL": 0, "EVENTOS_D_NUEVOS": 8, "EVENTOS_V_NUEVOS": 6, "EVENTOS_DV_NUEVOS": 14, "EVENTOS_C_NUEVOS": 3, "AREA_HOTSPOT_D_NUEVA_M2": 0.0, "AREA_HOTSPOT_V_NUEVA_M2": 10835.189929016198, "COINCIDENCIA_DV_RESIDUAL_M2": 0.0, "ESTADO_HOTSPOT_DV_PREVIO": "SIN REMANENTE D/V", "SOLAPE_PREVIO_PCT": 7.530557971160855, "DIST_EXISTENTE_M": 795.5824824490035, "DIST_MUNICIPAL_M": 1633.942336586502, "DIST_POLICIA_M": 342.15694520310956, "UPC_CERCANA": "I0395", "NOMBRE_UPC": "24 DE MAYO", "DIST_UPC_M": 279.0781030198155, "INTERSECCION_O_NODO": "INTERSECCION_VIAL_URBANA", "GRADO_NODO": 3, "DIST_DESDE_POL20_M": 3505.9700015969283, "NUCLEOS99_ABANDONADOS": 0, "IDS_99_ABANDONADOS": "", "DV_ACTUALES_CONSERVADOS": 0, "MISMA_PLATAFORMA": false, "MENOR_SOLAPE_SIN_REDUCIR_DV": true, "PREFERIBLE": true, "PLATAFORMA": "PLATAFORMA C", "AREA_BUFFER_M2": 125651.0900372239, "AREA_SOLAPADA_M2": 9462.228176648667, "AREA_EXCLUSIVA_M2": 116188.86186057386, "APORTE_EXCLUSIVO_PCT": 92.46944202883805, "REDUNDANCIA": "BAJA", "POBLACION_ADICIONAL_ESTIMADA": 603.5897552742802, "POBLACION_ASOCIADA_ESTIMADA": 678.749441257279, "MANZANAS_ADICIONALES_VALIDAS": 24, "MANZANAS_ADICIONALES_SIN_POBLACION": 4, "POBLACION_ADICIONAL_PARCIAL": true, "POBLACION_ASOCIADA_PARCIAL": true, "CORREDOR_COINCIDENTE": null, "EXISTENTE_MENOS_200M": false, "MUNICIPAL_MENOS_200M": false, "POLICIA_MENOS_200M": false, "EXISTENTE_MENOS_300M": false, "MUNICIPAL_MENOS_300M": false, "POLICIA_MENOS_300M": false, "EXISTENTE_MENOS_400M": false, "MUNICIPAL_MENOS_400M": false, "POLICIA_MENOS_400M": true, "HOTSPOT_D": null, "HOTSPOTS_D_CON_APORTE": 0, "HOTSPOTS_D_PRIMERA_ATENCION": 0, "HOTSPOTS_D_COMPLETADOS": 0, "IDS_HOTSPOTS_D_CON_APORTE": null, "HOTSPOT_V": "GIU100-54-13|GIU100-54-14|GIU100-55-14|GIU100-55-15|GIU100-56-15", "HOTSPOTS_V_CON_APORTE": 4, "HOTSPOTS_V_PRIMERA_ATENCION": 0, "HOTSPOTS_V_COMPLETADOS": 0, "IDS_HOTSPOTS_V_CON_APORTE": "GIU100-54-13|GIU100-54-14|GIU100-55-14|GIU100-56-15", "GI_D_CELDAS_SITIO": "GIU100-56-13", "GI_D_CLASE_SITIO": "NO SIGNIFICATIVO", "GI_D_ZSCORE_SITIO": -0.38352879131154977, "GI_D_PVALUE_SITIO": 0.7013277268913749, "GI_V_CELDAS_SITIO": "GIU100-56-13", "GI_V_CLASE_SITIO": "NO SIGNIFICATIVO", "GI_V_ZSCORE_SITIO": 0.21283316955924406, "GI_V_PVALUE_SITIO": 0.8314570908517382, "DIST_RED_VIAL_CONTEXTO_M": 0.0, "VIA_CONTEXTO_CERCANA": "LIZARZABURU", "PERDIDOS_D": 7, "GANADOS_D": 8, "TOTAL_CUBIERTO_D": 1784, "PERDIDOS_V": 3, "GANADOS_V": 6, "TOTAL_CUBIERTO_V": 992, "PERDIDOS_C": 13, "GANADOS_C": 3, "TOTAL_CUBIERTO_C": 4989, "OPCION": "ALTERNATIVA_1", "ESTADO": "COMPARACION_NO_INCORPORADA", "RADIO_M": 200}, "geometry": {"type": "Point", "coordinates": [-78.68578232555879, -1.6444154618498878]}}, {"type": "Feature", "properties": {"ID_CANDIDATO": "CAND-POL-00484", "X": 757445.7490999997, "Y": 9818085.0288, "AMBITO_HOTSPOT": "URBANO", "NIVEL_DEL": 0, "NIVEL_VIOL": 99, "COINCIDENCIA_DV": false, "NIVEL_DEL_RESIDUAL": 0, "NIVEL_VIOL_RESIDUAL": 99, "NIVEL_DV_RESIDUAL": 0, "EVENTOS_D_NUEVOS": 7, "EVENTOS_V_NUEVOS": 7, "EVENTOS_DV_NUEVOS": 14, "EVENTOS_C_NUEVOS": 3, "AREA_HOTSPOT_D_NUEVA_M2": 0.0, "AREA_HOTSPOT_V_NUEVA_M2": 9756.490686116227, "COINCIDENCIA_DV_RESIDUAL_M2": 0.0, "ESTADO_HOTSPOT_DV_PREVIO": "SIN REMANENTE D/V", "SOLAPE_PREVIO_PCT": 5.944252982969608, "DIST_EXISTENTE_M": 820.1025404103285, "DIST_MUNICIPAL_M": 1668.2458165347887, "DIST_POLICIA_M": 364.72378902050855, "UPC_CERCANA": "I0395", "NOMBRE_UPC": "24 DE MAYO", "DIST_UPC_M": 297.7543501980998, "INTERSECCION_O_NODO": "INTERSECCION_VIAL_URBANA", "GRADO_NODO": 4, "DIST_DESDE_POL20_M": 3530.099208888285, "NUCLEOS99_ABANDONADOS": 0, "IDS_99_ABANDONADOS": "", "DV_ACTUALES_CONSERVADOS": 0, "MISMA_PLATAFORMA": false, "MENOR_SOLAPE_SIN_REDUCIR_DV": true, "PREFERIBLE": true, "PLATAFORMA": "PLATAFORMA C", "AREA_BUFFER_M2": 125651.0900372239, "AREA_SOLAPADA_M2": 7469.018667671509, "AREA_EXCLUSIVA_M2": 118182.07136955217, "APORTE_EXCLUSIVO_PCT": 94.05574701703021, "REDUNDANCIA": "BAJA", "POBLACION_ADICIONAL_ESTIMADA": 640.54799411527, "POBLACION_ASOCIADA_ESTIMADA": 688.0482285595664, "MANZANAS_ADICIONALES_VALIDAS": 24, "MANZANAS_ADICIONALES_SIN_POBLACION": 4, "POBLACION_ADICIONAL_PARCIAL": true, "POBLACION_ASOCIADA_PARCIAL": true, "CORREDOR_COINCIDENTE": null, "EXISTENTE_MENOS_200M": false, "MUNICIPAL_MENOS_200M": false, "POLICIA_MENOS_200M": false, "EXISTENTE_MENOS_300M": false, "MUNICIPAL_MENOS_300M": false, "POLICIA_MENOS_300M": false, "EXISTENTE_MENOS_400M": false, "MUNICIPAL_MENOS_400M": false, "POLICIA_MENOS_400M": true, "HOTSPOT_D": null, "HOTSPOTS_D_CON_APORTE": 0, "HOTSPOTS_D_PRIMERA_ATENCION": 0, "HOTSPOTS_D_COMPLETADOS": 0, "IDS_HOTSPOTS_D_CON_APORTE": null, "HOTSPOT_V": "GIU100-54-13|GIU100-54-14|GIU100-55-14|GIU100-55-15|GIU100-56-15", "HOTSPOTS_V_CON_APORTE": 4, "HOTSPOTS_V_PRIMERA_ATENCION": 0, "HOTSPOTS_V_COMPLETADOS": 0, "IDS_HOTSPOTS_V_CON_APORTE": "GIU100-54-13|GIU100-54-14|GIU100-55-14|GIU100-56-15", "GI_D_CELDAS_SITIO": "GIU100-56-13", "GI_D_CLASE_SITIO": "NO SIGNIFICATIVO", "GI_D_ZSCORE_SITIO": -0.38352879131154977, "GI_D_PVALUE_SITIO": 0.7013277268913749, "GI_V_CELDAS_SITIO": "GIU100-56-13", "GI_V_CLASE_SITIO": "NO SIGNIFICATIVO", "GI_V_ZSCORE_SITIO": 0.21283316955924406, "GI_V_PVALUE_SITIO": 0.8314570908517382, "DIST_RED_VIAL_CONTEXTO_M": 0.0, "VIA_CONTEXTO_CERCANA": "LIZARZABURU", "PERDIDOS_D": 7, "GANADOS_D": 7, "TOTAL_CUBIERTO_D": 1783, "PERDIDOS_V": 3, "GANADOS_V": 7, "TOTAL_CUBIERTO_V": 993, "PERDIDOS_C": 13, "GANADOS_C": 3, "TOTAL_CUBIERTO_C": 4989, "OPCION": "ALTERNATIVA_2", "ESTADO": "COMPARACION_NO_INCORPORADA", "RADIO_M": 200}, "geometry": {"type": "Point", "coordinates": [-78.68608559107867, -1.6444869835771854]}}, {"type": "Feature", "properties": {"ID_CANDIDATO": "CAND-POL-01023", "X": 759809.1161000002, "Y": 9817387.539, "AMBITO_HOTSPOT": "URBANO", "NIVEL_DEL": 99, "NIVEL_VIOL": 0, "COINCIDENCIA_DV": false, "NIVEL_DEL_RESIDUAL": 99, "NIVEL_VIOL_RESIDUAL": 0, "NIVEL_DV_RESIDUAL": 0, "EVENTOS_D_NUEVOS": 10, "EVENTOS_V_NUEVOS": 4, "EVENTOS_DV_NUEVOS": 14, "EVENTOS_C_NUEVOS": 21, "AREA_HOTSPOT_D_NUEVA_M2": 4413.22440600035, "AREA_HOTSPOT_V_NUEVA_M2": 0.0, "COINCIDENCIA_DV_RESIDUAL_M2": 0.0, "ESTADO_HOTSPOT_DV_PREVIO": "SIN REMANENTE D/V", "SOLAPE_PREVIO_PCT": 16.175541433696672, "DIST_EXISTENTE_M": 312.65276176734767, "DIST_MUNICIPAL_M": 1410.2603784538824, "DIST_POLICIA_M": 409.76214964415817, "UPC_CERCANA": "I0390", "NOMBRE_UPC": "CEMENTO CHIMBORAZO", "DIST_UPC_M": 499.9366226471837, "INTERSECCION_O_NODO": "INTERSECCION_VIAL_URBANA", "GRADO_NODO": 3, "DIST_DESDE_POL20_M": 1349.6308695851694, "NUCLEOS99_ABANDONADOS": 0, "IDS_99_ABANDONADOS": "", "DV_ACTUALES_CONSERVADOS": 0, "MISMA_PLATAFORMA": false, "MENOR_SOLAPE_SIN_REDUCIR_DV": true, "PREFERIBLE": true, "PLATAFORMA": "PLATAFORMA G", "AREA_BUFFER_M2": 125651.0900372239, "AREA_SOLAPADA_M2": 20324.744130862666, "AREA_EXCLUSIVA_M2": 105326.34590636211, "APORTE_EXCLUSIVO_PCT": 83.82445856630402, "REDUNDANCIA": "BAJA", "POBLACION_ADICIONAL_ESTIMADA": 1091.1781201860445, "POBLACION_ASOCIADA_ESTIMADA": 1275.2062629002517, "MANZANAS_ADICIONALES_VALIDAS": 22, "MANZANAS_ADICIONALES_SIN_POBLACION": 0, "POBLACION_ADICIONAL_PARCIAL": false, "POBLACION_ASOCIADA_PARCIAL": false, "CORREDOR_COINCIDENTE": null, "EXISTENTE_MENOS_200M": false, "MUNICIPAL_MENOS_200M": false, "POLICIA_MENOS_200M": false, "EXISTENTE_MENOS_300M": false, "MUNICIPAL_MENOS_300M": false, "POLICIA_MENOS_300M": false, "EXISTENTE_MENOS_400M": true, "MUNICIPAL_MENOS_400M": false, "POLICIA_MENOS_400M": false, "HOTSPOT_D": "GIU100-50-35|GIU100-51-35|GIU100-51-36", "HOTSPOTS_D_CON_APORTE": 2, "HOTSPOTS_D_PRIMERA_ATENCION": 0, "HOTSPOTS_D_COMPLETADOS": 1, "IDS_HOTSPOTS_D_CON_APORTE": "GIU100-50-35|GIU100-51-36", "HOTSPOT_V": null, "HOTSPOTS_V_CON_APORTE": 0, "HOTSPOTS_V_PRIMERA_ATENCION": 0, "HOTSPOTS_V_COMPLETADOS": 0, "IDS_HOTSPOTS_V_CON_APORTE": null, "GI_D_CELDAS_SITIO": "GIU100-49-37", "GI_D_CLASE_SITIO": "NO SIGNIFICATIVO", "GI_D_ZSCORE_SITIO": 0.11719261586477472, "GI_D_PVALUE_SITIO": 0.906707418284918, "GI_V_CELDAS_SITIO": "GIU100-49-37", "GI_V_CLASE_SITIO": "NO SIGNIFICATIVO", "GI_V_ZSCORE_SITIO": -0.291560932057437, "GI_V_PVALUE_SITIO": 0.7706223498147071, "DIST_RED_VIAL_CONTEXTO_M": 0.0, "VIA_CONTEXTO_CERCANA": "VELASCO", "PERDIDOS_D": 7, "GANADOS_D": 10, "TOTAL_CUBIERTO_D": 1786, "PERDIDOS_V": 3, "GANADOS_V": 4, "TOTAL_CUBIERTO_V": 990, "PERDIDOS_C": 13, "GANADOS_C": 21, "TOTAL_CUBIERTO_C": 5007, "OPCION": "ALTERNATIVA_3", "ESTADO": "COMPARACION_NO_INCORPORADA", "RADIO_M": 200}, "geometry": {"type": "Point", "coordinates": [-78.66484817178723, -1.6507671768701822]}}, {"type": "Feature", "properties": {"ID_CANDIDATO": "CAND-POL-01031", "X": 759838.2983999997, "Y": 9817353.1432, "AMBITO_HOTSPOT": "URBANO", "NIVEL_DEL": 99, "NIVEL_VIOL": 0, "COINCIDENCIA_DV": false, "NIVEL_DEL_RESIDUAL": 99, "NIVEL_VIOL_RESIDUAL": 0, "NIVEL_DV_RESIDUAL": 0, "EVENTOS_D_NUEVOS": 10, "EVENTOS_V_NUEVOS": 4, "EVENTOS_DV_NUEVOS": 14, "EVENTOS_C_NUEVOS": 24, "AREA_HOTSPOT_D_NUEVA_M2": 2980.475469177779, "AREA_HOTSPOT_V_NUEVA_M2": 0.0, "COINCIDENCIA_DV_RESIDUAL_M2": 0.0, "ESTADO_HOTSPOT_DV_PREVIO": "SIN REMANENTE D/V", "SOLAPE_PREVIO_PCT": 7.0312003797024225, "DIST_EXISTENTE_M": 357.6996639088828, "DIST_MUNICIPAL_M": 1451.6943278638294, "DIST_POLICIA_M": 440.93492428705605, "UPC_CERCANA": "I0390", "NOMBRE_UPC": "CEMENTO CHIMBORAZO", "DIST_UPC_M": 487.5275522153264, "INTERSECCION_O_NODO": "INTERSECCION_VIAL_URBANA", "GRADO_NODO": 4, "DIST_DESDE_POL20_M": 1305.789203319299, "NUCLEOS99_ABANDONADOS": 0, "IDS_99_ABANDONADOS": "", "DV_ACTUALES_CONSERVADOS": 0, "MISMA_PLATAFORMA": false, "MENOR_SOLAPE_SIN_REDUCIR_DV": true, "PREFERIBLE": true, "PLATAFORMA": "PLATAFORMA G", "AREA_BUFFER_M2": 125651.0900372239, "AREA_SOLAPADA_M2": 8834.77991979752, "AREA_EXCLUSIVA_M2": 116816.31011742787, "APORTE_EXCLUSIVO_PCT": 92.96879962029877, "REDUNDANCIA": "BAJA", "POBLACION_ADICIONAL_ESTIMADA": 1267.831377432182, "POBLACION_ASOCIADA_ESTIMADA": 1340.185485220453, "MANZANAS_ADICIONALES_VALIDAS": 21, "MANZANAS_ADICIONALES_SIN_POBLACION": 0, "POBLACION_ADICIONAL_PARCIAL": false, "POBLACION_ASOCIADA_PARCIAL": false, "CORREDOR_COINCIDENTE": null, "EXISTENTE_MENOS_200M": false, "MUNICIPAL_MENOS_200M": false, "POLICIA_MENOS_200M": false, "EXISTENTE_MENOS_300M": false, "MUNICIPAL_MENOS_300M": false, "POLICIA_MENOS_300M": false, "EXISTENTE_MENOS_400M": true, "MUNICIPAL_MENOS_400M": false, "POLICIA_MENOS_400M": false, "HOTSPOT_D": "GIU100-50-35|GIU100-51-36", "HOTSPOTS_D_CON_APORTE": 2, "HOTSPOTS_D_PRIMERA_ATENCION": 0, "HOTSPOTS_D_COMPLETADOS": 1, "IDS_HOTSPOTS_D_CON_APORTE": "GIU100-50-35|GIU100-51-36", "HOTSPOT_V": null, "HOTSPOTS_V_CON_APORTE": 0, "HOTSPOTS_V_PRIMERA_ATENCION": 0, "HOTSPOTS_V_COMPLETADOS": 0, "IDS_HOTSPOTS_V_CON_APORTE": null, "GI_D_CELDAS_SITIO": "GIU100-49-37", "GI_D_CLASE_SITIO": "NO SIGNIFICATIVO", "GI_D_ZSCORE_SITIO": 0.11719261586477472, "GI_D_PVALUE_SITIO": 0.906707418284918, "GI_V_CELDAS_SITIO": "GIU100-49-37", "GI_V_CLASE_SITIO": "NO SIGNIFICATIVO", "GI_V_ZSCORE_SITIO": -0.291560932057437, "GI_V_PVALUE_SITIO": 0.7706223498147071, "DIST_RED_VIAL_CONTEXTO_M": 0.0, "VIA_CONTEXTO_CERCANA": "VELASCO", "PERDIDOS_D": 7, "GANADOS_D": 10, "TOTAL_CUBIERTO_D": 1786, "PERDIDOS_V": 3, "GANADOS_V": 4, "TOTAL_CUBIERTO_V": 990, "PERDIDOS_C": 13, "GANADOS_C": 24, "TOTAL_CUBIERTO_C": 5010, "OPCION": "ALTERNATIVA_4", "ESTADO": "COMPARACION_NO_INCORPORADA", "RADIO_M": 200}, "geometry": {"type": "Point", "coordinates": [-78.66458566598858, -1.6510777937454186]}}, {"type": "Feature", "properties": {"ID_CANDIDATO": "CAND-POL-01020", "X": 759793.7855000002, "Y": 9817405.3632, "AMBITO_HOTSPOT": "URBANO", "NIVEL_DEL": 99, "NIVEL_VIOL": 0, "COINCIDENCIA_DV": false, "NIVEL_DEL_RESIDUAL": 99, "NIVEL_VIOL_RESIDUAL": 0, "NIVEL_DV_RESIDUAL": 0, "EVENTOS_D_NUEVOS": 10, "EVENTOS_V_NUEVOS": 3, "EVENTOS_DV_NUEVOS": 13, "EVENTOS_C_NUEVOS": 20, "AREA_HOTSPOT_D_NUEVA_M2": 4854.808551890331, "AREA_HOTSPOT_V_NUEVA_M2": 0.0, "COINCIDENCIA_DV_RESIDUAL_M2": 0.0, "ESTADO_HOTSPOT_DV_PREVIO": "SIN REMANENTE D/V", "SOLAPE_PREVIO_PCT": 21.703815783271377, "DIST_EXISTENTE_M": 289.1916517513833, "DIST_MUNICIPAL_M": 1388.8206662112214, "DIST_POLICIA_M": 394.70790219701445, "UPC_CERCANA": "I0390", "NOMBRE_UPC": "CEMENTO CHIMBORAZO", "DIST_UPC_M": 507.72609208427485, "INTERSECCION_O_NODO": "INTERSECCION_VIAL_URBANA", "GRADO_NODO": 4, "DIST_DESDE_POL20_M": 1372.4772663276283, "NUCLEOS99_ABANDONADOS": 0, "IDS_99_ABANDONADOS": "", "DV_ACTUALES_CONSERVADOS": 0, "MISMA_PLATAFORMA": false, "MENOR_SOLAPE_SIN_REDUCIR_DV": true, "PREFERIBLE": true, "PLATAFORMA": "PLATAFORMA G", "AREA_BUFFER_M2": 125651.0900372239, "AREA_SOLAPADA_M2": 27271.08111135153, "AREA_EXCLUSIVA_M2": 98380.0089258716, "APORTE_EXCLUSIVO_PCT": 78.29618421672802, "REDUNDANCIA": "BAJA", "POBLACION_ADICIONAL_ESTIMADA": 1006.9675563389852, "POBLACION_ASOCIADA_ESTIMADA": 1254.2715742641485, "MANZANAS_ADICIONALES_VALIDAS": 21, "MANZANAS_ADICIONALES_SIN_POBLACION": 0, "POBLACION_ADICIONAL_PARCIAL": false, "POBLACION_ASOCIADA_PARCIAL": false, "CORREDOR_COINCIDENTE": null, "EXISTENTE_MENOS_200M": false, "MUNICIPAL_MENOS_200M": false, "POLICIA_MENOS_200M": false, "EXISTENTE_MENOS_300M": true, "MUNICIPAL_MENOS_300M": false, "POLICIA_MENOS_300M": false, "EXISTENTE_MENOS_400M": true, "MUNICIPAL_MENOS_400M": false, "POLICIA_MENOS_400M": true, "HOTSPOT_D": "GIU100-50-35|GIU100-51-35|GIU100-51-36|GIU100-52-36|GIU100-52-37", "HOTSPOTS_D_CON_APORTE": 2, "HOTSPOTS_D_PRIMERA_ATENCION": 0, "HOTSPOTS_D_COMPLETADOS": 2, "IDS_HOTSPOTS_D_CON_APORTE": "GIU100-50-35|GIU100-51-36", "HOTSPOT_V": null, "HOTSPOTS_V_CON_APORTE": 0, "HOTSPOTS_V_PRIMERA_ATENCION": 0, "HOTSPOTS_V_COMPLETADOS": 0, "IDS_HOTSPOTS_V_CON_APORTE": null, "GI_D_CELDAS_SITIO": "GIU100-50-36", "GI_D_CLASE_SITIO": "NO SIGNIFICATIVO", "GI_D_ZSCORE_SITIO": 0.36755331945293696, "GI_D_PVALUE_SITIO": 0.713206327440809, "GI_V_CELDAS_SITIO": "GIU100-50-36", "GI_V_CLASE_SITIO": "NO SIGNIFICATIVO", "GI_V_ZSCORE_SITIO": -0.291560932057437, "GI_V_PVALUE_SITIO": 0.7706223498147071, "DIST_RED_VIAL_CONTEXTO_M": 0.0, "VIA_CONTEXTO_CERCANA": "VELASCO", "PERDIDOS_D": 7, "GANADOS_D": 10, "TOTAL_CUBIERTO_D": 1786, "PERDIDOS_V": 3, "GANADOS_V": 3, "TOTAL_CUBIERTO_V": 989, "PERDIDOS_C": 13, "GANADOS_C": 20, "TOTAL_CUBIERTO_C": 5006, "OPCION": "ALTERNATIVA_5", "ESTADO": "COMPARACION_NO_INCORPORADA", "RADIO_M": 200}, "geometry": {"type": "Point", "coordinates": [-78.66498607369037, -1.650606214677694]}}]}