{"type": "FeatureCollection", "features": [{"type": "Feature", "properties": {"ID_CANDIDATO": "CAND-POL-01204", "X": 760380.4082000004, "Y": 9816217.3441, "AMBITO_HOTSPOT": "URBANO", "NIVEL_DEL": 99, "NIVEL_VIOL": 99, "COINCIDENCIA_DV": true, "NIVEL_DEL_RESIDUAL": 99, "NIVEL_VIOL_RESIDUAL": 99, "NIVEL_DV_RESIDUAL": 99, "EVENTOS_D_NUEVOS": 7, "EVENTOS_V_NUEVOS": 3, "EVENTOS_DV_NUEVOS": 10, "EVENTOS_C_NUEVOS": 13, "AREA_HOTSPOT_D_NUEVA_M2": 21542.5171416707, "AREA_HOTSPOT_V_NUEVA_M2": 5688.514060965166, "COINCIDENCIA_DV_RESIDUAL_M2": 5688.514060965166, "ESTADO_HOTSPOT_DV_PREVIO": "PARCIALMENTE CUBIERTO", "SOLAPE_PREVIO_PCT": 69.3502049969498, "DIST_EXISTENTE_M": 159.48941473823956, "DIST_MUNICIPAL_M": 704.3603329139021, "DIST_POLICIA_M": 610.7754891408806, "UPC_CERCANA": "I0419", "NOMBRE_UPC": "TERMINAL TERRESTRE 1", "DIST_UPC_M": 352.902303205874, "INTERSECCION_O_NODO": "INTERSECCION_VIAL_URBANA", "GRADO_NODO": 3, "DIST_DESDE_POL20_M": 51.91334467785967, "NUCLEOS99_ABANDONADOS": 0, "IDS_99_ABANDONADOS": "", "DV_ACTUALES_CONSERVADOS": 10, "MISMA_PLATAFORMA": true, "MENOR_SOLAPE_SIN_REDUCIR_DV": true, "PREFERIBLE": false, "OPCION_COMPLEMENTARIA": "LOCAL_PLATAFORMA_I", "PLATAFORMA": "PLATAFORMA I", "AREA_BUFFER_M2": 125651.0900372239, "AREA_SOLAPADA_M2": 87139.28852171675, "AREA_EXCLUSIVA_M2": 38511.80151550764, "APORTE_EXCLUSIVO_PCT": 30.649795003050585, "REDUNDANCIA": "MEDIA", "POBLACION_ADICIONAL_ESTIMADA": 407.4177820172344, "POBLACION_ASOCIADA_ESTIMADA": 1505.6059319629833, "MANZANAS_ADICIONALES_VALIDAS": 13, "MANZANAS_ADICIONALES_SIN_POBLACION": 1, "POBLACION_ADICIONAL_PARCIAL": true, "POBLACION_ASOCIADA_PARCIAL": true, "CORREDOR_COINCIDENTE": null, "EXISTENTE_MENOS_200M": true, "MUNICIPAL_MENOS_200M": false, "POLICIA_MENOS_200M": false, "EXISTENTE_MENOS_300M": true, "MUNICIPAL_MENOS_300M": false, "POLICIA_MENOS_300M": false, "EXISTENTE_MENOS_400M": true, "MUNICIPAL_MENOS_400M": false, "POLICIA_MENOS_400M": false, "HOTSPOT_D": "GIU100-36-41|GIU100-36-42|GIU100-36-43|GIU100-37-40|GIU100-37-41|GIU100-37-42|GIU100-38-40", "HOTSPOTS_D_CON_APORTE": 5, "HOTSPOTS_D_PRIMERA_ATENCION": 0, "HOTSPOTS_D_COMPLETADOS": 2, "IDS_HOTSPOTS_D_CON_APORTE": "GIU100-36-42|GIU100-36-41|GIU100-36-43|GIU100-37-41|GIU100-37-42", "HOTSPOT_V": "GIU100-36-41|GIU100-37-40|GIU100-37-41", "HOTSPOTS_V_CON_APORTE": 2, "HOTSPOTS_V_PRIMERA_ATENCION": 0, "HOTSPOTS_V_COMPLETADOS": 1, "IDS_HOTSPOTS_V_CON_APORTE": "GIU100-36-41|GIU100-37-41", "GI_D_CELDAS_SITIO": "GIU100-38-42", "GI_D_CLASE_SITIO": "NO SIGNIFICATIVO", "GI_D_ZSCORE_SITIO": -0.007987735929306395, "GI_D_PVALUE_SITIO": 0.9936267765990865, "GI_V_CELDAS_SITIO": "GIU100-38-42", "GI_V_CLASE_SITIO": "NO SIGNIFICATIVO", "GI_V_ZSCORE_SITIO": 0.21283316955924406, "GI_V_PVALUE_SITIO": 0.8314570908517382, "DIST_RED_VIAL_CONTEXTO_M": 0.0, "VIA_CONTEXTO_CERCANA": "VELASCO", "PERDIDOS_D": 0, "GANADOS_D": 0, "TOTAL_CUBIERTO_D": 1783, "PERDIDOS_V": 0, "GANADOS_V": 0, "TOTAL_CUBIERTO_V": 989, "PERDIDOS_C": 0, "GANADOS_C": 0, "TOTAL_CUBIERTO_C": 4999, "OPCION": "LOCAL_PLATAFORMA_I", "ESTADO": "COMPARACION_NO_INCORPORADA", "RADIO_M": 200}, "geometry": {"type": "Point", "coordinates": [-78.65970388450296, -1.6613392452943387]}}, {"type": "Feature", "properties": {"ID_CANDIDATO": "CAND-POL-01214", "X": 760410.0800999999, "Y": 9816211.6536, "AMBITO_HOTSPOT": "URBANO", "NIVEL_DEL": 99, "NIVEL_VIOL": 99, "COINCIDENCIA_DV": true, "NIVEL_DEL_RESIDUAL": 99, "NIVEL_VIOL_RESIDUAL": 99, "NIVEL_DV_RESIDUAL": 99, "EVENTOS_D_NUEVOS": 7, "EVENTOS_V_NUEVOS": 3, "EVENTOS_DV_NUEVOS": 10, "EVENTOS_C_NUEVOS": 13, "AREA_HOTSPOT_D_NUEVA_M2": 20357.63717679719, "AREA_HOTSPOT_V_NUEVA_M2": 3980.7623603584125, "COINCIDENCIA_DV_RESIDUAL_M2": 3980.7623603584125, "ESTADO_HOTSPOT_DV_PREVIO": "PARCIALMENTE CUBIERTO", "SOLAPE_PREVIO_PCT": 68.93751676128682, "DIST_EXISTENTE_M": 184.87174210941302, "DIST_MUNICIPAL_M": 694.412100173818, "DIST_POLICIA_M": 640.7154113750681, "UPC_CERCANA": "I0419", "NOMBRE_UPC": "TERMINAL TERRESTRE 1", "DIST_UPC_M": 380.95578370870305, "INTERSECCION_O_NODO": "INTERSECCION_VIAL_URBANA", "GRADO_NODO": 3, "DIST_DESDE_POL20_M": 29.249479487307127, "NUCLEOS99_ABANDONADOS": 0, "IDS_99_ABANDONADOS": "", "DV_ACTUALES_CONSERVADOS": 10, "MISMA_PLATAFORMA": true, "MENOR_SOLAPE_SIN_REDUCIR_DV": true, "PREFERIBLE": false, "OPCION_COMPLEMENTARIA": "MEJORA_MAS_CERCANA", "PLATAFORMA": "PLATAFORMA I", "AREA_BUFFER_M2": 125651.0900372239, "AREA_SOLAPADA_M2": 86620.7412551508, "AREA_EXCLUSIVA_M2": 39030.34878207425, "APORTE_EXCLUSIVO_PCT": 31.062483238714112, "REDUNDANCIA": "MEDIA", "POBLACION_ADICIONAL_ESTIMADA": 429.95404274414443, "POBLACION_ASOCIADA_ESTIMADA": 1499.2915776795758, "MANZANAS_ADICIONALES_VALIDAS": 13, "MANZANAS_ADICIONALES_SIN_POBLACION": 1, "POBLACION_ADICIONAL_PARCIAL": true, "POBLACION_ASOCIADA_PARCIAL": true, "CORREDOR_COINCIDENTE": null, "EXISTENTE_MENOS_200M": true, "MUNICIPAL_MENOS_200M": false, "POLICIA_MENOS_200M": false, "EXISTENTE_MENOS_300M": true, "MUNICIPAL_MENOS_300M": false, "POLICIA_MENOS_300M": false, "EXISTENTE_MENOS_400M": true, "MUNICIPAL_MENOS_400M": false, "POLICIA_MENOS_400M": false, "HOTSPOT_D": "GIU100-36-41|GIU100-36-42|GIU100-36-43|GIU100-37-41|GIU100-37-42", "HOTSPOTS_D_CON_APORTE": 5, "HOTSPOTS_D_PRIMERA_ATENCION": 0, "HOTSPOTS_D_COMPLETADOS": 1, "IDS_HOTSPOTS_D_CON_APORTE": "GIU100-36-42|GIU100-36-41|GIU100-36-43|GIU100-37-41|GIU100-37-42", "HOTSPOT_V": "GIU100-36-41|GIU100-37-41", "HOTSPOTS_V_CON_APORTE": 2, "HOTSPOTS_V_PRIMERA_ATENCION": 0, "HOTSPOTS_V_COMPLETADOS": 0, "IDS_HOTSPOTS_V_CON_APORTE": "GIU100-36-41|GIU100-37-41", "GI_D_CELDAS_SITIO": "GIU100-38-43", "GI_D_CLASE_SITIO": "NO SIGNIFICATIVO", "GI_D_ZSCORE_SITIO": 0.4927336712470181, "GI_D_PVALUE_SITIO": 0.6222007828275676, "GI_V_CELDAS_SITIO": "GIU100-38-43", "GI_V_CLASE_SITIO": "NO SIGNIFICATIVO", "GI_V_ZSCORE_SITIO": 0.21283316955924406, "GI_V_PVALUE_SITIO": 0.8314570908517382, "DIST_RED_VIAL_CONTEXTO_M": 0.0, "VIA_CONTEXTO_CERCANA": "VELASCO", "PERDIDOS_D": 0, "GANADOS_D": 0, "TOTAL_CUBIERTO_D": 1783, "PERDIDOS_V": 0, "GANADOS_V": 0, "TOTAL_CUBIERTO_V": 989, "PERDIDOS_C": 0, "GANADOS_C": 0, "TOTAL_CUBIERTO_C": 4999, "OPCION": "MEJORA_MAS_CERCANA", "ESTADO": "COMPARACION_NO_INCORPORADA", "RADIO_M": 200}, "geometry": {"type": "Point", "coordinates": [-78.65943728269471, -1.6613903675315265]}}]}