{"type": "FeatureCollection", "features": [{"type": "Feature", "properties": {"ID_CANDIDATO": "CAND-POL-01014", "X": 759770.4501, "Y": 9816248.9323, "AMBITO_HOTSPOT": "URBANO", "NIVEL_DEL": 99, "NIVEL_VIOL": 99, "COINCIDENCIA_DV": true, "NIVEL_DEL_RESIDUAL": 99, "NIVEL_VIOL_RESIDUAL": 99, "NIVEL_DV_RESIDUAL": 99, "EVENTOS_D_NUEVOS": 10, "EVENTOS_V_NUEVOS": 1, "EVENTOS_DV_NUEVOS": 11, "EVENTOS_C_NUEVOS": 12, "AREA_HOTSPOT_D_NUEVA_M2": 5922.162755457357, "AREA_HOTSPOT_V_NUEVA_M2": 9544.864243003365, "COINCIDENCIA_DV_RESIDUAL_M2": 5922.162755457357, "ESTADO_HOTSPOT_DV_PREVIO": "PARCIALMENTE CUBIERTO", "SOLAPE_PREVIO_PCT": 60.576496422738764, "DIST_EXISTENTE_M": 194.74980819619358, "DIST_MUNICIPAL_M": 525.3094514081238, "DIST_POLICIA_M": 524.1850448077413, "UPC_CERCANA": "I0419", "NOMBRE_UPC": "TERMINAL TERRESTRE 1", "DIST_UPC_M": 284.23339401462295, "INTERSECCION_O_NODO": "INTERSECCION_VIAL_URBANA", "GRADO_NODO": 3, "DIST_DESDE_POL12_M": 0.0, "NUCLEOS99_ABANDONADOS": 0, "IDS_99_ABANDONADOS": "", "PREFERIBLE": false, "MENOR_SOLAPE_SIN_REDUCIR_DV": false, "DV_ACTUALES_CONSERVADOS": 11, "MISMA_PLATAFORMA": true, "PLATAFORMA": "PLATAFORMA H", "AREA_BUFFER_M2": 125651.0900372239, "AREA_SOLAPADA_M2": 76115.0280615312, "AREA_EXCLUSIVA_M2": 49536.06197569149, "APORTE_EXCLUSIVO_PCT": 39.42350357726027, "REDUNDANCIA": "MEDIA", "POBLACION_ADICIONAL_ESTIMADA": 175.2102685076042, "POBLACION_ASOCIADA_ESTIMADA": 508.30037285144243, "MANZANAS_ADICIONALES_VALIDAS": 8, "MANZANAS_ADICIONALES_SIN_POBLACION": 1, "POBLACION_ADICIONAL_PARCIAL": true, "POBLACION_ASOCIADA_PARCIAL": true, "CORREDOR_COINCIDENTE": null, "EXISTENTE_MENOS_200M": true, "MUNICIPAL_MENOS_200M": false, "POLICIA_MENOS_200M": false, "EXISTENTE_MENOS_300M": true, "MUNICIPAL_MENOS_300M": false, "POLICIA_MENOS_300M": false, "EXISTENTE_MENOS_400M": true, "MUNICIPAL_MENOS_400M": false, "POLICIA_MENOS_400M": false, "HOTSPOT_D": "GIU100-36-37|GIU100-36-38|GIU100-37-37|GIU100-37-38|GIU100-38-38", "HOTSPOTS_D_CON_APORTE": 2, "HOTSPOTS_D_PRIMERA_ATENCION": 0, "HOTSPOTS_D_COMPLETADOS": 1, "IDS_HOTSPOTS_D_CON_APORTE": "GIU100-36-37|GIU100-37-37", "HOTSPOT_V": "GIU100-36-36|GIU100-36-37|GIU100-36-38|GIU100-37-37|GIU100-37-38", "HOTSPOTS_V_CON_APORTE": 3, "HOTSPOTS_V_PRIMERA_ATENCION": 0, "HOTSPOTS_V_COMPLETADOS": 1, "IDS_HOTSPOTS_V_CON_APORTE": "GIU100-36-37|GIU100-36-36|GIU100-37-37", "GI_D_CELDAS_SITIO": "GIU100-38-36", "GI_D_CLASE_SITIO": "NO SIGNIFICATIVO", "GI_D_ZSCORE_SITIO": 0.11719261586477472, "GI_D_PVALUE_SITIO": 0.906707418284918, "GI_V_CELDAS_SITIO": "GIU100-38-36", "GI_V_CLASE_SITIO": "NO SIGNIFICATIVO", "GI_V_ZSCORE_SITIO": 0.46503022036758457, "GI_V_PVALUE_SITIO": 0.6419098152571237, "DIST_RED_VIAL_CONTEXTO_M": 0.0, "VIA_CONTEXTO_CERCANA": "LIZARZABURU", "PERDIDOS_D": 0, "GANADOS_D": 0, "TOTAL_CUBIERTO_D": 1785, "PERDIDOS_V": 0, "GANADOS_V": 0, "TOTAL_CUBIERTO_V": 989, "PERDIDOS_C": 0, "GANADOS_C": 0, "TOTAL_CUBIERTO_C": 5009, "OPCION": "ACTUAL", "ESTADO": "COMPARACION_NO_INCORPORADA", "RADIO_M": 200}, "geometry": {"type": "Point", "coordinates": [-78.66518345511977, -1.6610602236911556]}}, {"type": "Feature", "properties": {"ID_CANDIDATO": "CAND-POL-00419", "X": 757018.7474999996, "Y": 9816825.7813, "AMBITO_HOTSPOT": "URBANO", "NIVEL_DEL": 0, "NIVEL_VIOL": 99, "COINCIDENCIA_DV": false, "NIVEL_DEL_RESIDUAL": 0, "NIVEL_VIOL_RESIDUAL": 95, "NIVEL_DV_RESIDUAL": 0, "EVENTOS_D_NUEVOS": 10, "EVENTOS_V_NUEVOS": 3, "EVENTOS_DV_NUEVOS": 13, "EVENTOS_C_NUEVOS": 12, "AREA_HOTSPOT_D_NUEVA_M2": 0.0, "AREA_HOTSPOT_V_NUEVA_M2": 316.66663737515063, "COINCIDENCIA_DV_RESIDUAL_M2": 0.0, "ESTADO_HOTSPOT_DV_PREVIO": "SIN REMANENTE D/V", "SOLAPE_PREVIO_PCT": 4.61953358260437, "DIST_EXISTENTE_M": 535.0012923276522, "DIST_MUNICIPAL_M": 1063.3032419231722, "DIST_POLICIA_M": 353.84944801494703, "UPC_CERCANA": "I0395", "NOMBRE_UPC": "24 DE MAYO", "DIST_UPC_M": 1245.4484492148213, "INTERSECCION_O_NODO": "INTERSECCION_VIAL_URBANA", "GRADO_NODO": 3, "DIST_DESDE_POL12_M": 2811.51595543252, "NUCLEOS99_ABANDONADOS": 0, "IDS_99_ABANDONADOS": "", "DV_ACTUALES_CONSERVADOS": 0, "MISMA_PLATAFORMA": false, "MENOR_SOLAPE_SIN_REDUCIR_DV": true, "PREFERIBLE": true, "PLATAFORMA": "PLATAFORMA D", "AREA_BUFFER_M2": 125651.0900372239, "AREA_SOLAPADA_M2": 5804.4943011780115, "AREA_EXCLUSIVA_M2": 119846.59573604606, "APORTE_EXCLUSIVO_PCT": 95.38046641739577, "REDUNDANCIA": "BAJA", "POBLACION_ADICIONAL_ESTIMADA": 701.954425949193, "POBLACION_ASOCIADA_ESTIMADA": 740.3035562086291, "MANZANAS_ADICIONALES_VALIDAS": 17, "MANZANAS_ADICIONALES_SIN_POBLACION": 1, "POBLACION_ADICIONAL_PARCIAL": true, "POBLACION_ASOCIADA_PARCIAL": true, "CORREDOR_COINCIDENTE": null, "EXISTENTE_MENOS_200M": false, "MUNICIPAL_MENOS_200M": false, "POLICIA_MENOS_200M": false, "EXISTENTE_MENOS_300M": false, "MUNICIPAL_MENOS_300M": false, "POLICIA_MENOS_300M": false, "EXISTENTE_MENOS_400M": false, "MUNICIPAL_MENOS_400M": false, "POLICIA_MENOS_400M": true, "HOTSPOT_D": null, "HOTSPOTS_D_CON_APORTE": 0, "HOTSPOTS_D_PRIMERA_ATENCION": 0, "HOTSPOTS_D_COMPLETADOS": 0, "IDS_HOTSPOTS_D_CON_APORTE": null, "HOTSPOT_V": "GIU100-46-10|GIU100-46-9", "HOTSPOTS_V_CON_APORTE": 1, "HOTSPOTS_V_PRIMERA_ATENCION": 0, "HOTSPOTS_V_COMPLETADOS": 0, "IDS_HOTSPOTS_V_CON_APORTE": "GIU100-46-9", "GI_D_CELDAS_SITIO": "GIU100-44-9", "GI_D_CLASE_SITIO": "NO SIGNIFICATIVO", "GI_D_ZSCORE_SITIO": -1.1346109020760364, "GI_D_PVALUE_SITIO": 0.2565383832295744, "GI_V_CELDAS_SITIO": "GIU100-44-9", "GI_V_CLASE_SITIO": "NO SIGNIFICATIVO", "GI_V_ZSCORE_SITIO": -1.0481520844824586, "GI_V_PVALUE_SITIO": 0.2945685426004831, "DIST_RED_VIAL_CONTEXTO_M": 0.0, "VIA_CONTEXTO_CERCANA": "LIZARZABURU", "PERDIDOS_D": 10, "GANADOS_D": 10, "TOTAL_CUBIERTO_D": 1785, "PERDIDOS_V": 1, "GANADOS_V": 3, "TOTAL_CUBIERTO_V": 991, "PERDIDOS_C": 12, "GANADOS_C": 12, "TOTAL_CUBIERTO_C": 5009, "OPCION": "ALTERNATIVA_1", "ESTADO": "COMPARACION_NO_INCORPORADA", "RADIO_M": 200}, "geometry": {"type": "Point", "coordinates": [-78.689908230058, -1.6558748472882532]}}, {"type": "Feature", "properties": {"ID_CANDIDATO": "CAND-POL-00588", "X": 757896.7298999997, "Y": 9816475.2386, "AMBITO_HOTSPOT": "URBANO", "NIVEL_DEL": 95, "NIVEL_VIOL": 0, "COINCIDENCIA_DV": false, "NIVEL_DEL_RESIDUAL": 95, "NIVEL_VIOL_RESIDUAL": 0, "NIVEL_DV_RESIDUAL": 0, "EVENTOS_D_NUEVOS": 24, "EVENTOS_V_NUEVOS": 10, "EVENTOS_DV_NUEVOS": 34, "EVENTOS_C_NUEVOS": 48, "AREA_HOTSPOT_D_NUEVA_M2": 36334.24676285396, "AREA_HOTSPOT_V_NUEVA_M2": 0.0, "COINCIDENCIA_DV_RESIDUAL_M2": 0.0, "ESTADO_HOTSPOT_DV_PREVIO": "SIN REMANENTE D/V", "SOLAPE_PREVIO_PCT": 0.0, "DIST_EXISTENTE_M": 834.3489833167224, "DIST_MUNICIPAL_M": 1808.388291788695, "DIST_POLICIA_M": 552.1157372721451, "UPC_CERCANA": "I0395", "NOMBRE_UPC": "24 DE MAYO", "DIST_UPC_M": 1431.0034873378133, "INTERSECCION_O_NODO": "INTERSECCION_VIAL_URBANA", "GRADO_NODO": 3, "DIST_DESDE_POL12_M": 1887.3372590264628, "NUCLEOS99_ABANDONADOS": 0, "IDS_99_ABANDONADOS": "", "DV_ACTUALES_CONSERVADOS": 0, "MISMA_PLATAFORMA": false, "MENOR_SOLAPE_SIN_REDUCIR_DV": false, "PREFERIBLE": false, "PLATAFORMA": "PLATAFORMA D", "AREA_BUFFER_M2": 125651.0900372239, "AREA_SOLAPADA_M2": 0.0, "AREA_EXCLUSIVA_M2": 125651.09003722394, "APORTE_EXCLUSIVO_PCT": 100.00000000000003, "REDUNDANCIA": "BAJA", "POBLACION_ADICIONAL_ESTIMADA": 1588.3680030335804, "POBLACION_ASOCIADA_ESTIMADA": 1588.3680030335804, "MANZANAS_ADICIONALES_VALIDAS": 23, "MANZANAS_ADICIONALES_SIN_POBLACION": 0, "POBLACION_ADICIONAL_PARCIAL": false, "POBLACION_ASOCIADA_PARCIAL": false, "CORREDOR_COINCIDENTE": null, "EXISTENTE_MENOS_200M": false, "MUNICIPAL_MENOS_200M": false, "POLICIA_MENOS_200M": false, "EXISTENTE_MENOS_300M": false, "MUNICIPAL_MENOS_300M": false, "POLICIA_MENOS_300M": false, "EXISTENTE_MENOS_400M": false, "MUNICIPAL_MENOS_400M": false, "POLICIA_MENOS_400M": false, "HOTSPOT_D": "GIU100-38-18|GIU100-39-17|GIU100-39-19|GIU100-40-18|GIU100-41-17", "HOTSPOTS_D_CON_APORTE": 5, "HOTSPOTS_D_PRIMERA_ATENCION": 5, "HOTSPOTS_D_COMPLETADOS": 2, "IDS_HOTSPOTS_D_CON_APORTE": "GIU100-38-18|GIU100-39-17|GIU100-39-19|GIU100-40-18|GIU100-41-17", "HOTSPOT_V": null, "HOTSPOTS_V_CON_APORTE": 0, "HOTSPOTS_V_PRIMERA_ATENCION": 0, "HOTSPOTS_V_COMPLETADOS": 0, "IDS_HOTSPOTS_V_CON_APORTE": null, "GI_D_CELDAS_SITIO": "GIU100-40-17", "GI_D_CLASE_SITIO": "NO SIGNIFICATIVO", "GI_D_ZSCORE_SITIO": 1.494176485599667, "GI_D_PVALUE_SITIO": 0.13512949690601483, "GI_V_CELDAS_SITIO": "GIU100-40-17", "GI_V_CLASE_SITIO": "NO SIGNIFICATIVO", "GI_V_ZSCORE_SITIO": 1.2216213727926062, "GI_V_PVALUE_SITIO": 0.2218508424270195, "DIST_RED_VIAL_CONTEXTO_M": 0.0, "VIA_CONTEXTO_CERCANA": "LIZARZABURU", "PERDIDOS_D": 10, "GANADOS_D": 24, "TOTAL_CUBIERTO_D": 1799, "PERDIDOS_V": 1, "GANADOS_V": 10, "TOTAL_CUBIERTO_V": 998, "PERDIDOS_C": 12, "GANADOS_C": 48, "TOTAL_CUBIERTO_C": 5045, "OPCION": "ALTERNATIVA_2", "ESTADO": "COMPARACION_NO_INCORPORADA", "RADIO_M": 200}, "geometry": {"type": "Point", "coordinates": [-78.68201754309251, -1.6590344101204142]}}, {"type": "Feature", "properties": {"ID_CANDIDATO": "CAND-POL-00575", "X": 757855.2758999998, "Y": 9816314.2213, "AMBITO_HOTSPOT": "URBANO", "NIVEL_DEL": 95, "NIVEL_VIOL": 0, "COINCIDENCIA_DV": false, "NIVEL_DEL_RESIDUAL": 95, "NIVEL_VIOL_RESIDUAL": 0, "NIVEL_DV_RESIDUAL": 0, "EVENTOS_D_NUEVOS": 23, "EVENTOS_V_NUEVOS": 10, "EVENTOS_DV_NUEVOS": 33, "EVENTOS_C_NUEVOS": 55, "AREA_HOTSPOT_D_NUEVA_M2": 34760.82018898821, "AREA_HOTSPOT_V_NUEVA_M2": 0.0, "COINCIDENCIA_DV_RESIDUAL_M2": 0.0, "ESTADO_HOTSPOT_DV_PREVIO": "SIN REMANENTE D/V", "SOLAPE_PREVIO_PCT": 0.0, "DIST_EXISTENTE_M": 826.0230467224784, "DIST_MUNICIPAL_M": 1791.058141270571, "DIST_POLICIA_M": 560.2916702927918, "UPC_CERCANA": "I0395", "NOMBRE_UPC": "24 DE MAYO", "DIST_UPC_M": 1584.7695776843289, "INTERSECCION_O_NODO": "INTERSECCION_VIAL_URBANA", "GRADO_NODO": 3, "DIST_DESDE_POL12_M": 1916.2867399916095, "NUCLEOS99_ABANDONADOS": 0, "IDS_99_ABANDONADOS": "", "DV_ACTUALES_CONSERVADOS": 0, "MISMA_PLATAFORMA": false, "MENOR_SOLAPE_SIN_REDUCIR_DV": false, "PREFERIBLE": false, "PLATAFORMA": "PLATAFORMA D", "AREA_BUFFER_M2": 125651.0900372239, "AREA_SOLAPADA_M2": 0.0, "AREA_EXCLUSIVA_M2": 125651.09003722394, "APORTE_EXCLUSIVO_PCT": 100.00000000000003, "REDUNDANCIA": "BAJA", "POBLACION_ADICIONAL_ESTIMADA": 1615.8129214584596, "POBLACION_ASOCIADA_ESTIMADA": 1615.8129214584596, "MANZANAS_ADICIONALES_VALIDAS": 20, "MANZANAS_ADICIONALES_SIN_POBLACION": 0, "POBLACION_ADICIONAL_PARCIAL": false, "POBLACION_ASOCIADA_PARCIAL": false, "CORREDOR_COINCIDENTE": null, "EXISTENTE_MENOS_200M": false, "MUNICIPAL_MENOS_200M": false, "POLICIA_MENOS_200M": false, "EXISTENTE_MENOS_300M": false, "MUNICIPAL_MENOS_300M": false, "POLICIA_MENOS_300M": false, "EXISTENTE_MENOS_400M": false, "MUNICIPAL_MENOS_400M": false, "POLICIA_MENOS_400M": false, "HOTSPOT_D": "GIU100-38-18|GIU100-39-17|GIU100-39-19|GIU100-40-18|GIU100-41-17", "HOTSPOTS_D_CON_APORTE": 5, "HOTSPOTS_D_PRIMERA_ATENCION": 5, "HOTSPOTS_D_COMPLETADOS": 2, "IDS_HOTSPOTS_D_CON_APORTE": "GIU100-38-18|GIU100-39-17|GIU100-39-19|GIU100-40-18|GIU100-41-17", "HOTSPOT_V": null, "HOTSPOTS_V_CON_APORTE": 0, "HOTSPOTS_V_PRIMERA_ATENCION": 0, "HOTSPOTS_V_COMPLETADOS": 0, "IDS_HOTSPOTS_V_CON_APORTE": null, "GI_D_CELDAS_SITIO": "GIU100-39-17", "GI_D_CLASE_SITIO": "HOTSPOT 90%", "GI_D_ZSCORE_SITIO": 1.8697175409819105, "GI_D_PVALUE_SITIO": 0.06152305234929761, "GI_V_CELDAS_SITIO": "GIU100-39-17", "GI_V_CLASE_SITIO": "NO SIGNIFICATIVO", "GI_V_ZSCORE_SITIO": 1.2216213727926062, "GI_V_PVALUE_SITIO": 0.2218508424270195, "DIST_RED_VIAL_CONTEXTO_M": 0.0, "VIA_CONTEXTO_CERCANA": "LIZARZABURU", "PERDIDOS_D": 10, "GANADOS_D": 23, "TOTAL_CUBIERTO_D": 1798, "PERDIDOS_V": 1, "GANADOS_V": 10, "TOTAL_CUBIERTO_V": 998, "PERDIDOS_C": 12, "GANADOS_C": 55, "TOTAL_CUBIERTO_C": 5052, "OPCION": "ALTERNATIVA_3", "ESTADO": "COMPARACION_NO_INCORPORADA", "RADIO_M": 200}, "geometry": {"type": "Point", "coordinates": [-78.68238823235926, -1.660490411366545]}}, {"type": "Feature", "properties": {"ID_CANDIDATO": "CAND-POL-00573", "X": 757852.0679000001, "Y": 9816334.3301, "AMBITO_HOTSPOT": "URBANO", "NIVEL_DEL": 95, "NIVEL_VIOL": 0, "COINCIDENCIA_DV": false, "NIVEL_DEL_RESIDUAL": 95, "NIVEL_VIOL_RESIDUAL": 0, "NIVEL_DV_RESIDUAL": 0, "EVENTOS_D_NUEVOS": 23, "EVENTOS_V_NUEVOS": 9, "EVENTOS_DV_NUEVOS": 32, "EVENTOS_C_NUEVOS": 49, "AREA_HOTSPOT_D_NUEVA_M2": 37639.14432305904, "AREA_HOTSPOT_V_NUEVA_M2": 0.0, "COINCIDENCIA_DV_RESIDUAL_M2": 0.0, "ESTADO_HOTSPOT_DV_PREVIO": "SIN REMANENTE D/V", "SOLAPE_PREVIO_PCT": 0.0, "DIST_EXISTENTE_M": 833.4113507639252, "DIST_MUNICIPAL_M": 1800.3452686748567, "DIST_POLICIA_M": 564.9210416677945, "UPC_CERCANA": "I0395", "NOMBRE_UPC": "24 DE MAYO", "DIST_UPC_M": 1564.423313405739, "INTERSECCION_O_NODO": "INTERSECCION_VIAL_URBANA", "GRADO_NODO": 3, "DIST_DESDE_POL12_M": 1920.2820234333474, "NUCLEOS99_ABANDONADOS": 0, "IDS_99_ABANDONADOS": "", "DV_ACTUALES_CONSERVADOS": 0, "MISMA_PLATAFORMA": false, "MENOR_SOLAPE_SIN_REDUCIR_DV": false, "PREFERIBLE": false, "PLATAFORMA": "PLATAFORMA D", "AREA_BUFFER_M2": 125651.0900372239, "AREA_SOLAPADA_M2": 0.0, "AREA_EXCLUSIVA_M2": 125651.09003722394, "APORTE_EXCLUSIVO_PCT": 100.00000000000003, "REDUNDANCIA": "BAJA", "POBLACION_ADICIONAL_ESTIMADA": 1585.6428431185814, "POBLACION_ASOCIADA_ESTIMADA": 1585.6428431185814, "MANZANAS_ADICIONALES_VALIDAS": 19, "MANZANAS_ADICIONALES_SIN_POBLACION": 0, "POBLACION_ADICIONAL_PARCIAL": false, "POBLACION_ASOCIADA_PARCIAL": false, "CORREDOR_COINCIDENTE": null, "EXISTENTE_MENOS_200M": false, "MUNICIPAL_MENOS_200M": false, "POLICIA_MENOS_200M": false, "EXISTENTE_MENOS_300M": false, "MUNICIPAL_MENOS_300M": false, "POLICIA_MENOS_300M": false, "EXISTENTE_MENOS_400M": false, "MUNICIPAL_MENOS_400M": false, "POLICIA_MENOS_400M": false, "HOTSPOT_D": "GIU100-38-18|GIU100-39-17|GIU100-39-19|GIU100-40-18|GIU100-41-17", "HOTSPOTS_D_CON_APORTE": 5, "HOTSPOTS_D_PRIMERA_ATENCION": 5, "HOTSPOTS_D_COMPLETADOS": 2, "IDS_HOTSPOTS_D_CON_APORTE": "GIU100-38-18|GIU100-39-17|GIU100-39-19|GIU100-40-18|GIU100-41-17", "HOTSPOT_V": null, "HOTSPOTS_V_CON_APORTE": 0, "HOTSPOTS_V_PRIMERA_ATENCION": 0, "HOTSPOTS_V_COMPLETADOS": 0, "IDS_HOTSPOTS_V_CON_APORTE": null, "GI_D_CELDAS_SITIO": "GIU100-39-17", "GI_D_CLASE_SITIO": "HOTSPOT 90%", "GI_D_ZSCORE_SITIO": 1.8697175409819105, "GI_D_PVALUE_SITIO": 0.06152305234929761, "GI_V_CELDAS_SITIO": "GIU100-39-17", "GI_V_CLASE_SITIO": "NO SIGNIFICATIVO", "GI_V_ZSCORE_SITIO": 1.2216213727926062, "GI_V_PVALUE_SITIO": 0.2218508424270195, "DIST_RED_VIAL_CONTEXTO_M": 0.0, "VIA_CONTEXTO_CERCANA": "LIZARZABURU", "PERDIDOS_D": 10, "GANADOS_D": 23, "TOTAL_CUBIERTO_D": 1798, "PERDIDOS_V": 1, "GANADOS_V": 9, "TOTAL_CUBIERTO_V": 997, "PERDIDOS_C": 12, "GANADOS_C": 49, "TOTAL_CUBIERTO_C": 5046, "OPCION": "ALTERNATIVA_4", "ESTADO": "COMPARACION_NO_INCORPORADA", "RADIO_M": 200}, "geometry": {"type": "Point", "coordinates": [-78.68241726195896, -1.6603086661021074]}}, {"type": "Feature", "properties": {"ID_CANDIDATO": "CAND-POL-00591", "X": 757921.2451, "Y": 9816235.6864, "AMBITO_HOTSPOT": "URBANO", "NIVEL_DEL": 95, "NIVEL_VIOL": 0, "COINCIDENCIA_DV": false, "NIVEL_DEL_RESIDUAL": 95, "NIVEL_VIOL_RESIDUAL": 0, "NIVEL_DV_RESIDUAL": 0, "EVENTOS_D_NUEVOS": 22, "EVENTOS_V_NUEVOS": 10, "EVENTOS_DV_NUEVOS": 32, "EVENTOS_C_NUEVOS": 61, "AREA_HOTSPOT_D_NUEVA_M2": 31117.06455668011, "AREA_HOTSPOT_V_NUEVA_M2": 0.0, "COINCIDENCIA_DV_RESIDUAL_M2": 0.0, "ESTADO_HOTSPOT_DV_PREVIO": "SIN REMANENTE D/V", "SOLAPE_PREVIO_PCT": 0.0, "DIST_EXISTENTE_M": 748.3802404988712, "DIST_MUNICIPAL_M": 1705.1332865695476, "DIST_POLICIA_M": 495.9065123371951, "UPC_CERCANA": "I0395", "NOMBRE_UPC": "24 DE MAYO", "DIST_UPC_M": 1671.4621160255006, "INTERSECCION_O_NODO": "INTERSECCION_VIAL_URBANA", "GRADO_NODO": 3, "DIST_DESDE_POL12_M": 1849.25243974209, "NUCLEOS99_ABANDONADOS": 0, "IDS_99_ABANDONADOS": "", "DV_ACTUALES_CONSERVADOS": 0, "MISMA_PLATAFORMA": false, "MENOR_SOLAPE_SIN_REDUCIR_DV": false, "PREFERIBLE": false, "PLATAFORMA": "PLATAFORMA D", "AREA_BUFFER_M2": 125651.0900372239, "AREA_SOLAPADA_M2": 0.0, "AREA_EXCLUSIVA_M2": 125651.09003722394, "APORTE_EXCLUSIVO_PCT": 100.00000000000003, "REDUNDANCIA": "BAJA", "POBLACION_ADICIONAL_ESTIMADA": 1621.391230291545, "POBLACION_ASOCIADA_ESTIMADA": 1621.391230291545, "MANZANAS_ADICIONALES_VALIDAS": 21, "MANZANAS_ADICIONALES_SIN_POBLACION": 0, "POBLACION_ADICIONAL_PARCIAL": false, "POBLACION_ASOCIADA_PARCIAL": false, "CORREDOR_COINCIDENTE": null, "EXISTENTE_MENOS_200M": false, "MUNICIPAL_MENOS_200M": false, "POLICIA_MENOS_200M": false, "EXISTENTE_MENOS_300M": false, "MUNICIPAL_MENOS_300M": false, "POLICIA_MENOS_300M": false, "EXISTENTE_MENOS_400M": false, "MUNICIPAL_MENOS_400M": false, "POLICIA_MENOS_400M": false, "HOTSPOT_D": "GIU100-38-18|GIU100-39-17|GIU100-39-19|GIU100-40-18", "HOTSPOTS_D_CON_APORTE": 4, "HOTSPOTS_D_PRIMERA_ATENCION": 4, "HOTSPOTS_D_COMPLETADOS": 1, "IDS_HOTSPOTS_D_CON_APORTE": "GIU100-38-18|GIU100-39-17|GIU100-39-19|GIU100-40-18", "HOTSPOT_V": null, "HOTSPOTS_V_CON_APORTE": 0, "HOTSPOTS_V_PRIMERA_ATENCION": 0, "HOTSPOTS_V_COMPLETADOS": 0, "IDS_HOTSPOTS_V_CON_APORTE": null, "GI_D_CELDAS_SITIO": "GIU100-38-18", "GI_D_CLASE_SITIO": "HOTSPOT 90%", "GI_D_ZSCORE_SITIO": 1.8697175409819105, "GI_D_PVALUE_SITIO": 0.06152305234929761, "GI_V_CELDAS_SITIO": "GIU100-38-18", "GI_V_CLASE_SITIO": "NO SIGNIFICATIVO", "GI_V_ZSCORE_SITIO": 0.46503022036758457, "GI_V_PVALUE_SITIO": 0.6419098152571237, "DIST_RED_VIAL_CONTEXTO_M": 0.0, "VIA_CONTEXTO_CERCANA": "LIZARZABURU", "PERDIDOS_D": 10, "GANADOS_D": 22, "TOTAL_CUBIERTO_D": 1797, "PERDIDOS_V": 1, "GANADOS_V": 10, "TOTAL_CUBIERTO_V": 998, "PERDIDOS_C": 12, "GANADOS_C": 61, "TOTAL_CUBIERTO_C": 5058, "OPCION": "ALTERNATIVA_5", "ESTADO": "COMPARACION_NO_INCORPORADA", "RADIO_M": 200}, "geometry": {"type": "Point", "coordinates": [-78.68179479720092, -1.66119965037052]}}]}