{"type": "FeatureCollection", "features": [{"type": "Feature", "properties": {"ID_CANDIDATO": "CAND-POL-01024", "X": 759809.7748999996, "Y": 9816317.6295, "AMBITO_HOTSPOT": "URBANO", "NIVEL_DEL": 99, "NIVEL_VIOL": 99, "COINCIDENCIA_DV": true, "NIVEL_DEL_RESIDUAL": 99, "NIVEL_VIOL_RESIDUAL": 95, "NIVEL_DV_RESIDUAL": 95, "EVENTOS_D_NUEVOS": 10, "EVENTOS_V_NUEVOS": 1, "EVENTOS_DV_NUEVOS": 11, "EVENTOS_C_NUEVOS": 6, "AREA_HOTSPOT_D_NUEVA_M2": 2921.7876088285934, "AREA_HOTSPOT_V_NUEVA_M2": 2901.174585387432, "COINCIDENCIA_DV_RESIDUAL_M2": 2901.174585387432, "ESTADO_HOTSPOT_DV_PREVIO": "PARCIALMENTE CUBIERTO", "SOLAPE_PREVIO_PCT": 48.097451871594444, "DIST_EXISTENTE_M": 253.6906899261244, "DIST_MUNICIPAL_M": 604.0550409507135, "DIST_POLICIA_M": 551.2565011293169, "UPC_CERCANA": "I0419", "NOMBRE_UPC": "TERMINAL TERRESTRE 1", "DIST_UPC_M": 283.7731018306637, "INTERSECCION_O_NODO": "INTERSECCION_VIAL_URBANA", "GRADO_NODO": 4, "DIST_DESDE_POL12_M": 79.15646014626621, "NUCLEOS99_ABANDONADOS": 0, "IDS_99_ABANDONADOS": "", "DV_ACTUALES_CONSERVADOS": 9, "MISMA_PLATAFORMA": true, "MENOR_SOLAPE_SIN_REDUCIR_DV": true, "PREFERIBLE": false, "OPCION_COMPLEMENTARIA": "LOCAL_PLATAFORMA_H", "PLATAFORMA": "PLATAFORMA H", "AREA_BUFFER_M2": 125651.0900372239, "AREA_SOLAPADA_M2": 60434.972556787565, "AREA_EXCLUSIVA_M2": 65216.11748043336, "APORTE_EXCLUSIVO_PCT": 51.90254812840319, "REDUNDANCIA": "BAJA", "POBLACION_ADICIONAL_ESTIMADA": 182.7026226842985, "POBLACION_ASOCIADA_ESTIMADA": 403.9809835989985, "MANZANAS_ADICIONALES_VALIDAS": 9, "MANZANAS_ADICIONALES_SIN_POBLACION": 1, "POBLACION_ADICIONAL_PARCIAL": true, "POBLACION_ASOCIADA_PARCIAL": true, "CORREDOR_COINCIDENTE": null, "EXISTENTE_MENOS_200M": false, "MUNICIPAL_MENOS_200M": false, "POLICIA_MENOS_200M": false, "EXISTENTE_MENOS_300M": true, "MUNICIPAL_MENOS_300M": false, "POLICIA_MENOS_300M": false, "EXISTENTE_MENOS_400M": true, "MUNICIPAL_MENOS_400M": false, "POLICIA_MENOS_400M": false, "HOTSPOT_D": "GIU100-37-37|GIU100-37-38|GIU100-38-38|GIU100-38-39|GIU100-39-39", "HOTSPOTS_D_CON_APORTE": 2, "HOTSPOTS_D_PRIMERA_ATENCION": 0, "HOTSPOTS_D_COMPLETADOS": 0, "IDS_HOTSPOTS_D_CON_APORTE": "GIU100-37-37|GIU100-39-39", "HOTSPOT_V": "GIU100-37-37|GIU100-37-38|GIU100-38-39", "HOTSPOTS_V_CON_APORTE": 1, "HOTSPOTS_V_PRIMERA_ATENCION": 0, "HOTSPOTS_V_COMPLETADOS": 0, "IDS_HOTSPOTS_V_CON_APORTE": "GIU100-37-37", "GI_D_CELDAS_SITIO": "GIU100-39-37", "GI_D_CLASE_SITIO": "NO SIGNIFICATIVO", "GI_D_ZSCORE_SITIO": -0.007987735929306395, "GI_D_PVALUE_SITIO": 0.9936267765990865, "GI_V_CELDAS_SITIO": "GIU100-39-37", "GI_V_CLASE_SITIO": "NO SIGNIFICATIVO", "GI_V_ZSCORE_SITIO": -0.03936388124909646, "GI_V_PVALUE_SITIO": 0.9686002761653508, "DIST_RED_VIAL_CONTEXTO_M": 0.0, "VIA_CONTEXTO_CERCANA": "LIZARZABURU", "PERDIDOS_D": 1, "GANADOS_D": 1, "TOTAL_CUBIERTO_D": 1785, "PERDIDOS_V": 1, "GANADOS_V": 1, "TOTAL_CUBIERTO_V": 989, "PERDIDOS_C": 8, "GANADOS_C": 2, "TOTAL_CUBIERTO_C": 5003, "OPCION": "LOCAL_PLATAFORMA_H", "ESTADO": "COMPARACION_NO_INCORPORADA", "RADIO_M": 200}, "geometry": {"type": "Point", "coordinates": [-78.66483093035369, -1.6604388032412696]}}, {"type": "Feature", "properties": {"ID_CANDIDATO": "CAND-POL-01024", "X": 759809.7748999996, "Y": 9816317.6295, "AMBITO_HOTSPOT": "URBANO", "NIVEL_DEL": 99, "NIVEL_VIOL": 99, "COINCIDENCIA_DV": true, "NIVEL_DEL_RESIDUAL": 99, "NIVEL_VIOL_RESIDUAL": 95, "NIVEL_DV_RESIDUAL": 95, "EVENTOS_D_NUEVOS": 10, "EVENTOS_V_NUEVOS": 1, "EVENTOS_DV_NUEVOS": 11, "EVENTOS_C_NUEVOS": 6, "AREA_HOTSPOT_D_NUEVA_M2": 2921.7876088285934, "AREA_HOTSPOT_V_NUEVA_M2": 2901.174585387432, "COINCIDENCIA_DV_RESIDUAL_M2": 2901.174585387432, "ESTADO_HOTSPOT_DV_PREVIO": "PARCIALMENTE CUBIERTO", "SOLAPE_PREVIO_PCT": 48.097451871594444, "DIST_EXISTENTE_M": 253.6906899261244, "DIST_MUNICIPAL_M": 604.0550409507135, "DIST_POLICIA_M": 551.2565011293169, "UPC_CERCANA": "I0419", "NOMBRE_UPC": "TERMINAL TERRESTRE 1", "DIST_UPC_M": 283.7731018306637, "INTERSECCION_O_NODO": "INTERSECCION_VIAL_URBANA", "GRADO_NODO": 4, "DIST_DESDE_POL12_M": 79.15646014626621, "NUCLEOS99_ABANDONADOS": 0, "IDS_99_ABANDONADOS": "", "DV_ACTUALES_CONSERVADOS": 9, "MISMA_PLATAFORMA": true, "MENOR_SOLAPE_SIN_REDUCIR_DV": true, "PREFERIBLE": false, "OPCION_COMPLEMENTARIA": "MEJORA_MAS_CERCANA", "PLATAFORMA": "PLATAFORMA H", "AREA_BUFFER_M2": 125651.0900372239, "AREA_SOLAPADA_M2": 60434.972556787565, "AREA_EXCLUSIVA_M2": 65216.11748043336, "APORTE_EXCLUSIVO_PCT": 51.90254812840319, "REDUNDANCIA": "BAJA", "POBLACION_ADICIONAL_ESTIMADA": 182.7026226842985, "POBLACION_ASOCIADA_ESTIMADA": 403.9809835989985, "MANZANAS_ADICIONALES_VALIDAS": 9, "MANZANAS_ADICIONALES_SIN_POBLACION": 1, "POBLACION_ADICIONAL_PARCIAL": true, "POBLACION_ASOCIADA_PARCIAL": true, "CORREDOR_COINCIDENTE": null, "EXISTENTE_MENOS_200M": false, "MUNICIPAL_MENOS_200M": false, "POLICIA_MENOS_200M": false, "EXISTENTE_MENOS_300M": true, "MUNICIPAL_MENOS_300M": false, "POLICIA_MENOS_300M": false, "EXISTENTE_MENOS_400M": true, "MUNICIPAL_MENOS_400M": false, "POLICIA_MENOS_400M": false, "HOTSPOT_D": "GIU100-37-37|GIU100-37-38|GIU100-38-38|GIU100-38-39|GIU100-39-39", "HOTSPOTS_D_CON_APORTE": 2, "HOTSPOTS_D_PRIMERA_ATENCION": 0, "HOTSPOTS_D_COMPLETADOS": 0, "IDS_HOTSPOTS_D_CON_APORTE": "GIU100-37-37|GIU100-39-39", "HOTSPOT_V": "GIU100-37-37|GIU100-37-38|GIU100-38-39", "HOTSPOTS_V_CON_APORTE": 1, "HOTSPOTS_V_PRIMERA_ATENCION": 0, "HOTSPOTS_V_COMPLETADOS": 0, "IDS_HOTSPOTS_V_CON_APORTE": "GIU100-37-37", "GI_D_CELDAS_SITIO": "GIU100-39-37", "GI_D_CLASE_SITIO": "NO SIGNIFICATIVO", "GI_D_ZSCORE_SITIO": -0.007987735929306395, "GI_D_PVALUE_SITIO": 0.9936267765990865, "GI_V_CELDAS_SITIO": "GIU100-39-37", "GI_V_CLASE_SITIO": "NO SIGNIFICATIVO", "GI_V_ZSCORE_SITIO": -0.03936388124909646, "GI_V_PVALUE_SITIO": 0.9686002761653508, "DIST_RED_VIAL_CONTEXTO_M": 0.0, "VIA_CONTEXTO_CERCANA": "LIZARZABURU", "PERDIDOS_D": 1, "GANADOS_D": 1, "TOTAL_CUBIERTO_D": 1785, "PERDIDOS_V": 1, "GANADOS_V": 1, "TOTAL_CUBIERTO_V": 989, "PERDIDOS_C": 8, "GANADOS_C": 2, "TOTAL_CUBIERTO_C": 5003, "OPCION": "MEJORA_MAS_CERCANA", "ESTADO": "COMPARACION_NO_INCORPORADA", "RADIO_M": 200}, "geometry": {"type": "Point", "coordinates": [-78.66483093035369, -1.6604388032412696]}}]}