{"type":"FeatureCollection","features":[{"type":"Feature","properties":{"source_id":1,"objectid":1,"codigo":"a5865c11","equipamien":"Educación","nombre":"Prueba","categoria":"BARRIAL","isocrona_distance_m":1000,"genera_isocrona":true,"platform_name":"PLATAFORMA K","plataforma":"PLATAFORMA K","elemento":"Establecimientos de educación inicial","parroquia":"RIOBAMBA","tipo_equip":"Público","tipologia":"Barrial","shape_area":0.0,"shape_leng":0.0},"geometry":{"type":"Point","coordinates":[-78.64972600264446,-1.6742268445499928]}},{"type":"Feature","properties":{"source_id":2,"objectid":2,"codigo":"6c46b35f","equipamien":"Educación","nombre":"prueba","categoria":"BARRIAL","isocrona_distance_m":1000,"genera_isocrona":true,"platform_name":"PLATAFORMA K","plataforma":"PLATAFORMA K","elemento":"Establecimientos de educación inicial","parroquia":"RIOBAMBA","tipo_equip":"Público","tipologia":"Barrial","shape_area":0.0,"shape_leng":0.0},"geometry":{"type":"Point","coordinates":[-78.64993276800001,-1.6740317239999996]}},{"type":"Feature","properties":{"source_id":5,"objectid":5,"codigo":"a43f74ba","equipamien":"Educación","nombre":"Escuela Simón","categoria":"BARRIAL","isocrona_distance_m":1000,"genera_isocrona":true,"platform_name":"PLATAFORMA Ñ","plataforma":"PLATAFORMA Ñ","elemento":"Escuelas","parroquia":"RIOBAMBA","tipo_equip":"Público","tipologia":"Barrial","shape_area":0.0,"shape_leng":0.0},"geometry":{"type":"Point","coordinates":[-78.646200673,-1.6756756759999971]}},{"type":"Feature","properties":{"source_id":6,"objectid":6,"codigo":"f664189d","equipamien":"Educación","nombre":"UE CARLOS CISNEROS","categoria":"BARRIAL","isocrona_distance_m":1000,"genera_isocrona":true,"platform_name":"PLATAFORMA Q","plataforma":"PLATAFORMA Q","elemento":"Escuelas","parroquia":"RIOBAMBA","tipo_equip":"Público","tipologia":"Barrial","shape_area":0.0,"shape_leng":0.0},"geometry":{"type":"Point","coordinates":[-78.63678779,-1.6797368899999974]}},{"type":"Feature","properties":{"source_id":7,"objectid":7,"codigo":"3e6d8ff4","equipamien":"Educación","nombre":"Unidad Educativa inicial carlos cisneros","categoria":"BARRIAL","isocrona_distance_m":1000,"genera_isocrona":true,"platform_name":"PLATAFORMA Q","plataforma":"PLATAFORMA Q","elemento":"Establecimientos de educación inicial","parroquia":"RIOBAMBA","tipo_equip":"Público","tipologia":"Barrial","shape_area":0.0,"shape_leng":0.0},"geometry":{"type":"Point","coordinates":[-78.63690754592545,-1.6804599713627537]}},{"type":"Feature","properties":{"source_id":8,"objectid":8,"codigo":"a3738ffb","equipamien":"Educación","nombre":"Años de luz","categoria":"ZONAL","isocrona_distance_m":1000,"genera_isocrona":true,"platform_name":"PLATAFORMA G","plataforma":"PLATAFORMA G","elemento":"Institutos de educación especial","parroquia":"RIOBAMBA","tipo_equip":"Público","tipologia":"Zonal","shape_area":0.0,"shape_leng":0.0},"geometry":{"type":"Point","coordinates":[-78.663400846,-1.6515422680000034]}},{"type":"Feature","properties":{"source_id":9,"objectid":9,"codigo":"e732204f","equipamien":"Educación","nombre":"Escuela Juan La valle","categoria":"BARRIAL","isocrona_distance_m":1000,"genera_isocrona":true,"platform_name":"PLATAFORMA F","plataforma":"PLATAFORMA F","elemento":"Escuelas","parroquia":"RIOBAMBA","tipo_equip":"Público","tipologia":"Barrial","shape_area":0.0,"shape_leng":0.0},"geometry":{"type":"Point","coordinates":[-78.6762698,-1.650674499999997]}},{"type":"Feature","properties":{"source_id":10,"objectid":10,"codigo":"b422e651","equipamien":"Educación","nombre":"Unidad Educativa General Lavalle (jardín de infantes)","categoria":"BARRIAL","isocrona_distance_m":1000,"genera_isocrona":true,"platform_name":"PLATAFORMA F","plataforma":"PLATAFORMA F","elemento":"Escuelas","parroquia":"RIOBAMBA","tipo_equip":"Público","tipologia":"Barrial","shape_area":0.0,"shape_leng":0.0},"geometry":{"type":"Point","coordinates":[-78.670432227,-1.6514973560000004]}},{"type":"Feature","properties":{"source_id":11,"objectid":11,"codigo":"115a5ff8","equipamien":"Educación","nombre":"UNACH","categoria":"CANTONAL","isocrona_distance_m":0,"genera_isocrona":false,"platform_name":"PLATAFORMA P","plataforma":"PLATAFORMA P","elemento":"Universidades y escuelas politécnicas","parroquia":"RIOBAMBA","tipo_equip":"Público","tipologia":"Cantonal","shape_area":0.0,"shape_leng":0.0},"geometry":{"type":"Point","coordinates":[-78.6417397,-1.680131699999992]}},{"type":"Feature","properties":{"source_id":12,"objectid":12,"codigo":"3dd14e8e","equipamien":"Educación","nombre":"FERNANDO DAQUILEMA","categoria":"ZONAL","isocrona_distance_m":1000,"genera_isocrona":true,"platform_name":"PLATAFORMA P","plataforma":"PLATAFORMA P","elemento":"Unidades educativas (niveles básico y bachillerato)","parroquia":"RIOBAMBA","tipo_equip":"Público","tipologia":"Zonal","shape_area":0.0,"shape_leng":0.0},"geometry":{"type":"Point","coordinates":[-78.6335391,-1.687416999999998]}},{"type":"Feature","properties":{"source_id":13,"objectid":13,"codigo":"63f2700a","equipamien":"Educación","nombre":"Unidad Educativa Corazón de la Patria","categoria":"ZONAL","isocrona_distance_m":1000,"genera_isocrona":true,"platform_name":"PLATAFORMA D","plataforma":"PLATAFORMA D","elemento":"Unidades educativas (niveles básico y bachillerato)","parroquia":"RIOBAMBA","tipo_equip":"Público","tipologia":"Zonal","shape_area":0.0,"shape_leng":0.0},"geometry":{"type":"Point","coordinates":[-78.682179634,-1.6585737669999938]}},{"type":"Feature","properties":{"source_id":14,"objectid":14,"codigo":"9e8aff04","equipamien":"Educación","nombre":"MONSEÑOR LEONIDAS PROAÑO","categoria":"ZONAL","isocrona_distance_m":1000,"genera_isocrona":true,"platform_name":"PLATAFORMA D","plataforma":"PLATAFORMA D","elemento":"Unidades educativas (niveles básico y bachillerato)","parroquia":"RIOBAMBA","tipo_equip":"Público","tipologia":"Zonal","shape_area":0.0,"shape_leng":0.0},"geometry":{"type":"Point","coordinates":[-78.685646644,-1.6560018669999923]}},{"type":"Feature","properties":{"source_id":15,"objectid":15,"codigo":"eda8734d","equipamien":"Educación","nombre":"Unidad Educativa Fiscal Martiniano Guerrero Freire","categoria":"ZONAL","isocrona_distance_m":1000,"genera_isocrona":true,"platform_name":"PLATAFORMA K","plataforma":"PLATAFORMA K","elemento":"Unidades educativas (niveles básico y bachillerato)","parroquia":"RIOBAMBA","tipo_equip":"Público","tipologia":"Zonal","shape_area":0.0,"shape_leng":0.0},"geometry":{"type":"Point","coordinates":[-78.6532996,-1.6654315000000044]}},{"type":"Feature","properties":{"source_id":16,"objectid":16,"codigo":"3fc82eac","equipamien":"Educación","nombre":"UNIDAD EDUCATIVA \"JUAN DE VELASCO\" SEDE II","categoria":"ZONAL","isocrona_distance_m":1000,"genera_isocrona":true,"platform_name":"PLATAFORMA K","plataforma":"PLATAFORMA K","elemento":"Unidades educativas (niveles básico y bachillerato)","parroquia":"RIOBAMBA","tipo_equip":"Público","tipologia":"Zonal","shape_area":0.0,"shape_leng":0.0},"geometry":{"type":"Point","coordinates":[-78.6453991,-1.668675200000006]}},{"type":"Feature","properties":{"source_id":17,"objectid":17,"codigo":"7dcaec5a","equipamien":"Educación","nombre":"Unidad Educativa Once de Noviembre","categoria":"ZONAL","isocrona_distance_m":1000,"genera_isocrona":true,"platform_name":"PLATAFORMA K","plataforma":"PLATAFORMA K","elemento":"Unidades educativas (niveles básico y bachillerato)","parroquia":"RIOBAMBA","tipo_equip":"Público","tipologia":"Zonal","shape_area":0.0,"shape_leng":0.0},"geometry":{"type":"Point","coordinates":[-78.651637324,-1.6747651720000003]}},{"type":"Feature","properties":{"source_id":18,"objectid":18,"codigo":"b78ab3d1","equipamien":"Educación","nombre":"Unidad Educativa Once de Noviembre","categoria":"ZONAL","isocrona_distance_m":1000,"genera_isocrona":true,"platform_name":"PLATAFORMA K","plataforma":"PLATAFORMA K","elemento":"Unidades educativas (niveles básico y bachillerato)","parroquia":"RIOBAMBA","tipo_equip":"Público","tipologia":"Zonal","shape_area":0.0,"shape_leng":0.0},"geometry":{"type":"Point","coordinates":[-78.652531401,-1.6736374790000064]}},{"type":"Feature","properties":{"source_id":19,"objectid":19,"codigo":"2a32f095","equipamien":"Educación","nombre":"UNIDAD EDUCATIVA MIGUEL ANGEL LWON PONTON","categoria":"ZONAL","isocrona_distance_m":1000,"genera_isocrona":true,"platform_name":"PLATAFORMA K","plataforma":"PLATAFORMA K","elemento":"Unidades educativas (niveles básico y bachillerato)","parroquia":"RIOBAMBA","tipo_equip":"Público","tipologia":"Zonal","shape_area":0.0,"shape_leng":0.0},"geometry":{"type":"Point","coordinates":[-78.646521516,-1.6662568760000076]}},{"type":"Feature","properties":{"source_id":20,"objectid":20,"codigo":"aa1cb7da","equipamien":"Educación","nombre":"ITES Riobamba Nocturno","categoria":"ZONAL","isocrona_distance_m":1000,"genera_isocrona":true,"platform_name":"PLATAFORMA K","plataforma":"PLATAFORMA K","elemento":"Colegios secundarios","parroquia":"RIOBAMBA","tipo_equip":"Público","tipologia":"Zonal","shape_area":0.0,"shape_leng":0.0},"geometry":{"type":"Point","coordinates":[-78.651379639,-1.671103746999997]}},{"type":"Feature","properties":{"source_id":21,"objectid":21,"codigo":"8b2a9c29","equipamien":"Educación","nombre":"Preuniversitario politécnica","categoria":"ZONAL","isocrona_distance_m":1000,"genera_isocrona":true,"platform_name":"PLATAFORMA K","plataforma":"PLATAFORMA K","elemento":"Centros o institutos de capacitación","parroquia":"RIOBAMBA","tipo_equip":"Público","tipologia":"Zonal","shape_area":0.0,"shape_leng":0.0},"geometry":{"type":"Point","coordinates":[-78.65199759600002,-1.6696966959999995]}},{"type":"Feature","properties":{"source_id":22,"objectid":22,"codigo":"d87799d2","equipamien":"Educación","nombre":"Pedro Vicente Maldonado","categoria":"ZONAL","isocrona_distance_m":1000,"genera_isocrona":true,"platform_name":"PLATAFORMA K","plataforma":"PLATAFORMA K","elemento":"Unidades educativas (niveles básico y bachillerato)","parroquia":"RIOBAMBA","tipo_equip":"Público","tipologia":"Zonal","shape_area":0.0,"shape_leng":0.0},"geometry":{"type":"Point","coordinates":[-78.650062719,-1.6713321539999952]}},{"type":"Feature","properties":{"source_id":23,"objectid":23,"codigo":"ecc18c93","equipamien":"Educación","nombre":"CENTRO DE EDUCACIÓN INICIAL JUAN MONTALVO","categoria":"BARRIAL","isocrona_distance_m":1000,"genera_isocrona":true,"platform_name":"PLATAFORMA D","plataforma":"PLATAFORMA D","elemento":"Establecimientos de educación inicial","parroquia":"RIOBAMBA","tipo_equip":"Público","tipologia":"Barrial","shape_area":0.0,"shape_leng":0.0},"geometry":{"type":"Point","coordinates":[-78.682071903,-1.6616629719999954]}},{"type":"Feature","properties":{"source_id":24,"objectid":24,"codigo":"3c60706f","equipamien":"Educación","nombre":"Colegio Nacional Pedro Vicente Maldonado","categoria":"ZONAL","isocrona_distance_m":1000,"genera_isocrona":true,"platform_name":"PLATAFORMA L","plataforma":"PLATAFORMA L","elemento":"Unidades educativas (niveles básico y bachillerato)","parroquia":"RIOBAMBA","tipo_equip":"Público","tipologia":"Zonal","shape_area":0.0,"shape_leng":0.0},"geometry":{"type":"Point","coordinates":[-78.64702883,-1.6587016629999942]}},{"type":"Feature","properties":{"source_id":25,"objectid":25,"codigo":"0490c3da","equipamien":"Educación","nombre":"CDI Guardianes de la Alegría","categoria":"BARRIAL","isocrona_distance_m":1000,"genera_isocrona":true,"platform_name":"PLATAFORMA L","plataforma":"PLATAFORMA L","elemento":"Establecimientos de educación inicial","parroquia":"RIOBAMBA","tipo_equip":"Público","tipologia":"Barrial","shape_area":0.0,"shape_leng":0.0},"geometry":{"type":"Point","coordinates":[-78.6497572,-1.652785299999994]}},{"type":"Feature","properties":{"source_id":26,"objectid":26,"codigo":"7ad6c275","equipamien":"Educación","nombre":"U E Jose Maria Roman Freile","categoria":"ZONAL","isocrona_distance_m":1000,"genera_isocrona":true,"platform_name":"PLATAFORMA I","plataforma":"PLATAFORMA I","elemento":"Unidades educativas (niveles básico y bachillerato)","parroquia":"RIOBAMBA","tipo_equip":"Público","tipologia":"Zonal","shape_area":0.0,"shape_leng":0.0},"geometry":{"type":"Point","coordinates":[-78.65430312698498,-1.6574323804201263]}},{"type":"Feature","properties":{"source_id":27,"objectid":27,"codigo":"7d55b1dc","equipamien":"Educación","nombre":"Escuela","categoria":"BARRIAL","isocrona_distance_m":1000,"genera_isocrona":true,"platform_name":"PLATAFORMA M","plataforma":"PLATAFORMA M","elemento":"Escuelas","parroquia":"RIOBAMBA","tipo_equip":"Público","tipologia":"Barrial","shape_area":0.0,"shape_leng":0.0},"geometry":{"type":"Point","coordinates":[-78.645584712,-1.6577327459999944]}},{"type":"Feature","properties":{"source_id":28,"objectid":28,"codigo":"f0da88b0","equipamien":"Educación","nombre":"Centro diurno de atencion integral para personas con discapacidad intelectual","categoria":"ZONAL","isocrona_distance_m":1000,"genera_isocrona":true,"platform_name":"PLATAFORMA I","plataforma":"PLATAFORMA I","elemento":"Centros o institutos de capacitación","parroquia":"RIOBAMBA","tipo_equip":"Público","tipologia":"Zonal","shape_area":0.0,"shape_leng":0.0},"geometry":{"type":"Point","coordinates":[-78.657771667,-1.6563349999999986]}},{"type":"Feature","properties":{"source_id":29,"objectid":29,"codigo":"0a48f850","equipamien":"Educación","nombre":"Sede social de condominios Chimborazo","categoria":"ZONAL","isocrona_distance_m":1000,"genera_isocrona":true,"platform_name":"PLATAFORMA I","plataforma":"PLATAFORMA I","elemento":"Centros o institutos de capacitación","parroquia":"RIOBAMBA","tipo_equip":"Público","tipologia":"Zonal","shape_area":0.0,"shape_leng":0.0},"geometry":{"type":"Point","coordinates":[-78.659933333,-1.6584300000000023]}},{"type":"Feature","properties":{"source_id":30,"objectid":30,"codigo":"32e617dc","equipamien":"Educación","nombre":"Centro de formación de peluquería y belleza de Chimborazo","categoria":"ZONAL","isocrona_distance_m":1000,"genera_isocrona":true,"platform_name":"PLATAFORMA I","plataforma":"PLATAFORMA I","elemento":"Centros o institutos de capacitación","parroquia":"RIOBAMBA","tipo_equip":"Público","tipologia":"Zonal","shape_area":0.0,"shape_leng":0.0},"geometry":{"type":"Point","coordinates":[-78.651644104,-1.6642535680000021]}},{"type":"Feature","properties":{"source_id":31,"objectid":31,"codigo":"d0d9ba83","equipamien":"Educación","nombre":"UE JUAN DE VELAZCO","categoria":"ZONAL","isocrona_distance_m":1000,"genera_isocrona":true,"platform_name":"PLATAFORMA O","plataforma":"PLATAFORMA O","elemento":"Unidades educativas (niveles básico y bachillerato)","parroquia":"RIOBAMBA","tipo_equip":"Público","tipologia":"Zonal","shape_area":0.0,"shape_leng":0.0},"geometry":{"type":"Point","coordinates":[-78.63896125,-1.6671068899999935]}},{"type":"Feature","properties":{"source_id":32,"objectid":32,"codigo":"97791638","equipamien":"Educación","nombre":"UE CARLOS CISNEROS","categoria":"ZONAL","isocrona_distance_m":1000,"genera_isocrona":true,"platform_name":"PLATAFORMA O","plataforma":"PLATAFORMA O","elemento":"Unidades educativas (niveles básico y bachillerato)","parroquia":"RIOBAMBA","tipo_equip":"Público","tipologia":"Zonal","shape_area":0.0,"shape_leng":0.0},"geometry":{"type":"Point","coordinates":[-78.63604263,-1.6751677500000004]}},{"type":"Feature","properties":{"source_id":33,"objectid":33,"codigo":"3fbdabd7","equipamien":"Educación","nombre":"ISUT CARLOS CISNEROS","categoria":"CANTONAL","isocrona_distance_m":0,"genera_isocrona":false,"platform_name":"PLATAFORMA Q","plataforma":"PLATAFORMA Q","elemento":"Centros e institutos tecnológicos superiores","parroquia":"RIOBAMBA","tipo_equip":"Público","tipologia":"Cantonal","shape_area":0.0,"shape_leng":0.0},"geometry":{"type":"Point","coordinates":[-78.63642978,-1.677858809999992]}},{"type":"Feature","properties":{"source_id":34,"objectid":34,"codigo":"e51d3d10","equipamien":"Educación","nombre":"Unidad Educativa Dr Alfonso Villagomez","categoria":"BARRIAL","isocrona_distance_m":1000,"genera_isocrona":true,"platform_name":"PLATAFORMA O","plataforma":"PLATAFORMA O","elemento":"Establecimientos de educación inicial","parroquia":"RIOBAMBA","tipo_equip":"Público","tipologia":"Barrial","shape_area":0.0,"shape_leng":0.0},"geometry":{"type":"Point","coordinates":[-78.63811166666666,-1.6634600000000024]}},{"type":"Feature","properties":{"source_id":35,"objectid":35,"codigo":"fb8cdc87","equipamien":"Educación","nombre":"Jardin de Infantes Luisa Falconi","categoria":"BARRIAL","isocrona_distance_m":1000,"genera_isocrona":true,"platform_name":"PLATAFORMA O","plataforma":"PLATAFORMA O","elemento":"Establecimientos de educación inicial","parroquia":"RIOBAMBA","tipo_equip":"Público","tipologia":"Barrial","shape_area":0.0,"shape_leng":0.0},"geometry":{"type":"Point","coordinates":[-78.64329,-1.675703333333328]}},{"type":"Feature","properties":{"source_id":36,"objectid":36,"codigo":"b170d1db","equipamien":"Educación","nombre":"UE Juan de Velasco","categoria":"ZONAL","isocrona_distance_m":1000,"genera_isocrona":true,"platform_name":"PLATAFORMA O","plataforma":"PLATAFORMA O","elemento":"Unidades educativas (niveles básico y bachillerato)","parroquia":"RIOBAMBA","tipo_equip":"Público","tipologia":"Zonal","shape_area":0.0,"shape_leng":0.0},"geometry":{"type":"Point","coordinates":[-78.63771834940096,-1.6724488681021228]}},{"type":"Feature","properties":{"source_id":37,"objectid":37,"codigo":"6f13367d","equipamien":"Educación","nombre":"UE Carlos Cisneros","categoria":"BARRIAL","isocrona_distance_m":1000,"genera_isocrona":true,"platform_name":"PLATAFORMA O","plataforma":"PLATAFORMA O","elemento":"Escuelas","parroquia":"RIOBAMBA","tipo_equip":"Público","tipologia":"Barrial","shape_area":0.0,"shape_leng":0.0},"geometry":{"type":"Point","coordinates":[-78.63534559906313,-1.6745968645352027]}},{"type":"Feature","properties":{"source_id":38,"objectid":38,"codigo":"3f565b3d","equipamien":"Educación","nombre":"Escuela Inicial general la valle","categoria":"BARRIAL","isocrona_distance_m":1000,"genera_isocrona":true,"platform_name":"PLATAFORMA C","plataforma":"PLATAFORMA C","elemento":"Escuelas","parroquia":"RIOBAMBA","tipo_equip":"Público","tipologia":"Barrial","shape_area":0.0,"shape_leng":0.0},"geometry":{"type":"Point","coordinates":[-78.6844636,-1.6463201000000032]}},{"type":"Feature","properties":{"source_id":39,"objectid":39,"codigo":"5bf69a1e","equipamien":"Educación","nombre":"Sin nombre","categoria":"BARRIAL","isocrona_distance_m":1000,"genera_isocrona":true,"platform_name":"PLATAFORMA C","plataforma":"PLATAFORMA C","elemento":"Establecimientos de educación inicial","parroquia":"RIOBAMBA","tipo_equip":"Público","tipologia":"Barrial","shape_area":0.0,"shape_leng":0.0},"geometry":{"type":"Point","coordinates":[-78.684055038,-1.6343276179999928]}},{"type":"Feature","properties":{"source_id":40,"objectid":40,"codigo":"7d6258da","equipamien":"Educación","nombre":"Unidad Educativa Yaruquies","categoria":"BARRIAL","isocrona_distance_m":1000,"genera_isocrona":true,"platform_name":"PLATAFORMA N","plataforma":"PLATAFORMA N","elemento":"Escuelas","parroquia":"RIOBAMBA","tipo_equip":"Público","tipologia":"Barrial","shape_area":0.0,"shape_leng":0.0},"geometry":{"type":"Point","coordinates":[-78.674805392,-1.6884196109999956]}},{"type":"Feature","properties":{"source_id":41,"objectid":41,"codigo":"1e75f280","equipamien":"Educación","nombre":"Escuela Abandonada","categoria":"BARRIAL","isocrona_distance_m":1000,"genera_isocrona":true,"platform_name":"PLATAFORMA N","plataforma":"PLATAFORMA N","elemento":"Escuelas","parroquia":"RIOBAMBA","tipo_equip":"Público","tipologia":"Barrial","shape_area":0.0,"shape_leng":0.0},"geometry":{"type":"Point","coordinates":[-78.6793025,-1.6899950000000064]}},{"type":"Feature","properties":{"source_id":42,"objectid":42,"codigo":"1c07c09b","equipamien":"Educación","nombre":"Centro de Desarrollo Infantil Ernesto Beck","categoria":"ZONAL","isocrona_distance_m":1000,"genera_isocrona":true,"platform_name":"PLATAFORMA N","plataforma":"PLATAFORMA N","elemento":"Unidades educativas (niveles básico y bachillerato)","parroquia":"RIOBAMBA","tipo_equip":"Público","tipologia":"Zonal","shape_area":0.0,"shape_leng":0.0},"geometry":{"type":"Point","coordinates":[-78.6764859,-1.6935158999999993]}},{"type":"Feature","properties":{"source_id":43,"objectid":43,"codigo":"21946495","equipamien":"Educación","nombre":"ESCUELA DE EDUCACIÓN BÁSICA SAN FELIPE NERI","categoria":"BARRIAL","isocrona_distance_m":1000,"genera_isocrona":true,"platform_name":"PLATAFORMA H","plataforma":"PLATAFORMA H","elemento":"Escuelas","parroquia":"RIOBAMBA","tipo_equip":"Público","tipologia":"Barrial","shape_area":0.0,"shape_leng":0.0},"geometry":{"type":"Point","coordinates":[-78.66928971,-1.661563991000003]}},{"type":"Feature","properties":{"source_id":44,"objectid":44,"codigo":"cca4bd91","equipamien":"Educación","nombre":"UNIDAD EDUCATIVA RIOBAMBA INICIAL","categoria":"BARRIAL","isocrona_distance_m":1000,"genera_isocrona":true,"platform_name":"PLATAFORMA H","plataforma":"PLATAFORMA H","elemento":"Establecimientos de educación inicial","parroquia":"RIOBAMBA","tipo_equip":"Público","tipologia":"Barrial","shape_area":0.0,"shape_leng":0.0},"geometry":{"type":"Point","coordinates":[-78.665715,-1.6597769999999956]}},{"type":"Feature","properties":{"source_id":45,"objectid":45,"codigo":"daa662dd","equipamien":"Educación","nombre":"ISNTITUTO RIOBAMBA","categoria":"CANTONAL","isocrona_distance_m":0,"genera_isocrona":false,"platform_name":"PLATAFORMA H","plataforma":"PLATAFORMA H","elemento":"Centros e institutos tecnológicos superiores","parroquia":"RIOBAMBA","tipo_equip":"Público","tipologia":"Cantonal","shape_area":0.0,"shape_leng":0.0},"geometry":{"type":"Point","coordinates":[-78.664064,-1.6624040000000038]}},{"type":"Feature","properties":{"source_id":46,"objectid":46,"codigo":"c90441ab","equipamien":"Educación","nombre":"I.T.S VICENTE ANDA AGUIRRE","categoria":"CANTONAL","isocrona_distance_m":0,"genera_isocrona":false,"platform_name":"PLATAFORMA H","plataforma":"PLATAFORMA H","elemento":"Centros e institutos tecnológicos superiores","parroquia":"RIOBAMBA","tipo_equip":"Público","tipologia":"Cantonal","shape_area":0.0,"shape_leng":0.0},"geometry":{"type":"Point","coordinates":[-78.665093315,-1.6597031990000066]}},{"type":"Feature","properties":{"source_id":47,"objectid":47,"codigo":"d27dc03e","equipamien":"Educación","nombre":"UNIDAD EDUCTIVA CAMILO GALLEGOS","categoria":"ZONAL","isocrona_distance_m":1000,"genera_isocrona":true,"platform_name":"PLATAFORMA H","plataforma":"PLATAFORMA H","elemento":"Unidades educativas (niveles básico y bachillerato)","parroquia":"RIOBAMBA","tipo_equip":"Público","tipologia":"Zonal","shape_area":0.0,"shape_leng":0.0},"geometry":{"type":"Point","coordinates":[-78.670613841,-1.6565203569999931]}},{"type":"Feature","properties":{"source_id":48,"objectid":48,"codigo":"95dab13e","equipamien":"Educación","nombre":"Colegio Nacional Pedro Vicente Maldonado","categoria":"ZONAL","isocrona_distance_m":1000,"genera_isocrona":true,"platform_name":"PLATAFORMA L","plataforma":"PLATAFORMA L","elemento":"Colegios secundarios","parroquia":"RIOBAMBA","tipo_equip":"Público","tipologia":"Zonal","shape_area":0.0,"shape_leng":0.0},"geometry":{"type":"Point","coordinates":[-78.646859266,-1.6587348739999936]}},{"type":"Feature","properties":{"source_id":49,"objectid":49,"codigo":"a202b803","equipamien":"Educación","nombre":"Unach","categoria":"CANTONAL","isocrona_distance_m":0,"genera_isocrona":false,"platform_name":"PLATAFORMA M","plataforma":"PLATAFORMA M","elemento":"Universidades y escuelas politécnicas","parroquia":"RIOBAMBA","tipo_equip":"Público","tipologia":"Cantonal","shape_area":0.0,"shape_leng":0.0},"geometry":{"type":"Point","coordinates":[-78.6438374,-1.652881800000005]}},{"type":"Feature","properties":{"source_id":52,"objectid":52,"codigo":"d5aace88","equipamien":"Educación","nombre":"Unidad Educativa Especializada Carlos Garbay Montesdeoca","categoria":"ZONAL","isocrona_distance_m":1000,"genera_isocrona":true,"platform_name":"PLATAFORMA M","plataforma":"PLATAFORMA M","elemento":"Institutos de educación especial","parroquia":"RIOBAMBA","tipo_equip":"Público","tipologia":"Zonal","shape_area":0.0,"shape_leng":0.0},"geometry":{"type":"Point","coordinates":[-78.642513564,-1.6563685759999927]}},{"type":"Feature","properties":{"source_id":51,"objectid":51,"codigo":"a41c4517","equipamien":"Educación","nombre":"Dr. German Aabdo touma","categoria":"BARRIAL","isocrona_distance_m":1000,"genera_isocrona":true,"platform_name":"PLATAFORMA M","plataforma":"PLATAFORMA M","elemento":"Escuelas","parroquia":"RIOBAMBA","tipo_equip":"Público","tipologia":"Barrial","shape_area":0.0,"shape_leng":0.0},"geometry":{"type":"Point","coordinates":[-78.64129487,-1.6611276299999924]}},{"type":"Feature","properties":{"source_id":53,"objectid":53,"codigo":"58b0ca43","equipamien":"Educación","nombre":"Miguel Ángel Leon","categoria":"BARRIAL","isocrona_distance_m":1000,"genera_isocrona":true,"platform_name":"PLATAFORMA M","plataforma":"PLATAFORMA M","elemento":"Escuelas","parroquia":"RIOBAMBA","tipo_equip":"Público","tipologia":"Barrial","shape_area":0.0,"shape_leng":0.0},"geometry":{"type":"Point","coordinates":[-78.644385805,-1.6652756800000001]}},{"type":"Feature","properties":{"source_id":54,"objectid":54,"codigo":"6bf582bb","equipamien":"Educación","nombre":"Escucha General La Valle","categoria":"BARRIAL","isocrona_distance_m":1000,"genera_isocrona":true,"platform_name":"PLATAFORMA F","plataforma":"PLATAFORMA F","elemento":"Establecimientos de educación inicial","parroquia":"RIOBAMBA","tipo_equip":"Público","tipologia":"Barrial","shape_area":0.0,"shape_leng":0.0},"geometry":{"type":"Point","coordinates":[-78.670671456,-1.6515040380000023]}},{"type":"Feature","properties":{"source_id":55,"objectid":55,"codigo":"022a6202","equipamien":"Educación","nombre":"San Felipe Neri","categoria":"ZONAL","isocrona_distance_m":1000,"genera_isocrona":true,"platform_name":"PLATAFORMA K","plataforma":"PLATAFORMA K","elemento":"Unidades educativas (niveles básico y bachillerato)","parroquia":"RIOBAMBA","tipo_equip":"Público","tipologia":"Zonal","shape_area":0.0,"shape_leng":0.0},"geometry":{"type":"Point","coordinates":[-78.6454292,-1.6736348999999915]}},{"type":"Feature","properties":{"source_id":56,"objectid":56,"codigo":"f9f1bb5c","equipamien":"Educación","nombre":"Centro de Educación Básica 21 Abril","categoria":"BARRIAL","isocrona_distance_m":1000,"genera_isocrona":true,"platform_name":"PLATAFORMA J","plataforma":"PLATAFORMA J","elemento":"Establecimientos de educación inicial","parroquia":"RIOBAMBA","tipo_equip":"Público","tipologia":"Barrial","shape_area":0.0,"shape_leng":0.0},"geometry":{"type":"Point","coordinates":[-78.658161251,-1.6733958249999967]}},{"type":"Feature","properties":{"source_id":57,"objectid":57,"codigo":"adc09228","equipamien":"Educación","nombre":"Escuela de educación básica 21 de abril","categoria":"ZONAL","isocrona_distance_m":1000,"genera_isocrona":true,"platform_name":"PLATAFORMA J","plataforma":"PLATAFORMA J","elemento":"Unidades educativas (niveles básico y bachillerato)","parroquia":"RIOBAMBA","tipo_equip":"Público","tipologia":"Zonal","shape_area":0.0,"shape_leng":0.0},"geometry":{"type":"Point","coordinates":[-78.6575965,-1.6709360000000058]}},{"type":"Feature","properties":{"source_id":58,"objectid":58,"codigo":"ee78a95f","equipamien":"Educación","nombre":"Unidad Educativa Fiscomisional José Maria Velaz S.J","categoria":"ZONAL","isocrona_distance_m":1000,"genera_isocrona":true,"platform_name":"PLATAFORMA Ñ","plataforma":"PLATAFORMA Ñ","elemento":"Unidades educativas (niveles básico y bachillerato)","parroquia":"RIOBAMBA","tipo_equip":"Público","tipologia":"Zonal","shape_area":0.0,"shape_leng":0.0},"geometry":{"type":"Point","coordinates":[-78.650706262,-1.6764695840000052]}},{"type":"Feature","properties":{"source_id":59,"objectid":59,"codigo":"b6c4b231","equipamien":"Educación","nombre":"Unidad Educativa Isabel de Godin","categoria":"ZONAL","isocrona_distance_m":1000,"genera_isocrona":true,"platform_name":"PLATAFORMA Ñ","plataforma":"PLATAFORMA Ñ","elemento":"Unidades educativas (niveles básico y bachillerato)","parroquia":"RIOBAMBA","tipo_equip":"Público","tipologia":"Zonal","shape_area":0.0,"shape_leng":0.0},"geometry":{"type":"Point","coordinates":[-78.651433704,-1.6797599560000034]}},{"type":"Feature","properties":{"source_id":60,"objectid":60,"codigo":"75b581ce","equipamien":"Educación","nombre":"UNIDAD EDUCATIVA AMELIA GALLEGOS DIAZ","categoria":"BARRIAL","isocrona_distance_m":1000,"genera_isocrona":true,"platform_name":"PLATAFORMA Ñ","plataforma":"PLATAFORMA Ñ","elemento":"Escuelas","parroquia":"RIOBAMBA","tipo_equip":"Público","tipologia":"Barrial","shape_area":0.0,"shape_leng":0.0},"geometry":{"type":"Point","coordinates":[-78.6466361,-1.6747396000000032]}},{"type":"Feature","properties":{"source_id":61,"objectid":61,"codigo":"14f5572c","equipamien":"Educación","nombre":"CDI GUARDIANES DE LA ESPERANZA","categoria":"BARRIAL","isocrona_distance_m":1000,"genera_isocrona":true,"platform_name":"PLATAFORMA Ñ","plataforma":"PLATAFORMA Ñ","elemento":"Establecimientos de educación inicial","parroquia":"RIOBAMBA","tipo_equip":"Público","tipologia":"Barrial","shape_area":0.0,"shape_leng":0.0},"geometry":{"type":"Point","coordinates":[-78.660531667,-1.6796671670000014]}},{"type":"Feature","properties":{"source_id":62,"objectid":62,"codigo":"9a073837","equipamien":"Educación","nombre":"Unidad Educativa 11 de Noviembre","categoria":"BARRIAL","isocrona_distance_m":1000,"genera_isocrona":true,"platform_name":"PLATAFORMA Ñ","plataforma":"PLATAFORMA Ñ","elemento":"Establecimientos de educación inicial","parroquia":"RIOBAMBA","tipo_equip":"Público","tipologia":"Barrial","shape_area":0.0,"shape_leng":0.0},"geometry":{"type":"Point","coordinates":[-78.649398537,-1.679447342000002]}},{"type":"Feature","properties":{"source_id":63,"objectid":63,"codigo":"cc055c91","equipamien":"Educación","nombre":"UNIDAD EDUCATIVA RIOBAMBA","categoria":"ZONAL","isocrona_distance_m":1000,"genera_isocrona":true,"platform_name":"PLATAFORMA J","plataforma":"PLATAFORMA J","elemento":"Unidades educativas (niveles básico y bachillerato)","parroquia":"RIOBAMBA","tipo_equip":"Público","tipologia":"Zonal","shape_area":0.0,"shape_leng":0.0},"geometry":{"type":"Point","coordinates":[-78.662125847,-1.6597347179999913]}},{"type":"Feature","properties":{"source_id":64,"objectid":64,"codigo":"7edd838f","equipamien":"Educación","nombre":"Unidad Educativa Isabel de Godin sede preparatoria y elemental","categoria":"BARRIAL","isocrona_distance_m":1000,"genera_isocrona":true,"platform_name":"PLATAFORMA Ñ","plataforma":"PLATAFORMA Ñ","elemento":"Escuelas","parroquia":"RIOBAMBA","tipo_equip":"Público","tipologia":"Barrial","shape_area":0.0,"shape_leng":0.0},"geometry":{"type":"Point","coordinates":[-78.6479144,-1.6795395000000066]}},{"type":"Feature","properties":{"source_id":65,"objectid":65,"codigo":"3b2b9717","equipamien":"Educación","nombre":"Unidad educativa Isabel de Godin sede nivel inicial","categoria":"BARRIAL","isocrona_distance_m":1000,"genera_isocrona":true,"platform_name":"PLATAFORMA Ñ","plataforma":"PLATAFORMA Ñ","elemento":"Escuelas","parroquia":"RIOBAMBA","tipo_equip":"Público","tipologia":"Barrial","shape_area":0.0,"shape_leng":0.0},"geometry":{"type":"Point","coordinates":[-78.6482618,-1.6802113000000012]}},{"type":"Feature","properties":{"source_id":66,"objectid":66,"codigo":"207fce5d","equipamien":"Educación","nombre":"U.E. “CAP. EDMUNDO CHIRIBOGA”","categoria":"BARRIAL","isocrona_distance_m":1000,"genera_isocrona":true,"platform_name":"PLATAFORMA J","plataforma":"PLATAFORMA J","elemento":"Escuelas","parroquia":"RIOBAMBA","tipo_equip":"Público","tipologia":"Barrial","shape_area":0.0,"shape_leng":0.0},"geometry":{"type":"Point","coordinates":[-78.662054439,-1.677367161000005]}},{"type":"Feature","properties":{"source_id":67,"objectid":67,"codigo":"56db364f","equipamien":"Educación","nombre":"Unidad educativa Fe y Alegria","categoria":"BARRIAL","isocrona_distance_m":1000,"genera_isocrona":true,"platform_name":"PLATAFORMA Ñ","plataforma":"PLATAFORMA Ñ","elemento":"Establecimientos de educación inicial","parroquia":"RIOBAMBA","tipo_equip":"Público","tipologia":"Barrial","shape_area":0.0,"shape_leng":0.0},"geometry":{"type":"Point","coordinates":[-78.6434939,-1.6794504999999962]}},{"type":"Feature","properties":{"source_id":68,"objectid":68,"codigo":"60b070be","equipamien":"Educación","nombre":"Unidad Educativa Isabel de Godin Sergio Quirola","categoria":"BARRIAL","isocrona_distance_m":1000,"genera_isocrona":true,"platform_name":"PLATAFORMA Ñ","plataforma":"PLATAFORMA Ñ","elemento":"Escuelas","parroquia":"RIOBAMBA","tipo_equip":"Público","tipologia":"Barrial","shape_area":0.0,"shape_leng":0.0},"geometry":{"type":"Point","coordinates":[-78.650310573,-1.6780589510000006]}},{"type":"Feature","properties":{"source_id":69,"objectid":69,"codigo":"31f304c2","equipamien":"Educación","nombre":"Centro de educación inicial la primavera","categoria":"BARRIAL","isocrona_distance_m":1000,"genera_isocrona":true,"platform_name":"PLATAFORMA J","plataforma":"PLATAFORMA J","elemento":"Establecimientos de educación inicial","parroquia":"RIOBAMBA","tipo_equip":"Público","tipologia":"Barrial","shape_area":0.0,"shape_leng":0.0},"geometry":{"type":"Point","coordinates":[-78.662726764,-1.677643579000004]}},{"type":"Feature","properties":{"source_id":70,"objectid":70,"codigo":"53c4f05e","equipamien":"Educación","nombre":"UNIDAD EDUCATIVA AMELIA GALLEGOS DIAZ","categoria":"ZONAL","isocrona_distance_m":1000,"genera_isocrona":true,"platform_name":"PLATAFORMA Ñ","plataforma":"PLATAFORMA Ñ","elemento":"Unidades educativas (niveles básico y bachillerato)","parroquia":"RIOBAMBA","tipo_equip":"Público","tipologia":"Zonal","shape_area":0.0,"shape_leng":0.0},"geometry":{"type":"Point","coordinates":[-78.6450665,-1.6819872999999999]}},{"type":"Feature","properties":{"source_id":71,"objectid":71,"codigo":"2f483b7c","equipamien":"Educación","nombre":"UNIVERSIDAD NACIONAL DE CHIMBORAZO CAMPUS CENTRO","categoria":"CANTONAL","isocrona_distance_m":0,"genera_isocrona":false,"platform_name":"PLATAFORMA J","plataforma":"PLATAFORMA J","elemento":"Universidades y escuelas politécnicas","parroquia":"RIOBAMBA","tipo_equip":"Público","tipologia":"Cantonal","shape_area":0.0,"shape_leng":0.0},"geometry":{"type":"Point","coordinates":[-78.6615274,-1.666381100000008]}},{"type":"Feature","properties":{"source_id":72,"objectid":72,"codigo":"461e9bd2","equipamien":"Educación","nombre":"Jose Maria Velasco","categoria":"BARRIAL","isocrona_distance_m":1000,"genera_isocrona":true,"platform_name":"PLATAFORMA Ñ","plataforma":"PLATAFORMA Ñ","elemento":"Escuelas","parroquia":"RIOBAMBA","tipo_equip":"Público","tipologia":"Barrial","shape_area":0.0,"shape_leng":0.0},"geometry":{"type":"Point","coordinates":[-78.6505583,-1.6762711999999944]}},{"type":"Feature","properties":{"source_id":73,"objectid":73,"codigo":"43404dea","equipamien":"Educación","nombre":"Unidad Educativa La Providencia","categoria":"ZONAL","isocrona_distance_m":1000,"genera_isocrona":true,"platform_name":"PLATAFORMA J","plataforma":"PLATAFORMA J","elemento":"Unidades educativas (niveles básico y bachillerato)","parroquia":"RIOBAMBA","tipo_equip":"Público","tipologia":"Zonal","shape_area":0.0,"shape_leng":0.0},"geometry":{"type":"Point","coordinates":[-78.662392043,-1.6721711769999934]}},{"type":"Feature","properties":{"source_id":74,"objectid":74,"codigo":"9f4ba6d4","equipamien":"Educación","nombre":"UNIDAD EDUCATIVA CAPITAN EDMUNDO CHIRIBOGA","categoria":"ZONAL","isocrona_distance_m":1000,"genera_isocrona":true,"platform_name":"PLATAFORMA Ñ","plataforma":"PLATAFORMA Ñ","elemento":"Colegios secundarios","parroquia":"RIOBAMBA","tipo_equip":"Público","tipologia":"Zonal","shape_area":0.0,"shape_leng":0.0},"geometry":{"type":"Point","coordinates":[-78.6584067,-1.6775502999999932]}},{"type":"Feature","properties":{"source_id":75,"objectid":75,"codigo":"099f373d","equipamien":"Educación","nombre":"Centro de capacitación artesanal San Juan Evangelista","categoria":"ZONAL","isocrona_distance_m":1000,"genera_isocrona":true,"platform_name":"PLATAFORMA J","plataforma":"PLATAFORMA J","elemento":"Centros o institutos de capacitación","parroquia":"RIOBAMBA","tipo_equip":"Público","tipologia":"Zonal","shape_area":0.0,"shape_leng":0.0},"geometry":{"type":"Point","coordinates":[-78.665064475,-1.6688126789999926]}},{"type":"Feature","properties":{"source_id":76,"objectid":76,"codigo":"d70e1ae5","equipamien":"Educación","nombre":"Centro de educación  inicial Eloy Alfaro","categoria":"BARRIAL","isocrona_distance_m":1000,"genera_isocrona":true,"platform_name":"PLATAFORMA J","plataforma":"PLATAFORMA J","elemento":"Establecimientos de educación inicial","parroquia":"RIOBAMBA","tipo_equip":"Público","tipologia":"Barrial","shape_area":0.0,"shape_leng":0.0},"geometry":{"type":"Point","coordinates":[-78.662669895,-1.6691181429999915]}},{"type":"Feature","properties":{"source_id":77,"objectid":77,"codigo":"39b67534","equipamien":"Educación","nombre":"Unidad Educativa Dr. Nicanor Larrea","categoria":"ZONAL","isocrona_distance_m":1000,"genera_isocrona":true,"platform_name":"PLATAFORMA J","plataforma":"PLATAFORMA J","elemento":"Unidades educativas (niveles básico y bachillerato)","parroquia":"RIOBAMBA","tipo_equip":"Público","tipologia":"Zonal","shape_area":0.0,"shape_leng":0.0},"geometry":{"type":"Point","coordinates":[-78.656855525,-1.667318994000006]}},{"type":"Feature","properties":{"source_id":78,"objectid":78,"codigo":"07301bab","equipamien":"Educación","nombre":"Unidad educativa Leónidas García","categoria":"BARRIAL","isocrona_distance_m":1000,"genera_isocrona":true,"platform_name":"PLATAFORMA J","plataforma":"PLATAFORMA J","elemento":"Escuelas","parroquia":"RIOBAMBA","tipo_equip":"Público","tipologia":"Barrial","shape_area":0.0,"shape_leng":0.0},"geometry":{"type":"Point","coordinates":[-78.657343108,-1.6785678119999965]}},{"type":"Feature","properties":{"source_id":79,"objectid":79,"codigo":"96274a60","equipamien":"Educación","nombre":"Unidad Educativa Isabel de Godin sede 1","categoria":"ZONAL","isocrona_distance_m":1000,"genera_isocrona":true,"platform_name":"PLATAFORMA Ñ","plataforma":"PLATAFORMA Ñ","elemento":"Unidades educativas (niveles básico y bachillerato)","parroquia":"RIOBAMBA","tipo_equip":"Público","tipologia":"Zonal","shape_area":0.0,"shape_leng":0.0},"geometry":{"type":"Point","coordinates":[-78.651301717,-1.6792304539999998]}},{"type":"Feature","properties":{"source_id":80,"objectid":80,"codigo":"f34c011f","equipamien":"Educación","nombre":"Dr. Leónidas García Ortiz","categoria":"ZONAL","isocrona_distance_m":1000,"genera_isocrona":true,"platform_name":"PLATAFORMA J","plataforma":"PLATAFORMA J","elemento":"Unidades educativas (niveles básico y bachillerato)","parroquia":"RIOBAMBA","tipo_equip":"Público","tipologia":"Zonal","shape_area":0.0,"shape_leng":0.0},"geometry":{"type":"Point","coordinates":[-78.65629084000001,-1.6762824880000031]}},{"type":"Feature","properties":{"source_id":81,"objectid":81,"codigo":"aaa96f07","equipamien":"Educación","nombre":"Unidad Educativa Intercultural Bilingue Monseñor Leonidas Proaño","categoria":"ZONAL","isocrona_distance_m":1000,"genera_isocrona":true,"platform_name":"PLATAFORMA Ñ","plataforma":"PLATAFORMA Ñ","elemento":"Unidades educativas (niveles básico y bachillerato)","parroquia":"RIOBAMBA","tipo_equip":"Público","tipologia":"Zonal","shape_area":0.0,"shape_leng":0.0},"geometry":{"type":"Point","coordinates":[-78.6499812,-1.6833852000000027]}}]}