{"type":"FeatureCollection","features":[{"type":"Feature","geometry":{"type":"Point","coordinates":[-78.66907487143628,-1.6465746996338542]},"properties":{"target_platform":"PLATAFORMA I","source_id":95,"selected_rank":1,"nombre":"Parque con dos canchas","elemento":"Canchas deportivas múltiples.","tipologia":"Zonal","origin_platform":"PLATAFORMA G","distance_m":1000,"pair_distance_m":6467.43,"pair_selection_mode":"full_pair_threshold","effective_parks":2,"covered_manzanas_individual":85,"covered_population_individual":8127,"covered_manzanas_pair":102,"covered_population_pair":9060,"covered_manzanas_pair_percent":100.0,"covered_population_pair_percent":100.0,"total_platform_manzanas":102,"total_platform_population":9060,"source_lon":-78.66907487143628,"source_lat":-1.6465746996338542,"snap_m":11.97,"categoria":"BARRIAL","pair_label":"PLATAFORMA I | Parque 1"}},{"type":"Feature","geometry":{"type":"Point","coordinates":[-78.6279644,-1.6877365]},"properties":{"target_platform":"PLATAFORMA I","source_id":83,"selected_rank":2,"nombre":"Sin nombre","elemento":"Parques infantiles con jardines sin canchas","tipologia":"Barrial","origin_platform":"PLATAFORMA Q","distance_m":1000,"pair_distance_m":6467.43,"pair_selection_mode":"full_pair_threshold","effective_parks":2,"covered_manzanas_individual":60,"covered_population_individual":5128,"covered_manzanas_pair":102,"covered_population_pair":9060,"covered_manzanas_pair_percent":100.0,"covered_population_pair_percent":100.0,"total_platform_manzanas":102,"total_platform_population":9060,"source_lon":-78.6279644,"source_lat":-1.6877365,"snap_m":3.86,"categoria":"ZONAL","pair_label":"PLATAFORMA I | Parque 2"}},{"type":"Feature","geometry":{"type":"Point","coordinates":[-78.631924545,-1.68464915]},"properties":{"target_platform":"PLATAFORMA E","source_id":176,"selected_rank":1,"nombre":"PARQUE LOS ALTARES","elemento":"Canchas deportivas múltiples.","tipologia":"Zonal","origin_platform":"PLATAFORMA Q","distance_m":1000,"pair_distance_m":4417.54,"pair_selection_mode":"full_pair_threshold","effective_parks":2,"covered_manzanas_individual":3,"covered_population_individual":115,"covered_manzanas_pair":3,"covered_population_pair":115,"covered_manzanas_pair_percent":100.0,"covered_population_pair_percent":100.0,"total_platform_manzanas":3,"total_platform_population":115,"source_lon":-78.631924545,"source_lat":-1.68464915,"snap_m":18.96,"categoria":"ZONAL","pair_label":"PLATAFORMA E | Parque 1"}},{"type":"Feature","geometry":{"type":"Point","coordinates":[-78.66153166666666,-1.6581449999999998]},"properties":{"target_platform":"PLATAFORMA E","source_id":133,"selected_rank":2,"nombre":"Parque de la Georgina 2, a oado de los condominio faroles.","elemento":"Canchas deportivas múltiples.","tipologia":"Zonal","origin_platform":"PLATAFORMA I","distance_m":1000,"pair_distance_m":4417.54,"pair_selection_mode":"full_pair_threshold","effective_parks":2,"covered_manzanas_individual":1,"covered_population_individual":6,"covered_manzanas_pair":3,"covered_population_pair":115,"covered_manzanas_pair_percent":100.0,"covered_population_pair_percent":100.0,"total_platform_manzanas":3,"total_platform_population":115,"source_lon":-78.66153166666666,"source_lat":-1.6581449999999998,"snap_m":11.3,"categoria":"ZONAL","pair_label":"PLATAFORMA E | Parque 2"}}]}