{"type":"FeatureCollection","features":[{"type":"Feature","properties":{"source_id":35,"globalid":"3b198ccd-a4eb-40a3-804c-2e180d355912","codigo":"0d355912","tipo_eleme":"Seguridad","elemento":"Unidad de vigilancia de policía (UPC)","platform_name":"PLATAFORMA Q","plataforma":"PLATAFORMA Q","parroquia":"RIOBAMBA","estado":"Regular","nombre_ins":"","tipo_equip":"Público","nombre_equ":"Upc pucara","tipologia":"Zonal","observacion":"","source_geometry":"Point"},"geometry":{"type":"Point","coordinates":[-78.63522954813848,-1.6796322668728807]}},{"type":"Feature","properties":{"source_id":55,"globalid":"56eafea1-95da-4da5-8707-a9607cf72363","codigo":"7cf72363","tipo_eleme":"Seguridad","elemento":"Unidad de vigilancia de policía (UPC)","platform_name":"PLATAFORMA Q","plataforma":"PLATAFORMA Q","parroquia":"RIOBAMBA","estado":"Bueno","nombre_ins":"","tipo_equip":"Público","nombre_equ":"Comando de polcia Riobamba-Chambo N 6","tipologia":"Zonal","observacion":"","source_geometry":"Point"},"geometry":{"type":"Point","coordinates":[-78.63958098210102,-1.6807932040659308]}},{"type":"Feature","properties":{"source_id":104,"globalid":"f9bc8dc0-0523-4501-a2c6-c316ac50b94d","codigo":"ac50b94d","tipo_eleme":"Seguridad","elemento":"Unidad de vigilancia de policía (UPC)","platform_name":"PLATAFORMA G","plataforma":"PLATAFORMA G","parroquia":"RIOBAMBA","estado":"Regular","nombre_ins":"","tipo_equip":"Público","nombre_equ":"Ecu911","tipologia":"Zonal","observacion":"","source_geometry":"Point"},"geometry":{"type":"Point","coordinates":[-78.66604583980255,-1.6481941032259413]}},{"type":"Feature","properties":{"source_id":193,"globalid":"0df172e9-45bd-4e7a-8f07-f8f297cece67","codigo":"97cece67","tipo_eleme":"Seguridad","elemento":"Unidad de vigilancia de policía (UPC)","platform_name":"PLATAFORMA P","plataforma":"PLATAFORMA P","parroquia":"RIOBAMBA","estado":"Regular","nombre_ins":"","tipo_equip":"Público","nombre_equ":"UPS POLIDEPORTIVO","tipologia":"Zonal","observacion":"","source_geometry":"Point"},"geometry":{"type":"Point","coordinates":[-78.640491,-1.6845027]}},{"type":"Feature","properties":{"source_id":195,"globalid":"3f1a8bd5-d78d-4595-83cd-b968090945d5","codigo":"090945d5","tipo_eleme":"Seguridad","elemento":"Centros de rehabilitación social","platform_name":"PLATAFORMA P","plataforma":"PLATAFORMA P","parroquia":"RIOBAMBA","estado":"Regular","nombre_ins":"","tipo_equip":"Público","nombre_equ":"MANO AMIGA","tipologia":"Cantonal","observacion":"","source_geometry":"Point"},"geometry":{"type":"Point","coordinates":[-78.640056498,-1.687743997]}},{"type":"Feature","properties":{"source_id":217,"globalid":"6bbf750f-e0a2-4871-82ae-f684150bfc82","codigo":"150bfc82","tipo_eleme":"Seguridad","elemento":"Unidad de vigilancia de policía (UPC)","platform_name":"PLATAFORMA D","plataforma":"PLATAFORMA D","parroquia":"RIOBAMBA","estado":"Bueno","nombre_ins":"","tipo_equip":"Público","nombre_equ":"UPC TIERRA NUEVA","tipologia":"Zonal","observacion":"","source_geometry":"Point"},"geometry":{"type":"Point","coordinates":[-78.685922239,-1.656268062]}},{"type":"Feature","properties":{"source_id":230,"globalid":"9dcef8d7-fa84-496c-b894-4b7df622a4c8","codigo":"f622a4c8","tipo_eleme":"Seguridad","elemento":"Estación de bomberos","platform_name":"PLATAFORMA B","plataforma":"PLATAFORMA B","parroquia":"RIOBAMBA","estado":"Bueno","nombre_ins":"","tipo_equip":"Público","nombre_equ":"Completo","tipologia":"Zonal","observacion":"","source_geometry":"Point"},"geometry":{"type":"Point","coordinates":[-78.67407833333333,-1.6401600000000003]}},{"type":"Feature","properties":{"source_id":254,"globalid":"e9425bff-5b0b-4527-8b9a-b20316c19a02","codigo":"16c19a02","tipo_eleme":"Seguridad","elemento":"Unidad de vigilancia de policía (UPC)","platform_name":"PLATAFORMA K","plataforma":"PLATAFORMA K","parroquia":"RIOBAMBA","estado":"Bueno","nombre_ins":"","tipo_equip":"Público","nombre_equ":"Punto de Seguridad Policía Nacional Loma a Quito","tipologia":"Zonal","observacion":"","source_geometry":"Point"},"geometry":{"type":"Point","coordinates":[-78.652897185,-1.666815343]}},{"type":"Feature","properties":{"source_id":274,"globalid":"6887cbc9-c72f-4e56-8e5c-bf437aadcd67","codigo":"7aadcd67","tipo_eleme":"Seguridad","elemento":"Unidad de vigilancia de policía (UPC)","platform_name":"PLATAFORMA K","plataforma":"PLATAFORMA K","parroquia":"RIOBAMBA","estado":"Regular","nombre_ins":"","tipo_equip":"Público","nombre_equ":"UPC La Esperanza","tipologia":"Zonal","observacion":"","source_geometry":"Point"},"geometry":{"type":"Point","coordinates":[-78.643998252,-1.666593902]}},{"type":"Feature","properties":{"source_id":299,"globalid":"4edf8440-5cf7-425a-88c0-91ae73c2cc30","codigo":"73c2cc30","tipo_eleme":"Seguridad","elemento":"Estación de bomberos","platform_name":"PLATAFORMA K","plataforma":"PLATAFORMA K","parroquia":"RIOBAMBA","estado":"Bueno","nombre_ins":"","tipo_equip":"Público","nombre_equ":"Compañía 26 de Junio Santa Rosa","tipologia":"Zonal","observacion":"Edificación nueva","source_geometry":"Point"},"geometry":{"type":"Point","coordinates":[-78.653762677,-1.673311829]}},{"type":"Feature","properties":{"source_id":421,"globalid":"5fe54cfa-a140-4f72-8312-a25bce1a5037","codigo":"ce1a5037","tipo_eleme":"Seguridad","elemento":"DINAPEN","platform_name":"PLATAFORMA K","plataforma":"PLATAFORMA K","parroquia":"RIOBAMBA","estado":"Bueno","nombre_ins":"","tipo_equip":"Público","nombre_equ":"Instituto de Seguridad Social de la Policía Nacional, Coordinación Riobamba - DINAPEN","tipologia":"Cantonal","observacion":"Dinased","source_geometry":"Point"},"geometry":{"type":"Point","coordinates":[-78.65174297,-1.672715956]}},{"type":"Feature","properties":{"source_id":440,"globalid":"3108ad0e-b25b-4ef7-8819-4938cba695a4","codigo":"cba695a4","tipo_eleme":"Seguridad","elemento":"Unidad de vigilancia de policía (UPC)","platform_name":"PLATAFORMA L","plataforma":"PLATAFORMA L","parroquia":"RIOBAMBA","estado":"Bueno","nombre_ins":"","tipo_equip":"Público","nombre_equ":"UPC","tipologia":"Zonal","observacion":"UPC SHOPPING","source_geometry":"Point"},"geometry":{"type":"Point","coordinates":[-78.649693178,-1.653096629]}},{"type":"Feature","properties":{"source_id":466,"globalid":"947aeb41-9cf7-4855-adda-1b4ebfd52292","codigo":"bfd52292","tipo_eleme":"Seguridad","elemento":"Cuarteles policías o militares","platform_name":"PLATAFORMA I","plataforma":"PLATAFORMA I","parroquia":"RIOBAMBA","estado":"Bueno","nombre_ins":"","tipo_equip":"Público","nombre_equ":"Brigada Galápagos N11","tipologia":"Cantonal","observacion":"","source_geometry":"Point"},"geometry":{"type":"Point","coordinates":[-78.65473338167507,-1.6570199902267135]}},{"type":"Feature","properties":{"source_id":491,"globalid":"4b2cbb1d-2d26-4adb-8083-7eb9d4319d14","codigo":"d4319d14","tipo_eleme":"Seguridad","elemento":"Cuarteles policías o militares","platform_name":"PLATAFORMA I","plataforma":"PLATAFORMA I","parroquia":"RIOBAMBA","estado":"Bueno","nombre_ins":"","tipo_equip":"Público","nombre_equ":"Centro de Control de Armas FF.AA","tipologia":"Cantonal","observacion":"Ubicación residencial","source_geometry":"Point"},"geometry":{"type":"Point","coordinates":[-78.651411636,-1.663883929]}},{"type":"Feature","properties":{"source_id":538,"globalid":"ec3e0d07-5131-4ddd-9934-50df12732bb1","codigo":"12732bb1","tipo_eleme":"Seguridad","elemento":"Cuarteles policías o militares","platform_name":"PLATAFORMA O","plataforma":"PLATAFORMA O","parroquia":"RIOBAMBA","estado":"Regular","nombre_ins":"","tipo_equip":"Público","nombre_equ":"UPC SAN ALFONSO","tipologia":"Cantonal","observacion":"","source_geometry":"Point"},"geometry":{"type":"Point","coordinates":[-78.63838426,-1.67444021]}},{"type":"Feature","properties":{"source_id":555,"globalid":"f85b47cb-4f3a-48a0-b224-c1daa45a1507","codigo":"a45a1507","tipo_eleme":"Seguridad","elemento":"Unidad de vigilancia de policía (UPC)","platform_name":"PLATAFORMA O","plataforma":"PLATAFORMA O","parroquia":"RIOBAMBA","estado":"Regular","nombre_ins":"","tipo_equip":"Público","nombre_equ":"UPC Camilo Ponce","tipologia":"Zonal","observacion":"","source_geometry":"Point"},"geometry":{"type":"Point","coordinates":[-78.637855,-1.6635783333333332]}},{"type":"Feature","properties":{"source_id":614,"globalid":"116ec970-8c75-4f9a-85d8-b4593945b8da","codigo":"3945b8da","tipo_eleme":"Seguridad","elemento":"Unidad de vigilancia de policía (UPC)","platform_name":null,"plataforma":null,"parroquia":"","estado":"Regular","nombre_ins":"","tipo_equip":"Público","nombre_equ":"UPC 24 de mayo","tipologia":"Zonal","observacion":"Mantenimiento exterior UPC","source_geometry":"Point"},"geometry":{"type":"Point","coordinates":[-7.265625,-5.266007883]}},{"type":"Feature","properties":{"source_id":671,"globalid":"c8cb9de2-3f45-4081-8798-db8608791a95","codigo":"08791a95","tipo_eleme":"Seguridad","elemento":"Unidad de vigilancia de policía (UPC)","platform_name":"PLATAFORMA C","plataforma":"PLATAFORMA C","parroquia":"RIOBAMBA","estado":"Regular","nombre_ins":"","tipo_equip":"Público","nombre_equ":"UPC en la calle Manabi y Araucanos","tipologia":"Zonal","observacion":"La fachada presenta desgaste y humedad","source_geometry":"Point"},"geometry":{"type":"Point","coordinates":[-78.683988295,-1.64622696]}},{"type":"Feature","properties":{"source_id":700,"globalid":"085d8201-ccb8-4a6f-8861-3208d1a89b34","codigo":"d1a89b34","tipo_eleme":"Seguridad","elemento":"Unidad de vigilancia de policía (UPC)","platform_name":"PLATAFORMA N","plataforma":"PLATAFORMA N","parroquia":"RIOBAMBA","estado":"Regular","nombre_ins":"","tipo_equip":"Público","nombre_equ":"UPC Yaruquies","tipologia":"Zonal","observacion":"","source_geometry":"Point"},"geometry":{"type":"Point","coordinates":[-78.67636,-1.68854]}},{"type":"Feature","properties":{"source_id":727,"globalid":"1260ed0b-c303-4bcf-8215-3de911cb5858","codigo":"11cb5858","tipo_eleme":"Seguridad","elemento":"Estación de bomberos","platform_name":"PLATAFORMA B","plataforma":"PLATAFORMA B","parroquia":"RIOBAMBA","estado":"Bueno","nombre_ins":"","tipo_equip":"Público","nombre_equ":"Compañía 10 de Octubre","tipologia":"Zonal","observacion":"Estación de bomberos","source_geometry":"Point"},"geometry":{"type":"Point","coordinates":[-78.674052542,-1.640165272]}},{"type":"Feature","properties":{"source_id":733,"globalid":"239a982b-aeb5-4cef-8852-63933f862d6f","codigo":"3f862d6f","tipo_eleme":"Seguridad","elemento":"Unidad de vigilancia de policía (UPC)","platform_name":"PLATAFORMA B","plataforma":"PLATAFORMA B","parroquia":"RIOBAMBA","estado":"Regular","nombre_ins":"","tipo_equip":"Público","nombre_equ":"UPC By Pass","tipologia":"Zonal","observacion":"","source_geometry":"Point"},"geometry":{"type":"Point","coordinates":[-78.673653401,-1.64466886]}},{"type":"Feature","properties":{"source_id":889,"globalid":"b0f056ec-20d5-4ede-89fa-e77569d3b959","codigo":"69d3b959","tipo_eleme":"Seguridad","elemento":"Unidad de vigilancia de policía (UPC)","platform_name":"PLATAFORMA J","plataforma":"PLATAFORMA J","parroquia":"RIOBAMBA","estado":"Regular","nombre_ins":"","tipo_equip":"Público","nombre_equ":"UPC la Condamine, junto al parque Bonilla Abarca","tipologia":"Zonal","observacion":"Sin observaciones","source_geometry":"Point"},"geometry":{"type":"Point","coordinates":[-78.6584811,-1.6741269]}},{"type":"Feature","properties":{"source_id":933,"globalid":"1310157d-5ba5-413f-8f36-dafe13bd2faa","codigo":"13bd2faa","tipo_eleme":"Seguridad","elemento":"Unidad de vigilancia de policía (UPC)","platform_name":"PLATAFORMA J","plataforma":"PLATAFORMA J","parroquia":"RIOBAMBA","estado":"Regular","nombre_ins":"","tipo_equip":"Público","nombre_equ":"UPC Terminal Terrestre","tipologia":"Zonal","observacion":"","source_geometry":"Point"},"geometry":{"type":"Point","coordinates":[-78.662880562,-1.662094737]}},{"type":"Feature","properties":{"source_id":964,"globalid":"717f8764-fd10-4bf0-8cd7-6d93e8504640","codigo":"e8504640","tipo_eleme":"Seguridad","elemento":"Unidad de vigilancia de policía (UPC)","platform_name":"PLATAFORMA J","plataforma":"PLATAFORMA J","parroquia":"RIOBAMBA","estado":"Regular","nombre_ins":"","tipo_equip":"Público","nombre_equ":"UPC LA PRIMAVERA","tipologia":"Zonal","observacion":"","source_geometry":"Point"},"geometry":{"type":"Point","coordinates":[-78.66200744,-1.677050639]}},{"type":"Feature","properties":{"source_id":998,"globalid":"d6273ac2-04f9-49f9-8096-56645888a179","codigo":"5888a179","tipo_eleme":"Seguridad","elemento":"Unidad de vigilancia de policía (UPC)","platform_name":"PLATAFORMA K","plataforma":"PLATAFORMA K","parroquia":"RIOBAMBA","estado":"","nombre_ins":"","tipo_equip":"Público","nombre_equ":"UPC","tipologia":"Zonal","observacion":"No se puede verificar el nombre del UPC","source_geometry":"Point"},"geometry":{"type":"Point","coordinates":[-78.6487492,-1.6758032]}},{"type":"Feature","properties":{"source_id":1055,"globalid":"eeeb500b-8ca8-47a7-8746-e060f7722f97","codigo":"f7722f97","tipo_eleme":"Seguridad","elemento":"Unidad de vigilancia de policía (UPC)","platform_name":"PLATAFORMA J","plataforma":"PLATAFORMA J","parroquia":"RIOBAMBA","estado":"Regular","nombre_ins":"","tipo_equip":"Público","nombre_equ":"Upc SAN MARTIN","tipologia":"Zonal","observacion":"","source_geometry":"Point"},"geometry":{"type":"Point","coordinates":[-78.662216949,-1.669242814]}}]}