{
  "type": "FeatureCollection",
  "features": [
    {
      "type": "Feature",
      "properties": {
        "source_id": 1,
        "objectid": 233,
        "codigo": "060101003003002",
        "equipamien": "Salud",
        "nombre": "Subcentro de Salud Municipal",
        "categoria": "ZONAL",
        "isocrona_distance_m": 1000,
        "genera_isocrona": true,
        "shape_area": 898.6978735583476,
        "shape_leng": 128.96072297040007
      },
      "geometry": {
        "type": "Polygon",
        "coordinates": [
          [
            [
              -78.65209460246133,
              -1.6743674567607723
            ],
            [
              -78.65222658241605,
              -1.674530198565317
            ],
            [
              -78.65234076714827,
              -1.6744227857275547
            ],
            [
              -78.65246211123288,
              -1.6743086388535404
            ],
            [
              -78.65233876139995,
              -1.674158533979522
            ],
            [
              -78.65230227868614,
              -1.6741141371882444
            ],
            [
              -78.65219537230553,
              -1.674209221569266
            ],
            [
              -78.65219546918917,
              -1.6742093328731706
            ],
            [
              -78.65223119119432,
              -1.674250580254575
            ],
            [
              -78.65209460246133,
              -1.6743674567607723
            ]
          ]
        ]
      }
    },
    {
      "type": "Feature",
      "properties": {
        "source_id": 2,
        "objectid": 234,
        "codigo": "060101003003002",
        "equipamien": "Salud",
        "nombre": "Centro de embarazas",
        "categoria": "BARRIAL",
        "isocrona_distance_m": 400,
        "genera_isocrona": true,
        "shape_area": 0.0,
        "shape_leng": 0.0
      },
      "geometry": {
        "type": "Polygon",
        "coordinates": [
          [
            [
              -78.65284606380138,
              -1.6798351947834393
            ],
            [
              -78.65331323646161,
              -1.6794632420284752
            ],
            [
              -78.65318826033595,
              -1.6793204121705674
            ],
            [
              -78.65272406329774,
              -1.6796893893034865
            ],
            [
              -78.65284606380138,
              -1.6798351947834393
            ]
          ]
        ]
      }
    }
  ]
}