{
  "type": "FeatureCollection",
  "features": [
    {
      "type": "Feature",
      "properties": {
        "source_id": 1,
        "objectid": 452,
        "codigo": "060104007002011",
        "equipamien": "Bienestar Social",
        "nombre": "Hogar de Adulto San Sebastian",
        "categoria": "ZONAL",
        "isocrona_distance_m": 1000,
        "genera_isocrona": true,
        "shape_area": 970.4382453532073,
        "shape_leng": 127.08413856268737
      },
      "geometry": {
        "type": "Polygon",
        "coordinates": [
          [
            [
              -78.66126801193008,
              -1.6812041255169858
            ],
            [
              -78.66131565745205,
              -1.6812514522631457
            ],
            [
              -78.66140653162302,
              -1.6813890270816314
            ],
            [
              -78.66141032454537,
              -1.6813948342147473
            ],
            [
              -78.66168046174501,
              -1.6812234162581456
            ],
            [
              -78.66154334741125,
              -1.6810132179847994
            ],
            [
              -78.66144701254082,
              -1.6810800134357884
            ],
            [
              -78.66138260019326,
              -1.6811246739731243
            ],
            [
              -78.66126801193008,
              -1.6812041255169858
            ]
          ]
        ]
      }
    }
  ]
}