{"type": "FeatureCollection", "features": [{"type": "Feature", "properties": {"feature_id": "CDI-006", "source_id": 6, "nombre": "Guardianes del Patrimonio", "tipo": "CDI", "ninos": 22, "este_x": 758975.033, "norte_y": 9818205.191, "platform_name": "PLATAFORMA B", "platform_assignment_method": "polygon"}, "geometry": {"type": "Point", "coordinates": [-78.67234928895205, -1.6433846732660204]}}, {"type": "Feature", "properties": {"feature_id": "CDI-003", "source_id": 3, "nombre": "Guardianes de la Paz - Av 9 de Octubre", "tipo": "CDI", "ninos": 50, "este_x": 760687.638, "norte_y": 9814279.508, "platform_name": "PLATAFORMA J", "platform_assignment_method": "polygon"}, "geometry": {"type": "Point", "coordinates": [-78.65692329898471, -1.6788532537601617]}}, {"type": "Feature", "properties": {"feature_id": "CDI-004", "source_id": 4, "nombre": "Guardianes del Agua - Condamine", "tipo": "CDI", "ninos": 70, "este_x": 760729.117, "norte_y": 9814912.266, "platform_name": "PLATAFORMA J", "platform_assignment_method": "polygon"}, "geometry": {"type": "Point", "coordinates": [-78.65655749906236, -1.6731329167325193]}}, {"type": "Feature", "properties": {"feature_id": "CDI-001", "source_id": 1, "nombre": "Guardianes de los Andes - San Alfonso", "tipo": "CDI", "ninos": 44, "este_x": 761907.479, "norte_y": 9815095.665, "platform_name": "PLATAFORMA K", "platform_assignment_method": "polygon"}, "geometry": {"type": "Point", "coordinates": [-78.64597430544892, -1.6714623174205565]}}, {"type": "Feature", "properties": {"feature_id": "CDI-002", "source_id": 2, "nombre": "Guardianes de la Alegria - San Antonio", "tipo": "CDI", "ninos": 34, "este_x": 761494.297, "norte_y": 9817192.031, "platform_name": "PLATAFORMA L", "platform_assignment_method": "polygon"}, "geometry": {"type": "Point", "coordinates": [-78.64970830269849, -1.6525165345187338]}}, {"type": "Feature", "properties": {"feature_id": "CDI-007", "source_id": 7, "nombre": "Guardianes de la Naturaleza", "tipo": "CDI", "ninos": 58, "este_x": 763479.107, "norte_y": 9813142.797, "platform_name": "PLATAFORMA Q", "platform_assignment_method": "polygon"}, "geometry": {"type": "Point", "coordinates": [-78.6318353146612, -1.6890980966668583]}}, {"type": "Feature", "properties": {"feature_id": "CDI-005", "source_id": 5, "nombre": "Guardianes de la Esperanza", "tipo": "CDI", "ninos": 32, "este_x": 760307.929, "norte_y": 9814192.46, "platform_name": "PLATAFORMA Ñ", "platform_assignment_method": "polygon"}, "geometry": {"type": "Point", "coordinates": [-78.66033329695844, -1.6796442507034957]}}, {"type": "Feature", "properties": {"feature_id": "WAWATECA-005", "source_id": 5, "nombre": "Davalos", "tipo": "Wawateca", "ninos": 45, "este_x": 759859.805, "norte_y": 9816707.877, "platform_name": "PLATAFORMA H", "platform_assignment_method": "polygon"}, "geometry": {"type": "Point", "coordinates": [-78.66438564980561, -1.6569105580096766]}}, {"type": "Feature", "properties": {"feature_id": "WAWATECA-004", "source_id": 4, "nombre": "Guaira - Av 11 de noviembre y Joaquin Gallegos", "tipo": "Wawateca", "ninos": 20, "este_x": 759859.805, "norte_y": 9816707.877, "platform_name": "PLATAFORMA H", "platform_assignment_method": "polygon"}, "geometry": {"type": "Point", "coordinates": [-78.66438564980561, -1.6569105580096766]}}, {"type": "Feature", "properties": {"feature_id": "WAWATECA-007", "source_id": 7, "nombre": "Nocturna", "tipo": "Wawateca", "ninos": 30, "este_x": 760416.756, "norte_y": 9814621.195, "platform_name": "PLATAFORMA J", "platform_assignment_method": "polygon"}, "geometry": {"type": "Point", "coordinates": [-78.65936030884406, -1.675767466113983]}}, {"type": "Feature", "properties": {"feature_id": "WAWATECA-001", "source_id": 1, "nombre": "NINA Primera", "tipo": "Wawateca", "ninos": 50, "este_x": 763060.117, "norte_y": 9812312.989, "platform_name": "PLATAFORMA P", "platform_assignment_method": "nearest_platform"}, "geometry": {"type": "Point", "coordinates": [-78.63558997011529, -1.6966037461883776]}}, {"type": "Feature", "properties": {"feature_id": "WAWATECA-009", "source_id": 9, "nombre": "Casa del bienestar Yacu", "tipo": "Wawateca", "ninos": 30, "este_x": 761304.027, "norte_y": 9813063.48, "platform_name": "PLATAFORMA Ñ", "platform_assignment_method": "nearest_platform"}, "geometry": {"type": "Point", "coordinates": [-78.65137311096838, -1.6898389544358299]}}, {"type": "Feature", "properties": {"feature_id": "WAWATECA-006", "source_id": 6, "nombre": "Condamine", "tipo": "Wawateca", "ninos": 40, "este_x": 760755.782, "norte_y": 9814007.626, "platform_name": "PLATAFORMA Ñ", "platform_assignment_method": "polygon"}, "geometry": {"type": "Point", "coordinates": [-78.6563082315449, -1.6813102326278349]}}, {"type": "Feature", "properties": {"feature_id": "WAWATECA-002", "source_id": 2, "nombre": "RUMI Segunda", "tipo": "Wawateca", "ninos": 30, "este_x": 761796.378, "norte_y": 9813787.019, "platform_name": "PLATAFORMA Ñ", "platform_assignment_method": "polygon"}, "geometry": {"type": "Point", "coordinates": [-78.64695817327802, -1.6832931016309498]}}, {"type": "Feature", "properties": {"feature_id": "WAWATECA-003", "source_id": 3, "nombre": "San Alfonso Tercera - Mercado San Alfonso", "tipo": "Wawateca", "ninos": 20, "este_x": 761885.882, "norte_y": 9814160.262, "platform_name": "PLATAFORMA Ñ", "platform_assignment_method": "polygon"}, "geometry": {"type": "Point", "coordinates": [-78.64615821082988, -1.679918174666451]}}, {"type": "Feature", "properties": {"feature_id": "WAWATECA-008", "source_id": 8, "nombre": "Santa Rosa", "tipo": "Wawateca", "ninos": 50, "este_x": 760985.217, "norte_y": 9814009.242, "platform_name": "PLATAFORMA Ñ", "platform_assignment_method": "polygon"}, "geometry": {"type": "Point", "coordinates": [-78.6542472241442, -1.6812931309564771]}}]}