{
  "type": "FeatureCollection",
  "features": [
    {
      "type": "Feature",
      "properties": {
        "source_id": 1,
        "objectid": 25,
        "codigo": "060102001001022",
        "equipamien": "Recreativo y Deporte",
        "nombre": "Parque La Libertad",
        "categoria": "BARRIAL",
        "isocrona_distance_m": 400,
        "genera_isocrona": true,
        "shape_area": 7078.49565432989,
        "shape_leng": 334.96144655570436
      },
      "geometry": {
        "type": "Polygon",
        "coordinates": [
          [
            [
              -78.64558031804476,
              -1.6746735407307651
            ],
            [
              -78.64597557240266,
              -1.6751446562279155
            ],
            [
              -78.6460065146923,
              -1.6751419338676279
            ],
            [
              -78.6460111753499,
              -1.675137914186219
            ],
            [
              -78.64664306358215,
              -1.6745928121937195
            ],
            [
              -78.6466433218102,
              -1.6745653656677513
            ],
            [
              -78.64625573945065,
              -1.6741031987389294
            ],
            [
              -78.64623258594159,
              -1.6741039445466732
            ],
            [
              -78.64622172964674,
              -1.674104293914237
            ],
            [
              -78.64620984514346,
              -1.6741111351583706
            ],
            [
              -78.64558285637757,
              -1.6746421485030305
            ],
            [
              -78.64558031804476,
              -1.6746735407307651
            ]
          ]
        ]
      }
    },
    {
      "type": "Feature",
      "properties": {
        "source_id": 2,
        "objectid": 46,
        "codigo": "060102001001014",
        "equipamien": "Recreativo y Deporte",
        "nombre": "Parque Maldonado",
        "categoria": "BARRIAL",
        "isocrona_distance_m": 400,
        "genera_isocrona": true,
        "shape_area": 5396.341902283855,
        "shape_leng": 302.7225673754435
      },
      "geometry": {
        "type": "Polygon",
        "coordinates": [
          [
            [
              -78.64776961395171,
              -1.6726298204635146
            ],
            [
              -78.64781953807386,
              -1.6726904359090697
            ],
            [
              -78.64788924814498,
              -1.6727750734963984
            ],
            [
              -78.64792016804455,
              -1.6727783243735723
            ],
            [
              -78.64803658050121,
              -1.6729194496833069
            ],
            [
              -78.64817741734421,
              -1.6730901846908595
            ],
            [
              -78.6481980940576,
              -1.6731152519826396
            ],
            [
              -78.64821764503895,
              -1.6731389538442631
            ],
            [
              -78.64821435536489,
              -1.673155638742767
            ],
            [
              -78.64821198480337,
              -1.6731676684638888
            ],
            [
              -78.64821690849064,
              -1.673173585385224
            ],
            [
              -78.64822420656348,
              -1.6731823553506744
            ],
            [
              -78.64823244719584,
              -1.6731826247307633
            ],
            [
              -78.64824068782714,
              -1.6731828950147754
            ],
            [
              -78.64824798708788,
              -1.673176345609255
            ],
            [
              -78.64868500920636,
              -1.672784239638587
            ],
            [
              -78.64869187660364,
              -1.6727654401704113
            ],
            [
              -78.6486764343059,
              -1.6727471019298608
            ],
            [
              -78.64866377286249,
              -1.6727470866577707
            ],
            [
              -78.64835725753743,
              -1.6723792291216866
            ],
            [
              -78.64836072603816,
              -1.6723466402003326
            ],
            [
              -78.648271602609,
              -1.6722411104392298
            ],
            [
              -78.64826322948709,
              -1.6722480020587889
            ],
            [
              -78.64823866133189,
              -1.6722184292802411
            ],
            [
              -78.64805471431801,
              -1.6723743444172652
            ],
            [
              -78.64790440016682,
              -1.6725130335777727
            ],
            [
              -78.64776961395171,
              -1.6726298204635146
            ]
          ]
        ]
      }
    },
    {
      "type": "Feature",
      "properties": {
        "source_id": 3,
        "objectid": 50,
        "codigo": "060101001002058",
        "equipamien": "Recreativo y Deporte",
        "nombre": "Parque Sucre",
        "categoria": "BARRIAL",
        "isocrona_distance_m": 400,
        "genera_isocrona": true,
        "shape_area": 5200.323068966989,
        "shape_leng": 285.7116760798005
      },
      "geometry": {
        "type": "Polygon",
        "coordinates": [
          [
            [
              -78.65044643697935,
              -1.6722812247527126
            ],
            [
              -78.65082425950696,
              -1.6719411638627573
            ],
            [
              -78.6508306150096,
              -1.6718429310104397
            ],
            [
              -78.65080539635471,
              -1.6718164182399726
            ],
            [
              -78.65076981547833,
              -1.6718113755856256
            ],
            [
              -78.650508746603,
              -1.6714949122218083
            ],
            [
              -78.65051162897805,
              -1.6714588703173576
            ],
            [
              -78.65048856048925,
              -1.6714311497437506
            ],
            [
              -78.65043291941858,
              -1.671428693569776
            ],
            [
              -78.65041977668099,
              -1.6714285105090236
            ],
            [
              -78.65039116465653,
              -1.6714281153704658
            ],
            [
              -78.65034126690824,
              -1.6714720509673937
            ],
            [
              -78.65007918972262,
              -1.6717028125283102
            ],
            [
              -78.64999096738258,
              -1.6717804928133317
            ],
            [
              -78.64998947994486,
              -1.671800006590496
            ],
            [
              -78.64998685093178,
              -1.6718344876480107
            ],
            [
              -78.64998346449747,
              -1.671878915860696
            ],
            [
              -78.65000311240463,
              -1.6719072696071517
            ],
            [
              -78.65003825639863,
              -1.6719087817890772
            ],
            [
              -78.65012839323731,
              -1.6720143833123045
            ],
            [
              -78.65021808156472,
              -1.6721194563924389
            ],
            [
              -78.65028468175987,
              -1.6721974805153765
            ],
            [
              -78.65030782820592,
              -1.6722245991570286
            ],
            [
              -78.65030486678168,
              -1.6722606201677381
            ],
            [
              -78.65032507051123,
              -1.6722891653279583
            ],
            [
              -78.65042922247281,
              -1.6722967186620545
            ],
            [
              -78.65044643697935,
              -1.6722812247527126
            ]
          ]
        ]
      }
    },
    {
      "type": "Feature",
      "properties": {
        "source_id": 4,
        "objectid": 101,
        "codigo": "060102002002041",
        "equipamien": "Recreativo y Deporte",
        "nombre": "Parque del Barrio Mariana de Jesús",
        "categoria": "BARRIAL",
        "isocrona_distance_m": 400,
        "genera_isocrona": true,
        "shape_area": 2736.5349185828013,
        "shape_leng": 236.69092120191405
      },
      "geometry": {
        "type": "Polygon",
        "coordinates": [
          [
            [
              -78.6443786255711,
              -1.6726038024354069
            ],
            [
              -78.6441897306669,
              -1.6723744739875235
            ],
            [
              -78.6442665811271,
              -1.6723106210479868
            ],
            [
              -78.64436303466692,
              -1.6722304808110335
            ],
            [
              -78.64423891304617,
              -1.6720853156634292
            ],
            [
              -78.64418630973638,
              -1.6720237904005333
            ],
            [
              -78.64414735926556,
              -1.6720588990676444
            ],
            [
              -78.64381051416437,
              -1.6723625256027284
            ],
            [
              -78.64380841909494,
              -1.6723823106436693
            ],
            [
              -78.6439629756125,
              -1.6725628807221626
            ],
            [
              -78.64414211555378,
              -1.672772174784913
            ],
            [
              -78.64416543693335,
              -1.6727782531410667
            ],
            [
              -78.6443786255711,
              -1.6726038024354069
            ]
          ]
        ]
      }
    },
    {
      "type": "Feature",
      "properties": {
        "source_id": 5,
        "objectid": 298,
        "codigo": "060104008001014",
        "equipamien": "Recreativo y Deporte",
        "nombre": "PARQUE RIO CHIBUNGA",
        "categoria": "CANTONAL",
        "isocrona_distance_m": 0,
        "genera_isocrona": false,
        "shape_area": 1919.2527467304028,
        "shape_leng": 278.9175223901165
      },
      "geometry": {
        "type": "Polygon",
        "coordinates": [
          [
            [
              -78.66248974079298,
              -1.68331704179859
            ],
            [
              -78.66258555798814,
              -1.6832680078245814
            ],
            [
              -78.66258583807786,
              -1.6832658992074876
            ],
            [
              -78.6625561402615,
              -1.68321441680515
            ],
            [
              -78.66254553763383,
              -1.6831366718913234
            ],
            [
              -78.66254562364843,
              -1.6830637227631882
            ],
            [
              -78.66256591722649,
              -1.682988407020524
            ],
            [
              -78.66260529559227,
              -1.6828533195907225
            ],
            [
              -78.66268039251297,
              -1.682660875132464
            ],
            [
              -78.6626883658217,
              -1.6826413274211436
            ],
            [
              -78.66271564315514,
              -1.6825634645703325
            ],
            [
              -78.66278333767113,
              -1.682368246818968
            ],
            [
              -78.66266269892985,
              -1.682220780024349
            ],
            [
              -78.66263265253806,
              -1.6823284794916002
            ],
            [
              -78.66260986001605,
              -1.6824195474764418
            ],
            [
              -78.66259940307702,
              -1.6824638292501353
            ],
            [
              -78.66258884681972,
              -1.682508533055934
            ],
            [
              -78.66255999545102,
              -1.6826189955704223
            ],
            [
              -78.66252788862155,
              -1.6827271797720875
            ],
            [
              -78.66252678966185,
              -1.682730472502165
            ],
            [
              -78.66251019678953,
              -1.6827759084663694
            ],
            [
              -78.66249010799721,
              -1.6828218491456
            ],
            [
              -78.66248409554865,
              -1.6828354836579753
            ],
            [
              -78.66246892052885,
              -1.6828655638352479
            ],
            [
              -78.66244185779547,
              -1.6829118161023269
            ],
            [
              -78.66239734851118,
              -1.6829705582207017
            ],
            [
              -78.66238767413309,
              -1.6829822863668928
            ],
            [
              -78.66234314258516,
              -1.6830461394811937
            ],
            [
              -78.66228819182697,
              -1.6830818720740985
            ],
            [
              -78.66236131715978,
              -1.6831531919906209
            ],
            [
              -78.66245625177778,
              -1.683268109433204
            ],
            [
              -78.66248974079298,
              -1.68331704179859
            ]
          ]
        ]
      }
    },
    {
      "type": "Feature",
      "properties": {
        "source_id": 6,
        "objectid": 299,
        "codigo": "060104007003002",
        "equipamien": "Recreativo y Deporte",
        "nombre": "Parque Monseñor Leonidas Proaño",
        "categoria": "CANTONAL",
        "isocrona_distance_m": 0,
        "genera_isocrona": false,
        "shape_area": 45134.962239333494,
        "shape_leng": 1543.2044733573346
      },
      "geometry": {
        "type": "Polygon",
        "coordinates": [
          [
            [
              -78.64878510738775,
              -1.6885071282368638
            ],
            [
              -78.64854433765633,
              -1.6886084833424766
            ],
            [
              -78.64840451259461,
              -1.6887667651200495
            ],
            [
              -78.64838902436266,
              -1.6887926690538955
            ],
            [
              -78.64830627431832,
              -1.6889310762859582
            ],
            [
              -78.6483209631887,
              -1.6890686186871444
            ],
            [
              -78.64822274554257,
              -1.6892149926107842
            ],
            [
              -78.64814382886799,
              -1.68940609253611
            ],
            [
              -78.64812129398189,
              -1.6894606614036982
            ],
            [
              -78.64810058076702,
              -1.6895108193682262
            ],
            [
              -78.64793703868669,
              -1.689627217027781
            ],
            [
              -78.64784775548173,
              -1.6897556636106295
            ],
            [
              -78.64778818535133,
              -1.6898811561018818
            ],
            [
              -78.64773461055167,
              -1.6899618114707757
            ],
            [
              -78.6476508117973,
              -1.6900638420195278
            ],
            [
              -78.6476253567183,
              -1.6901227001834902
            ],
            [
              -78.64734504571074,
              -1.6902692713048482
            ],
            [
              -78.64713693886934,
              -1.6903856134881368
            ],
            [
              -78.64705949325426,
              -1.6905529399757175
            ],
            [
              -78.64699688299814,
              -1.6907352323706453
            ],
            [
              -78.64695216432308,
              -1.6908637331253125
            ],
            [
              -78.64690750597677,
              -1.690941409878632
            ],
            [
              -78.64679149908942,
              -1.6910578651769386
            ],
            [
              -78.6467468082988,
              -1.6911624481416934
            ],
            [
              -78.64669023117447,
              -1.6912700068791942
            ],
            [
              -78.64662764240856,
              -1.6914343610918543
            ],
            [
              -78.64662454919007,
              -1.6915360054257442
            ],
            [
              -78.64662150524428,
              -1.6916444602280927
            ],
            [
              -78.6466214451505,
              -1.691646618803041
            ],
            [
              -78.64660941013909,
              -1.69177217000528
            ],
            [
              -78.64656755295948,
              -1.6919903638387117
            ],
            [
              -78.64654667347695,
              -1.6920591005069512
            ],
            [
              -78.64654177676606,
              -1.6920800120810546
            ],
            [
              -78.64652743066065,
              -1.6921412737733752
            ],
            [
              -78.64652557871088,
              -1.6921491775153115
            ],
            [
              -78.64650187891283,
              -1.6922503835632043
            ],
            [
              -78.64650043472635,
              -1.6922747262517115
            ],
            [
              -78.64649954253368,
              -1.6922897697099522
            ],
            [
              -78.64649916384109,
              -1.6922961484684098
            ],
            [
              -78.64649908406543,
              -1.6922974943621951
            ],
            [
              -78.64649895201376,
              -1.6922997296853102
            ],
            [
              -78.6466323620327,
              -1.6922993394061745
            ],
            [
              -78.64676243170283,
              -1.6923000867355462
            ],
            [
              -78.64676559654139,
              -1.692299987549573
            ],
            [
              -78.64678818520781,
              -1.6922992784114068
            ],
            [
              -78.64714786569998,
              -1.692301343855702
            ],
            [
              -78.6472635097058,
              -1.6921321160628102
            ],
            [
              -78.6474360200664,
              -1.6919708853542395
            ],
            [
              -78.6475076470435,
              -1.69170190361125
            ],
            [
              -78.64748195975439,
              -1.6914889984902457
            ],
            [
              -78.64748120552898,
              -1.6914827458022716
            ],
            [
              -78.64743116588751,
              -1.6910680034537127
            ],
            [
              -78.64755615505811,
              -1.6908947561591674
            ],
            [
              -78.64787103189981,
              -1.6909310155894035
            ],
            [
              -78.6481564594335,
              -1.690751984168997
            ],
            [
              -78.64830287356712,
              -1.690435806441915
            ],
            [
              -78.64832639492379,
              -1.6903953423319724
            ],
            [
              -78.64834235238993,
              -1.6903505526016063
            ],
            [
              -78.64858539186888,
              -1.689825713518732
            ],
            [
              -78.64888896065568,
              -1.6893836140064662
            ],
            [
              -78.64895581410647,
              -1.6892088527614388
            ],
            [
              -78.64902854743093,
              -1.6890187223287059
            ],
            [
              -78.64905585902822,
              -1.6889473266185604
            ],
            [
              -78.64916032782746,
              -1.6887928064526219
            ],
            [
              -78.64916895609335,
              -1.6887800440272296
            ],
            [
              -78.64931767614551,
              -1.6886367207915502
            ],
            [
              -78.64931808771621,
              -1.6886365974502506
            ],
            [
              -78.64955543846312,
              -1.688565258497345
            ],
            [
              -78.6497236294299,
              -1.6885689895416367
            ],
            [
              -78.64977146455959,
              -1.6885700502483678
            ],
            [
              -78.65000125681121,
              -1.6885751479955569
            ],
            [
              -78.65012584627911,
              -1.688577911141506
            ],
            [
              -78.65015681491593,
              -1.68858418342958
            ],
            [
              -78.65074420884277,
              -1.6887031450099284
            ],
            [
              -78.65063881325675,
              -1.6886630789599928
            ],
            [
              -78.65065798564986,
              -1.6885315563304037
            ],
            [
              -78.65061551729201,
              -1.688501051184422
            ],
            [
              -78.65054899911519,
              -1.6884746623386502
            ],
            [
              -78.65047533388703,
              -1.6884626115334005
            ],
            [
              -78.65021631707042,
              -1.6884216390419953
            ],
            [
              -78.65011175873755,
              -1.6884047686991472
            ],
            [
              -78.65002388095841,
              -1.6883520432356554
            ],
            [
              -78.6499740615043,
              -1.688275448043594
            ],
            [
              -78.64995278610282,
              -1.6881797525847544
            ],
            [
              -78.64993756161638,
              -1.688125966594609
            ],
            [
              -78.64984072257356,
              -1.6880394429803716
            ],
            [
              -78.64964719941014,
              -1.6880776664488117
            ],
            [
              -78.64939749246605,
              -1.688199938465281
            ],
            [
              -78.64927598457457,
              -1.688273902521482
            ],
            [
              -78.64921613183606,
              -1.6883103351281092
            ],
            [
              -78.64878510738775,
              -1.6885071282368638
            ]
          ]
        ]
      }
    },
    {
      "type": "Feature",
      "properties": {
        "source_id": 7,
        "objectid": 300,
        "codigo": "",
        "equipamien": "Recreativo y Deporte",
        "nombre": "PARQUE RIO CHIBUNGA",
        "categoria": "CANTONAL",
        "isocrona_distance_m": 0,
        "genera_isocrona": false,
        "shape_area": 638.8850306446494,
        "shape_leng": 129.18646243005134
      },
      "geometry": {
        "type": "Polygon",
        "coordinates": [
          [
            [
              -78.66264122093332,
              -1.683619920655003
            ],
            [
              -78.66267155591301,
              -1.6837646435193574
            ],
            [
              -78.6627100007302,
              -1.6837443741611358
            ],
            [
              -78.6627302506938,
              -1.6837049350119382
            ],
            [
              -78.66274456975458,
              -1.6836559211161781
            ],
            [
              -78.66274585332371,
              -1.683574604495578
            ],
            [
              -78.66272098010388,
              -1.6835052121812626
            ],
            [
              -78.66269016030344,
              -1.68343940234696
            ],
            [
              -78.66260239114794,
              -1.683294596629732
            ],
            [
              -78.66258583717956,
              -1.6832658992064038
            ],
            [
              -78.66258555798814,
              -1.6832680078245814
            ],
            [
              -78.66248974079298,
              -1.68331704179859
            ],
            [
              -78.66252505917225,
              -1.6833686475955836
            ],
            [
              -78.66258195346634,
              -1.683493087644727
            ],
            [
              -78.66264122093332,
              -1.683619920655003
            ]
          ]
        ]
      }
    },
    {
      "type": "Feature",
      "properties": {
        "source_id": 8,
        "objectid": 301,
        "codigo": "",
        "equipamien": "Recreativo y Deporte",
        "nombre": "Área verde barrio la Tarazano",
        "categoria": "CANTONAL",
        "isocrona_distance_m": 0,
        "genera_isocrona": false,
        "shape_area": 17730.630922680433,
        "shape_leng": 1040.0740078556464
      },
      "geometry": {
        "type": "Polygon",
        "coordinates": [
          [
            [
              -78.66264036632614,
              -1.6831188470738982
            ],
            [
              -78.6626545123978,
              -1.6832150127883534
            ],
            [
              -78.6627014967808,
              -1.683278211575533
            ],
            [
              -78.6627840502969,
              -1.6834117710770016
            ],
            [
              -78.66285662002863,
              -1.6835453185438505
            ],
            [
              -78.6628743793511,
              -1.683601306389818
            ],
            [
              -78.66287608204983,
              -1.6836265987346875
            ],
            [
              -78.6626956159763,
              -1.6838394586573697
            ],
            [
              -78.6627007962112,
              -1.6839896997186252
            ],
            [
              -78.66301682210243,
              -1.684398978091516
            ],
            [
              -78.66332248508265,
              -1.6845544000739376
            ],
            [
              -78.66408405524317,
              -1.6848134373371824
            ],
            [
              -78.66418766934666,
              -1.684787534435253
            ],
            [
              -78.66439766129535,
              -1.6847330254574382
            ],
            [
              -78.66449851394304,
              -1.6847305464357374
            ],
            [
              -78.66476791271852,
              -1.6847305460537334
            ],
            [
              -78.66508393877054,
              -1.6848289798831206
            ],
            [
              -78.6651269634977,
              -1.6848341428263858
            ],
            [
              -78.66516818386434,
              -1.6847228886989576
            ],
            [
              -78.66484044322782,
              -1.684611388368538
            ],
            [
              -78.6643016462203,
              -1.6844715082321076
            ],
            [
              -78.664129672891,
              -1.6844043917306089
            ],
            [
              -78.66407888245158,
              -1.68454084226552
            ],
            [
              -78.66398123440868,
              -1.6845091533507153
            ],
            [
              -78.66393779222405,
              -1.6844646139555843
            ],
            [
              -78.66381650689146,
              -1.6844345010603075
            ],
            [
              -78.6636796947738,
              -1.6843587570218224
            ],
            [
              -78.66354761282221,
              -1.684302152075624
            ],
            [
              -78.6635879483344,
              -1.6842014598856807
            ],
            [
              -78.663518801208,
              -1.6841711070875025
            ],
            [
              -78.66335896869575,
              -1.6841009480238254
            ],
            [
              -78.66334324067344,
              -1.68405758380219
            ],
            [
              -78.66330811913329,
              -1.6840194301503397
            ],
            [
              -78.66327800221151,
              -1.6839238697579666
            ],
            [
              -78.66328615026254,
              -1.6839001748513933
            ],
            [
              -78.66328104040232,
              -1.6838860848725121
            ],
            [
              -78.663376495413,
              -1.6836374580211817
            ],
            [
              -78.66348295465424,
              -1.683360166936047
            ],
            [
              -78.66361098244477,
              -1.683325561990984
            ],
            [
              -78.66378374492058,
              -1.6833069786673776
            ],
            [
              -78.66382021546633,
              -1.6833053918919956
            ],
            [
              -78.66398413118013,
              -1.6833737550701178
            ],
            [
              -78.66398594687662,
              -1.6833698042080112
            ],
            [
              -78.66405127769781,
              -1.683227662615759
            ],
            [
              -78.6639627846422,
              -1.6831919666934514
            ],
            [
              -78.66388561604563,
              -1.6831272959857961
            ],
            [
              -78.66375978198515,
              -1.6830803774779668
            ],
            [
              -78.66374737294069,
              -1.6831224575815902
            ],
            [
              -78.66364852966852,
              -1.6830965075098396
            ],
            [
              -78.66363419554835,
              -1.6831581977707435
            ],
            [
              -78.66353629016166,
              -1.6831427719110257
            ],
            [
              -78.66296140718397,
              -1.683033039277957
            ],
            [
              -78.66280640659137,
              -1.6829622949596132
            ],
            [
              -78.66282762359083,
              -1.682928480541287
            ],
            [
              -78.66270781128364,
              -1.6828556977433233
            ],
            [
              -78.66268221518818,
              -1.6829006943728164
            ],
            [
              -78.66267407430543,
              -1.6829251730207453
            ],
            [
              -78.66266062806798,
              -1.6829707203565445
            ],
            [
              -78.66265094965081,
              -1.6830242958483264
            ],
            [
              -78.66265045773032,
              -1.6830270161957184
            ],
            [
              -78.66264036632614,
              -1.6831188470738982
            ]
          ]
        ]
      }
    },
    {
      "type": "Feature",
      "properties": {
        "source_id": 9,
        "objectid": 318,
        "codigo": "",
        "equipamien": "Recreativo y Deporte",
        "nombre": "PARQUE RIO CHIBUNGA",
        "categoria": "CANTONAL",
        "isocrona_distance_m": 0,
        "genera_isocrona": false,
        "shape_area": 68917.58986114585,
        "shape_leng": 3628.7655230886257
      },
      "geometry": {
        "type": "Polygon",
        "coordinates": [
          [
            [
              -78.66216608937533,
              -1.6826332053707997
            ],
            [
              -78.66202905959089,
              -1.682706450290017
            ],
            [
              -78.66202389120095,
              -1.6826977596469233
            ],
            [
              -78.66201648601673,
              -1.6826853058040407
            ],
            [
              -78.66194202192275,
              -1.6827280947169594
            ],
            [
              -78.66187642343765,
              -1.6827654289377516
            ],
            [
              -78.66183234859271,
              -1.6827505850570266
            ],
            [
              -78.66180603908765,
              -1.6827617859998298
            ],
            [
              -78.66173499399295,
              -1.682791726424547
            ],
            [
              -78.66151347277456,
              -1.6828644119021459
            ],
            [
              -78.66132148658836,
              -1.6829156023131293
            ],
            [
              -78.66120434049367,
              -1.6829394105954756
            ],
            [
              -78.66115731642448,
              -1.6829585676335714
            ],
            [
              -78.66104918856638,
              -1.68300261935352
            ],
            [
              -78.6609192339906,
              -1.6830358305652995
            ],
            [
              -78.66078467150095,
              -1.6830702176820997
            ],
            [
              -78.66074483920788,
              -1.6830803970589239
            ],
            [
              -78.66066582191232,
              -1.6830799888803136
            ],
            [
              -78.66052835035183,
              -1.683079278700488
            ],
            [
              -78.66042148752507,
              -1.6830787257005122
            ],
            [
              -78.66042702515506,
              -1.6829593076820355
            ],
            [
              -78.66042466856722,
              -1.682885752770266
            ],
            [
              -78.66036166293141,
              -1.6828806443187752
            ],
            [
              -78.66020722584703,
              -1.6828356121108623
            ],
            [
              -78.66013306624762,
              -1.6827398531890794
            ],
            [
              -78.65959364355311,
              -1.6827063914641522
            ],
            [
              -78.65957566259107,
              -1.6827052759504026
            ],
            [
              -78.65851103881513,
              -1.682639234395054
            ],
            [
              -78.65841689171387,
              -1.6826168198417613
            ],
            [
              -78.6580363917444,
              -1.6827932296704238
            ],
            [
              -78.65798039556618,
              -1.6826655475830563
            ],
            [
              -78.65794465678565,
              -1.682677349935983
            ],
            [
              -78.65783906860518,
              -1.6827274492730049
            ],
            [
              -78.65745522839634,
              -1.6825211753766212
            ],
            [
              -78.65742248031553,
              -1.6825779399672267
            ],
            [
              -78.65738377567908,
              -1.6826466558893554
            ],
            [
              -78.65730933084106,
              -1.6827900701187934
            ],
            [
              -78.65722519107699,
              -1.68282547879528
            ],
            [
              -78.65666445543117,
              -1.682804836742537
            ],
            [
              -78.65662580165814,
              -1.6828316973652693
            ],
            [
              -78.65654529309295,
              -1.6830767529859698
            ],
            [
              -78.65636696064257,
              -1.6831393202151546
            ],
            [
              -78.65635491179941,
              -1.6832768309507393
            ],
            [
              -78.65633077822916,
              -1.6834510333821073
            ],
            [
              -78.65629487005837,
              -1.6836662461084193
            ],
            [
              -78.65627926545625,
              -1.68368817544479
            ],
            [
              -78.6562353508573,
              -1.683749885566315
            ],
            [
              -78.65621745088083,
              -1.6837960383275725
            ],
            [
              -78.65620197300674,
              -1.683835947635486
            ],
            [
              -78.65614953020508,
              -1.6839650378543554
            ],
            [
              -78.6559972453892,
              -1.6841083576069078
            ],
            [
              -78.65574747803332,
              -1.6843015294320542
            ],
            [
              -78.65565649997085,
              -1.6841997695884323
            ],
            [
              -78.65560051646635,
              -1.684240573560819
            ],
            [
              -78.65551342092269,
              -1.6843040537169074
            ],
            [
              -78.65518861921942,
              -1.6846157822422794
            ],
            [
              -78.65491018502172,
              -1.684909629433907
            ],
            [
              -78.65479196448953,
              -1.6850005576342155
            ],
            [
              -78.65478541718528,
              -1.6849919376544689
            ],
            [
              -78.65477166813027,
              -1.6850051251646523
            ],
            [
              -78.6547433409824,
              -1.6850269151883746
            ],
            [
              -78.65459112012543,
              -1.6851534571140543
            ],
            [
              -78.65419621010409,
              -1.685459120367217
            ],
            [
              -78.65387744915007,
              -1.6856883418382858
            ],
            [
              -78.65382715732888,
              -1.6857388276477592
            ],
            [
              -78.65379346769441,
              -1.6857610332734627
            ],
            [
              -78.6537876708555,
              -1.685764853614498
            ],
            [
              -78.653790754739,
              -1.6857730978661134
            ],
            [
              -78.65377737891056,
              -1.6858939087228295
            ],
            [
              -78.65377720700116,
              -1.6860374141752996
            ],
            [
              -78.6537864836088,
              -1.686228763298024
            ],
            [
              -78.65383380220375,
              -1.686410591959491
            ],
            [
              -78.65377179980008,
              -1.6865827231576633
            ],
            [
              -78.65358610869548,
              -1.6868360209463649
            ],
            [
              -78.65340514750208,
              -1.6871084585345686
            ],
            [
              -78.6533371963156,
              -1.6872019983703705
            ],
            [
              -78.65323849841307,
              -1.6873378631796088
            ],
            [
              -78.65296738145832,
              -1.6874762539423984
            ],
            [
              -78.65258224229798,
              -1.6875618892659074
            ],
            [
              -78.65202580924762,
              -1.6877860362325448
            ],
            [
              -78.65155972779881,
              -1.687981591975436
            ],
            [
              -78.65124112230296,
              -1.6880816571442092
            ],
            [
              -78.65098907542499,
              -1.6881722356508455
            ],
            [
              -78.65084159645866,
              -1.6882725096836388
            ],
            [
              -78.65069890487658,
              -1.6883440878966711
            ],
            [
              -78.65065798564986,
              -1.6885315563304037
            ],
            [
              -78.65063881325675,
              -1.6886630789599928
            ],
            [
              -78.65074959440523,
              -1.6887051927021044
            ],
            [
              -78.65102297192682,
              -1.688663670143743
            ],
            [
              -78.65154049949288,
              -1.6881799733149174
            ],
            [
              -78.65183179000799,
              -1.688066720468063
            ],
            [
              -78.65282430354996,
              -1.6878885465544082
            ],
            [
              -78.6529221727109,
              -1.6878123250713934
            ],
            [
              -78.65295648315606,
              -1.687785604995188
            ],
            [
              -78.65316925754317,
              -1.687619895341762
            ],
            [
              -78.65370481136209,
              -1.6869687978296413
            ],
            [
              -78.65380011796445,
              -1.6867715959390273
            ],
            [
              -78.65399676735132,
              -1.6862994659347166
            ],
            [
              -78.65412198392478,
              -1.6859348784159414
            ],
            [
              -78.65425883430945,
              -1.685779581981386
            ],
            [
              -78.65438369362597,
              -1.6857139602366693
            ],
            [
              -78.65464513035558,
              -1.6857202569372072
            ],
            [
              -78.65482925761665,
              -1.6857802736398384
            ],
            [
              -78.65498971781975,
              -1.6857565502408534
            ],
            [
              -78.6551622629929,
              -1.6855654204445993
            ],
            [
              -78.65539625623349,
              -1.6851697016485205
            ],
            [
              -78.6555404795624,
              -1.6849853098628416
            ],
            [
              -78.65554311652743,
              -1.6849819376616537
            ],
            [
              -78.65592233180476,
              -1.684497104657395
            ],
            [
              -78.65612049183802,
              -1.684245145302303
            ],
            [
              -78.65651318670706,
              -1.6838031488219827
            ],
            [
              -78.65678662960532,
              -1.6837078105525292
            ],
            [
              -78.65727974391547,
              -1.6837622209579088
            ],
            [
              -78.65746993520396,
              -1.6837205956906323
            ],
            [
              -78.65769024312515,
              -1.6833381835226544
            ],
            [
              -78.65810059227542,
              -1.6830397116059337
            ],
            [
              -78.65842152086306,
              -1.6829862846913808
            ],
            [
              -78.65879581854436,
              -1.683022613548721
            ],
            [
              -78.65879822823064,
              -1.6830222530667225
            ],
            [
              -78.65915239828666,
              -1.6829692304637855
            ],
            [
              -78.65937366245883,
              -1.6830312186858833
            ],
            [
              -78.66013842981384,
              -1.683245471937067
            ],
            [
              -78.66068514446052,
              -1.6831982970374795
            ],
            [
              -78.66086348802766,
              -1.6831267600872768
            ],
            [
              -78.66130900484514,
              -1.683234926862927
            ],
            [
              -78.6615020011023,
              -1.6832226453309262
            ],
            [
              -78.6616779450226,
              -1.6831702396276147
            ],
            [
              -78.6620155323779,
              -1.6830988938010545
            ],
            [
              -78.6622151192316,
              -1.6831517536438123
            ],
            [
              -78.66237579692482,
              -1.6832896967087483
            ],
            [
              -78.66243830822793,
              -1.6833433629147248
            ],
            [
              -78.66248974079298,
              -1.68331704179859
            ],
            [
              -78.66245625177778,
              -1.683268109433204
            ],
            [
              -78.66236131715978,
              -1.6831531919906209
            ],
            [
              -78.66228819182697,
              -1.6830818720740985
            ],
            [
              -78.66234314258516,
              -1.6830461394811937
            ],
            [
              -78.66238767413309,
              -1.6829822863668928
            ],
            [
              -78.66239734851118,
              -1.6829705582207017
            ],
            [
              -78.66244185779547,
              -1.6829118161023269
            ],
            [
              -78.66246892052885,
              -1.6828655638352479
            ],
            [
              -78.66248409554865,
              -1.6828354836579753
            ],
            [
              -78.66249010799721,
              -1.6828218491456
            ],
            [
              -78.66251019678953,
              -1.6827759084663694
            ],
            [
              -78.66252678966185,
              -1.682730472502165
            ],
            [
              -78.66252788862155,
              -1.6827271797720875
            ],
            [
              -78.66255999545102,
              -1.6826189955704223
            ],
            [
              -78.66258884681972,
              -1.682508533055934
            ],
            [
              -78.66259940307702,
              -1.6824638292501353
            ],
            [
              -78.66260986001605,
              -1.6824195474764418
            ],
            [
              -78.66263265253806,
              -1.6823284794916002
            ],
            [
              -78.66266269892985,
              -1.682220780024349
            ],
            [
              -78.66258599881064,
              -1.6821309190939666
            ],
            [
              -78.66250835536526,
              -1.68202455150001
            ],
            [
              -78.66229995223635,
              -1.6822231494127948
            ],
            [
              -78.66229171798568,
              -1.6822309967621707
            ],
            [
              -78.66215449306623,
              -1.6823617654247476
            ],
            [
              -78.66228397434121,
              -1.682550225115063
            ],
            [
              -78.66227970212465,
              -1.6825531280230899
            ],
            [
              -78.66216608937533,
              -1.6826332053707997
            ]
          ]
        ]
      }
    },
    {
      "type": "Feature",
      "properties": {
        "source_id": 10,
        "objectid": 394,
        "codigo": "060104007003023",
        "equipamien": "Recreativo y Deporte",
        "nombre": "Parque Monseñor Leonidas Proaño",
        "categoria": "CANTONAL",
        "isocrona_distance_m": 0,
        "genera_isocrona": false,
        "shape_area": 8226.196951315385,
        "shape_leng": 418.90099451143925
      },
      "geometry": {
        "type": "Polygon",
        "coordinates": [
          [
            [
              -78.64945421448961,
              -1.6876941044318363
            ],
            [
              -78.64984072257356,
              -1.6880394429803716
            ],
            [
              -78.64988790362388,
              -1.6880301245200893
            ],
            [
              -78.6499616160084,
              -1.6880507385787538
            ],
            [
              -78.65008613756787,
              -1.6876612910213604
            ],
            [
              -78.65008299249779,
              -1.687561905958766
            ],
            [
              -78.64994091413064,
              -1.686836406590405
            ],
            [
              -78.64987170518384,
              -1.6866390108607028
            ],
            [
              -78.64980186211042,
              -1.6864924349346868
            ],
            [
              -78.64962713155234,
              -1.6865239749902803
            ],
            [
              -78.6496269712719,
              -1.686578919205624
            ],
            [
              -78.6496079101123,
              -1.6866171642155474
            ],
            [
              -78.64953182017388,
              -1.6866457714908887
            ],
            [
              -78.64957038122606,
              -1.686907912109589
            ],
            [
              -78.64959440824136,
              -1.6870304819456696
            ],
            [
              -78.64960689003689,
              -1.6870941556930992
            ],
            [
              -78.64955932388504,
              -1.687103280261055
            ],
            [
              -78.64955480255313,
              -1.6872036620688182
            ],
            [
              -78.6495413959208,
              -1.6872840076763675
            ],
            [
              -78.64952423044178,
              -1.6873279942113288
            ],
            [
              -78.6494676155889,
              -1.6873678676615878
            ],
            [
              -78.64942033205932,
              -1.6874004575126125
            ],
            [
              -78.6494264821747,
              -1.6875265554440324
            ],
            [
              -78.64943376324284,
              -1.6876758322467051
            ],
            [
              -78.64945421448961,
              -1.6876941044318363
            ]
          ]
        ]
      }
    },
    {
      "type": "Feature",
      "properties": {
        "source_id": 11,
        "objectid": 408,
        "codigo": "060104007002003",
        "equipamien": "Recreativo y Deporte",
        "nombre": "Parque lineal Chibunga",
        "categoria": "ZONAL",
        "isocrona_distance_m": 1000,
        "genera_isocrona": true,
        "shape_area": 28070.588259781347,
        "shape_leng": 1323.7612367107915
      },
      "geometry": {
        "type": "Polygon",
        "coordinates": [
          [
            [
              -78.66052287833044,
              -1.6796590266008171
            ],
            [
              -78.66008487767031,
              -1.6799062358836616
            ],
            [
              -78.65999578526662,
              -1.679806120084682
            ],
            [
              -78.66038579581044,
              -1.6795958143221768
            ],
            [
              -78.66037397251645,
              -1.679590362721
            ],
            [
              -78.66024475801954,
              -1.6795213239256364
            ],
            [
              -78.66013643231814,
              -1.6794752719342547
            ],
            [
              -78.66005089849243,
              -1.6794502953417145
            ],
            [
              -78.6599024245944,
              -1.6795878807151627
            ],
            [
              -78.65947798544383,
              -1.679943261017045
            ],
            [
              -78.65947035708793,
              -1.6799500098612716
            ],
            [
              -78.65960122315099,
              -1.6801143747250584
            ],
            [
              -78.65933477152743,
              -1.6802290404554083
            ],
            [
              -78.6592590606794,
              -1.680136958058716
            ],
            [
              -78.65925338190054,
              -1.6801419826783217
            ],
            [
              -78.65918422354113,
              -1.6800919299002155
            ],
            [
              -78.65894124805031,
              -1.6802686159511742
            ],
            [
              -78.65867859720413,
              -1.680483556547072
            ],
            [
              -78.65829177887233,
              -1.6807815787702107
            ],
            [
              -78.65808907532535,
              -1.6809521046676357
            ],
            [
              -78.65781646546655,
              -1.6811469422621084
            ],
            [
              -78.65761521143354,
              -1.6812973791529504
            ],
            [
              -78.65747533129783,
              -1.681403403348013
            ],
            [
              -78.65739253870817,
              -1.6814707498796007
            ],
            [
              -78.6571944937218,
              -1.6815282874664501
            ],
            [
              -78.65673577842492,
              -1.6819257193171402
            ],
            [
              -78.65696936698235,
              -1.6821651758737577
            ],
            [
              -78.65718628277335,
              -1.6820353269590727
            ],
            [
              -78.65735025195643,
              -1.6819586303435488
            ],
            [
              -78.65782533154412,
              -1.6818106532375914
            ],
            [
              -78.65807076847176,
              -1.6816808394426594
            ],
            [
              -78.65820776893813,
              -1.6815987287942833
            ],
            [
              -78.65829742781355,
              -1.6815279409598753
            ],
            [
              -78.65839593993157,
              -1.681431911558911
            ],
            [
              -78.65849138293179,
              -1.6813445890346372
            ],
            [
              -78.65885874295157,
              -1.6810197553148487
            ],
            [
              -78.65894627877081,
              -1.6809605464129371
            ],
            [
              -78.65913467791118,
              -1.6808268360122807
            ],
            [
              -78.65940111977307,
              -1.6806224238827978
            ],
            [
              -78.65969606223942,
              -1.680435266547183
            ],
            [
              -78.65983876458921,
              -1.6803550761351531
            ],
            [
              -78.66010897017338,
              -1.6801831965443415
            ],
            [
              -78.66037346240084,
              -1.680018962935019
            ],
            [
              -78.6611039651127,
              -1.6795352958242178
            ],
            [
              -78.66107589141313,
              -1.679477781514491
            ],
            [
              -78.66052790249044,
              -1.6796613431915448
            ],
            [
              -78.66052287833044,
              -1.6796590266008171
            ]
          ]
        ]
      }
    },
    {
      "type": "Feature",
      "properties": {
        "source_id": 12,
        "objectid": 413,
        "codigo": "060104007003042",
        "equipamien": "Recreativo y Deporte",
        "nombre": "Parque Balcon del Valle",
        "categoria": "BARRIAL",
        "isocrona_distance_m": 400,
        "genera_isocrona": true,
        "shape_area": 1702.0175421144625,
        "shape_leng": 183.75447318752927
      },
      "geometry": {
        "type": "Polygon",
        "coordinates": [
          [
            [
              -78.64756052199026,
              -1.6881151979313371
            ],
            [
              -78.64778582143981,
              -1.688182275648445
            ],
            [
              -78.64779360958092,
              -1.6881756600289748
            ],
            [
              -78.64782319878128,
              -1.688073266841432
            ],
            [
              -78.64784882728712,
              -1.6879791545001208
            ],
            [
              -78.6478521663457,
              -1.6879686337895834
            ],
            [
              -78.64784837534587,
              -1.6879590625925127
            ],
            [
              -78.64783934761525,
              -1.6879566597293112
            ],
            [
              -78.64762306643705,
              -1.6878946244595003
            ],
            [
              -78.6473766505291,
              -1.687823942297765
            ],
            [
              -78.64733043453101,
              -1.687810686438006
            ],
            [
              -78.6473028608255,
              -1.687802776682623
            ],
            [
              -78.64727339542763,
              -1.6877970015779689
            ],
            [
              -78.64726867152436,
              -1.6878012679263477
            ],
            [
              -78.647214023247,
              -1.6880120375947247
            ],
            [
              -78.64732196213093,
              -1.6880441727504467
            ],
            [
              -78.64756052199026,
              -1.6881151979313371
            ]
          ]
        ]
      }
    },
    {
      "type": "Feature",
      "properties": {
        "source_id": 13,
        "objectid": 449,
        "codigo": "060104007003029",
        "equipamien": "Recreativo y Deporte",
        "nombre": "Área verde",
        "categoria": "BARRIAL",
        "isocrona_distance_m": 400,
        "genera_isocrona": true,
        "shape_area": 2294.9418411660963,
        "shape_leng": 191.9989912494452
      },
      "geometry": {
        "type": "Polygon",
        "coordinates": [
          [
            [
              -78.64595168426433,
              -1.688098580317454
            ],
            [
              -78.64610675310644,
              -1.6879568861180374
            ],
            [
              -78.64625094503396,
              -1.6878251311826094
            ],
            [
              -78.6460392612258,
              -1.6875879942578682
            ],
            [
              -78.64594479309982,
              -1.687482167824202
            ],
            [
              -78.64564552617713,
              -1.6877556232461361
            ],
            [
              -78.64595168426433,
              -1.688098580317454
            ]
          ]
        ]
      }
    },
    {
      "type": "Feature",
      "properties": {
        "source_id": 14,
        "objectid": 450,
        "codigo": "060104007003049",
        "equipamien": "Recreativo y Deporte",
        "nombre": "Área Verde",
        "categoria": "BARRIAL",
        "isocrona_distance_m": 400,
        "genera_isocrona": true,
        "shape_area": 845.3261386934819,
        "shape_leng": 166.0670989363492
      },
      "geometry": {
        "type": "Polygon",
        "coordinates": [
          [
            [
              -78.64570146699101,
              -1.686321624855491
            ],
            [
              -78.64577487033468,
              -1.6864032718512456
            ],
            [
              -78.64622515887656,
              -1.6860565326564398
            ],
            [
              -78.64623155758079,
              -1.6860414841466353
            ],
            [
              -78.64624085644138,
              -1.6860283058361003
            ],
            [
              -78.64628391895961,
              -1.6859985258740027
            ],
            [
              -78.64620400445246,
              -1.6859380045605996
            ],
            [
              -78.64615419388959,
              -1.6859760285258691
            ],
            [
              -78.64570146699101,
              -1.686321624855491
            ]
          ]
        ]
      }
    },
    {
      "type": "Feature",
      "properties": {
        "source_id": 15,
        "objectid": 453,
        "codigo": "060104007002032",
        "equipamien": "Recreativo y Deporte",
        "nombre": "Parque Barrios los Shyris",
        "categoria": "BARRIAL",
        "isocrona_distance_m": 400,
        "genera_isocrona": true,
        "shape_area": 1268.748378358465,
        "shape_leng": 198.7900166386359
      },
      "geometry": {
        "type": "Polygon",
        "coordinates": [
          [
            [
              -78.65912793197285,
              -1.6819012704748533
            ],
            [
              -78.65911814186612,
              -1.6820176052488696
            ],
            [
              -78.65976372223561,
              -1.681911035177873
            ],
            [
              -78.65989578143389,
              -1.681819722330052
            ],
            [
              -78.65962803738809,
              -1.681814776286531
            ],
            [
              -78.65956036771037,
              -1.6818135257770523
            ],
            [
              -78.65913597617232,
              -1.6818056895267341
            ],
            [
              -78.6591351017355,
              -1.6818271097246016
            ],
            [
              -78.65912793197285,
              -1.6819012704748533
            ]
          ]
        ]
      }
    },
    {
      "type": "Feature",
      "properties": {
        "source_id": 16,
        "objectid": 454,
        "codigo": "060104007002013",
        "equipamien": "Recreativo y Deporte",
        "nombre": "Parque Barrios los Shyris",
        "categoria": "BARRIAL",
        "isocrona_distance_m": 400,
        "genera_isocrona": true,
        "shape_area": 1662.9352238426388,
        "shape_leng": 179.39918456138244
      },
      "geometry": {
        "type": "Polygon",
        "coordinates": [
          [
            [
              -78.66047947427894,
              -1.68208693568015
            ],
            [
              -78.66056358545703,
              -1.6818388778057838
            ],
            [
              -78.66043316441173,
              -1.6818045686144298
            ],
            [
              -78.66040096210308,
              -1.6818036682783886
            ],
            [
              -78.66033076141385,
              -1.681799776066188
            ],
            [
              -78.6600917830233,
              -1.681776587523426
            ],
            [
              -78.65995471980843,
              -1.6818743061880765
            ],
            [
              -78.65992309951785,
              -1.6818968490773147
            ],
            [
              -78.65989788420045,
              -1.681914826535451
            ],
            [
              -78.65990538972895,
              -1.6819176885090124
            ],
            [
              -78.66013654004118,
              -1.6820058799384354
            ],
            [
              -78.66041866049264,
              -1.6821135166182888
            ],
            [
              -78.66044184174989,
              -1.6821131305785915
            ],
            [
              -78.6604707552155,
              -1.6821126484043931
            ],
            [
              -78.66047947427894,
              -1.68208693568015
            ]
          ]
        ]
      }
    },
    {
      "type": "Feature",
      "properties": {
        "source_id": 17,
        "objectid": 457,
        "codigo": "060104007002016",
        "equipamien": "Recreativo y Deporte",
        "nombre": "Parque lineal Chibunga",
        "categoria": "CANTONAL",
        "isocrona_distance_m": 0,
        "genera_isocrona": false,
        "shape_area": 36939.420799079795,
        "shape_leng": 1069.7418512138747
      },
      "geometry": {
        "type": "Polygon",
        "coordinates": [
          [
            [
              -78.65009055728248,
              -1.6882572448389497
            ],
            [
              -78.65018558787182,
              -1.6882908458035806
            ],
            [
              -78.65040419134341,
              -1.688338945641914
            ],
            [
              -78.65055627470801,
              -1.6883630485039423
            ],
            [
              -78.65069890487658,
              -1.6883440878966711
            ],
            [
              -78.65084159645866,
              -1.6882725096836388
            ],
            [
              -78.65098907542499,
              -1.6881722356508455
            ],
            [
              -78.65124112230296,
              -1.6880816571442092
            ],
            [
              -78.65155972779881,
              -1.687981591975436
            ],
            [
              -78.65202580924762,
              -1.6877860362325448
            ],
            [
              -78.65258224229798,
              -1.6875618892659074
            ],
            [
              -78.65296738145832,
              -1.6874762539423984
            ],
            [
              -78.65323849841307,
              -1.6873378631796088
            ],
            [
              -78.65340514750208,
              -1.6871084585345686
            ],
            [
              -78.65358610869548,
              -1.6868360209463649
            ],
            [
              -78.65377179980008,
              -1.6865827231576633
            ],
            [
              -78.65383380220375,
              -1.686410591959491
            ],
            [
              -78.6537864836088,
              -1.686228763298024
            ],
            [
              -78.65377720700116,
              -1.6860374141752996
            ],
            [
              -78.65377737891056,
              -1.6858939087228295
            ],
            [
              -78.653790754739,
              -1.6857730978661134
            ],
            [
              -78.6537876708555,
              -1.685764853614498
            ],
            [
              -78.65330786664836,
              -1.6861303595161672
            ],
            [
              -78.65297490236401,
              -1.6863117266003278
            ],
            [
              -78.65256577829867,
              -1.6865791042183125
            ],
            [
              -78.65207098675869,
              -1.686932479748813
            ],
            [
              -78.65160484338351,
              -1.6871806543206915
            ],
            [
              -78.65100547413664,
              -1.6875339020194897
            ],
            [
              -78.65057743984299,
              -1.6877151524663172
            ],
            [
              -78.650225287873,
              -1.6880399993907875
            ],
            [
              -78.65009055728248,
              -1.6882572448389497
            ]
          ]
        ]
      }
    },
    {
      "type": "Feature",
      "properties": {
        "source_id": 18,
        "objectid": 1431,
        "codigo": "060104003002028",
        "equipamien": "Recreativo y Deporte",
        "nombre": "Área verde de la Paz, UPC, Iglesia",
        "categoria": "BARRIAL",
        "isocrona_distance_m": 400,
        "genera_isocrona": true,
        "shape_area": 4706.842211274745,
        "shape_leng": 274.3360569795959
      },
      "geometry": {
        "type": "Polygon",
        "coordinates": [
          [
            [
              -78.64948875606062,
              -1.6827299688776023
            ],
            [
              -78.64948932460119,
              -1.6827300382680654
            ],
            [
              -78.64948989593842,
              -1.6827300226898125
            ],
            [
              -78.64949045750049,
              -1.6827299185117675
            ],
            [
              -78.64949100119402,
              -1.682729732955802
            ],
            [
              -78.64995207057316,
              -1.682332933555471
            ],
            [
              -78.64954363322946,
              -1.6818522455818052
            ],
            [
              -78.64908739608352,
              -1.6822565617789953
            ],
            [
              -78.64908703818203,
              -1.682256877730316
            ],
            [
              -78.64948820468844,
              -1.6827298154398134
            ],
            [
              -78.64948875606062,
              -1.6827299688776023
            ]
          ]
        ]
      }
    },
    {
      "type": "Feature",
      "properties": {
        "source_id": 19,
        "objectid": 1483,
        "codigo": "060104003002006",
        "equipamien": "Recreativo y Deporte",
        "nombre": "Área verde de la Quinta Mosquera",
        "categoria": "BARRIAL",
        "isocrona_distance_m": 400,
        "genera_isocrona": true,
        "shape_area": 2893.5930560406696,
        "shape_leng": 217.3111219714198
      },
      "geometry": {
        "type": "Polygon",
        "coordinates": [
          [
            [
              -78.64622214653781,
              -1.6816562094483922
            ],
            [
              -78.64668028992489,
              -1.681994091424091
            ],
            [
              -78.64685598928865,
              -1.6817291461390178
            ],
            [
              -78.64691321364103,
              -1.681642854260094
            ],
            [
              -78.64691316252154,
              -1.6816427845933835
            ],
            [
              -78.64691153316558,
              -1.6816411554938346
            ],
            [
              -78.64690966182671,
              -1.6816398108470525
            ],
            [
              -78.64670660247363,
              -1.6814989928268222
            ],
            [
              -78.64645032255427,
              -1.6813245291601768
            ],
            [
              -78.64644818641679,
              -1.6813245184323342
            ],
            [
              -78.64644530140102,
              -1.6813250057797382
            ],
            [
              -78.64644254245779,
              -1.6813259832245655
            ],
            [
              -78.64643999046949,
              -1.6813274210344016
            ],
            [
              -78.64643772363878,
              -1.68132927681821
            ],
            [
              -78.64643580131813,
              -1.6813314964105976
            ],
            [
              -78.64643366541159,
              -1.681335040944073
            ],
            [
              -78.64637917346866,
              -1.6814177826549934
            ],
            [
              -78.64622214653781,
              -1.6816562094483922
            ]
          ]
        ]
      }
    },
    {
      "type": "Feature",
      "properties": {
        "source_id": 20,
        "objectid": 1495,
        "codigo": "060104003002053",
        "equipamien": "Recreativo y Deporte",
        "nombre": "Áreas verdes del Barrio Primera Constituyente",
        "categoria": "BARRIAL",
        "isocrona_distance_m": 400,
        "genera_isocrona": true,
        "shape_area": 1341.9611434998837,
        "shape_leng": 150.19887617928407
      },
      "geometry": {
        "type": "Polygon",
        "coordinates": [
          [
            [
              -78.64447848053318,
              -1.6840131847772897
            ],
            [
              -78.6446441979506,
              -1.6841339315181678
            ],
            [
              -78.64473828252477,
              -1.6840078619274086
            ],
            [
              -78.6448904024371,
              -1.6838040287107507
            ],
            [
              -78.64477360305372,
              -1.6837121071673933
            ],
            [
              -78.64474415057904,
              -1.6836889273794584
            ],
            [
              -78.64468660412847,
              -1.6836460822278636
            ],
            [
              -78.64453432578698,
              -1.6838419929593444
            ],
            [
              -78.64442996385955,
              -1.6839762561364429
            ],
            [
              -78.64447848053318,
              -1.6840131847772897
            ]
          ]
        ]
      }
    },
    {
      "type": "Feature",
      "properties": {
        "source_id": 21,
        "objectid": 1500,
        "codigo": "060104003002057",
        "equipamien": "Recreativo y Deporte",
        "nombre": "Áreas verdes del Barrio Primera Constituyente",
        "categoria": "BARRIAL",
        "isocrona_distance_m": 400,
        "genera_isocrona": true,
        "shape_area": 1333.191278647115,
        "shape_leng": 147.8470392428344
      },
      "geometry": {
        "type": "Polygon",
        "coordinates": [
          [
            [
              -78.64541849814283,
              -1.6847089214014441
            ],
            [
              -78.6456327419271,
              -1.684876666075658
            ],
            [
              -78.64586884591183,
              -1.684569464463386
            ],
            [
              -78.64586924052239,
              -1.6845640140877611
            ],
            [
              -78.64585499984425,
              -1.6845467755005985
            ],
            [
              -78.64566171942272,
              -1.6843933750319808
            ],
            [
              -78.64547962744612,
              -1.6846273034618062
            ],
            [
              -78.64541849814283,
              -1.6847089214014441
            ]
          ]
        ]
      }
    },
    {
      "type": "Feature",
      "properties": {
        "source_id": 22,
        "objectid": 1508,
        "codigo": "060104003002061",
        "equipamien": "Recreativo y Deporte",
        "nombre": "Áreas verdes del Barrio Manuelita Saenz",
        "categoria": "BARRIAL",
        "isocrona_distance_m": 400,
        "genera_isocrona": true,
        "shape_area": 3391.4301055898395,
        "shape_leng": 0.0
      },
      "geometry": {
        "type": "Polygon",
        "coordinates": [
          [
            [
              -78.64474130467472,
              -1.685685001187405
            ],
            [
              -78.64472818549926,
              -1.6857025445477158
            ],
            [
              -78.64571233733717,
              -1.6856535169562374
            ],
            [
              -78.64576241091662,
              -1.6856515051246248
            ],
            [
              -78.64578142772575,
              -1.6856486582072177
            ],
            [
              -78.64576718335226,
              -1.6856352478589893
            ],
            [
              -78.6451324072616,
              -1.6851620291526097
            ],
            [
              -78.64489774502432,
              -1.6854758138641865
            ],
            [
              -78.64484282283426,
              -1.6855492548568476
            ],
            [
              -78.64474272717061,
              -1.685683099189278
            ],
            [
              -78.64474130467472,
              -1.685685001187405
            ]
          ]
        ]
      }
    },
    {
      "type": "Feature",
      "properties": {
        "source_id": 23,
        "objectid": 1550,
        "codigo": "060104003001018",
        "equipamien": "Recreativo y Deporte",
        "nombre": "Área recreativa La Dolorosa",
        "categoria": "BARRIAL",
        "isocrona_distance_m": 400,
        "genera_isocrona": true,
        "shape_area": 1564.6261623515757,
        "shape_leng": 172.49793080145375
      },
      "geometry": {
        "type": "Polygon",
        "coordinates": [
          [
            [
              -78.64240940255702,
              -1.680564461761336
            ],
            [
              -78.64243827867492,
              -1.680568574583252
            ],
            [
              -78.64264339043174,
              -1.6805350800893895
            ],
            [
              -78.64285022008468,
              -1.6805013065209604
            ],
            [
              -78.64284581349257,
              -1.6804417821113098
            ],
            [
              -78.64284399190102,
              -1.6804311738038995
            ],
            [
              -78.6428221968336,
              -1.6801381450414206
            ],
            [
              -78.64282025926609,
              -1.6801343560240898
            ],
            [
              -78.6428122466045,
              -1.6801245175986455
            ],
            [
              -78.64280185594629,
              -1.6801163540240844
            ],
            [
              -78.64278803954821,
              -1.6801101424457794
            ],
            [
              -78.64277867353272,
              -1.6801082300548966
            ],
            [
              -78.64262471368026,
              -1.6802448104055372
            ],
            [
              -78.64246389882082,
              -1.6803874705152377
            ],
            [
              -78.64239347165815,
              -1.6804511236464936
            ],
            [
              -78.64233758553982,
              -1.6804980034936916
            ],
            [
              -78.64235868293682,
              -1.680525650342648
            ],
            [
              -78.64238030574629,
              -1.6805488802079067
            ],
            [
              -78.64240940255702,
              -1.680564461761336
            ]
          ]
        ]
      }
    },
    {
      "type": "Feature",
      "properties": {
        "source_id": 24,
        "objectid": 1552,
        "codigo": "060104003001006",
        "equipamien": "Recreativo y Deporte",
        "nombre": "Parque Abdón Calderón",
        "categoria": "ZONAL",
        "isocrona_distance_m": 1000,
        "genera_isocrona": true,
        "shape_area": 3826.198059205657,
        "shape_leng": 295.2866885627454
      },
      "geometry": {
        "type": "Polygon",
        "coordinates": [
          [
            [
              -78.64140282271549,
              -1.679379009057268
            ],
            [
              -78.64140756303223,
              -1.6793924674479854
            ],
            [
              -78.6414145494179,
              -1.679404896252501
            ],
            [
              -78.6414235685281,
              -1.6794159209750346
            ],
            [
              -78.64143434858177,
              -1.6794252068226816
            ],
            [
              -78.64148214434051,
              -1.679430209505682
            ],
            [
              -78.6414848146883,
              -1.6794304405456117
            ],
            [
              -78.64148741085677,
              -1.6794311044890808
            ],
            [
              -78.64148986549577,
              -1.6794321831751944
            ],
            [
              -78.64149211575847,
              -1.6794336485050918
            ],
            [
              -78.64149409971155,
              -1.6794354597256134
            ],
            [
              -78.64149771564183,
              -1.6794397018511273
            ],
            [
              -78.64150166956229,
              -1.6794392573891608
            ],
            [
              -78.64163326057007,
              -1.6795987119004938
            ],
            [
              -78.64171705759831,
              -1.6796970164847433
            ],
            [
              -78.64172684869031,
              -1.6797085022602565
            ],
            [
              -78.64172606145263,
              -1.679734988044794
            ],
            [
              -78.64172192486008,
              -1.6797611560885761
            ],
            [
              -78.64172835356817,
              -1.6797727019605229
            ],
            [
              -78.64173665316284,
              -1.6797829655874619
            ],
            [
              -78.6417465805703,
              -1.6797916438497
            ],
            [
              -78.6417578414567,
              -1.6797984814747178
            ],
            [
              -78.64177009921086,
              -1.6798032710482214
            ],
            [
              -78.64178299468307,
              -1.6798058729249852
            ],
            [
              -78.6417961399011,
              -1.679806211605475
            ],
            [
              -78.64180914771524,
              -1.6798042748679318
            ],
            [
              -78.64182163358589,
              -1.679800121002137
            ],
            [
              -78.64183322547262,
              -1.6797938724937531
            ],
            [
              -78.64184358180101,
              -1.6797857151422713
            ],
            [
              -78.6418523923696,
              -1.6797758908303955
            ],
            [
              -78.64186129454049,
              -1.6797391279094147
            ],
            [
              -78.64186528834827,
              -1.6797024376696508
            ],
            [
              -78.64186785520924,
              -1.679678858446877
            ],
            [
              -78.64195933292905,
              -1.6795777385064223
            ],
            [
              -78.64198765414021,
              -1.679546432831225
            ],
            [
              -78.64200378549108,
              -1.6795406083627722
            ],
            [
              -78.64204679643414,
              -1.6795250800541277
            ],
            [
              -78.64210913538504,
              -1.679510028097236
            ],
            [
              -78.64217273084425,
              -1.679501889293415
            ],
            [
              -78.6421852930427,
              -1.6794970087352883
            ],
            [
              -78.64219686866501,
              -1.6794900894670812
            ],
            [
              -78.64220713678986,
              -1.6794813236411914
            ],
            [
              -78.64221580966777,
              -1.6794709576875975
            ],
            [
              -78.64222264081761,
              -1.679459282380132
            ],
            [
              -78.64222744390153,
              -1.6794466238199064
            ],
            [
              -78.6422300819542,
              -1.679433336190525
            ],
            [
              -78.64223048176518,
              -1.6794197936400352
            ],
            [
              -78.64222863210408,
              -1.6794063721996868
            ],
            [
              -78.64222458461988,
              -1.6793934488809412
            ],
            [
              -78.64221845206497,
              -1.6793813844983683
            ],
            [
              -78.64221040740006,
              -1.6793705209565248
            ],
            [
              -78.64220067394116,
              -1.6793611577352847
            ],
            [
              -78.642189525352,
              -1.6793535582175068
            ],
            [
              -78.64217727488071,
              -1.679347936116588
            ],
            [
              -78.64216426369188,
              -1.6793444473268122
            ],
            [
              -78.64215085637173,
              -1.6793431926296762
            ],
            [
              -78.64209769492446,
              -1.6793907592045547
            ],
            [
              -78.64198808931334,
              -1.6792667103259358
            ],
            [
              -78.64184798852642,
              -1.6791081476413354
            ],
            [
              -78.64189296807363,
              -1.679066013840814
            ],
            [
              -78.64189487064074,
              -1.6790525436266197
            ],
            [
              -78.6418945464975,
              -1.6790389414433053
            ],
            [
              -78.64189200148653,
              -1.6790255788229802
            ],
            [
              -78.6418873079338,
              -1.6790128192428668
            ],
            [
              -78.64188058938636,
              -1.6790010108751057
            ],
            [
              -78.64187203589411,
              -1.6789904775658928
            ],
            [
              -78.64186187258908,
              -1.6789815025259998
            ],
            [
              -78.64185038214053,
              -1.6789743301661164
            ],
            [
              -78.64183787691451,
              -1.6789691606391823
            ],
            [
              -78.64182469540332,
              -1.6789661308531225
            ],
            [
              -78.64181119861935,
              -1.6789653253138794
            ],
            [
              -78.64179775394005,
              -1.67896676435445
            ],
            [
              -78.64178472791383,
              -1.6789704104537908
            ],
            [
              -78.64177384231913,
              -1.6789809662607436
            ],
            [
              -78.64176456741481,
              -1.6789929775804924
            ],
            [
              -78.64175708764762,
              -1.679006196953777
            ],
            [
              -78.64175347143919,
              -1.6790134223828534
            ],
            [
              -78.64175088146098,
              -1.6790210802438383
            ],
            [
              -78.6417493645976,
              -1.6790290259611136
            ],
            [
              -78.64174895067801,
              -1.6790371049948656
            ],
            [
              -78.64164666404193,
              -1.6791298394030663
            ],
            [
              -78.64160575532043,
              -1.6791669277444667
            ],
            [
              -78.64160572654366,
              -1.6791669539241736
            ],
            [
              -78.64149275655967,
              -1.6792693738450464
            ],
            [
              -78.64148324407498,
              -1.6792779968534242
            ],
            [
              -78.64144768985138,
              -1.6792838149022014
            ],
            [
              -78.64143536397067,
              -1.67929089234843
            ],
            [
              -78.64142444236622,
              -1.6793000126266482
            ],
            [
              -78.641415257743,
              -1.679310895011535
            ],
            [
              -78.64140808626573,
              -1.6793232153193398
            ],
            [
              -78.64140314127506,
              -1.679336602284472
            ],
            [
              -78.64140057866665,
              -1.6793506466055061
            ],
            [
              -78.6414004699108,
              -1.679364927127139
            ],
            [
              -78.64140282271549,
              -1.679379009057268
            ]
          ]
        ]
      }
    },
    {
      "type": "Feature",
      "properties": {
        "source_id": 25,
        "objectid": 2671,
        "codigo": "060101003003030",
        "equipamien": "Recreativo y Deporte",
        "nombre": "Parque Bonilla Abarca",
        "categoria": "ZONAL",
        "isocrona_distance_m": 1000,
        "genera_isocrona": true,
        "shape_area": 2133.362200851161,
        "shape_leng": 197.15457005273416
      },
      "geometry": {
        "type": "Polygon",
        "coordinates": [
          [
            [
              -78.65839938722327,
              -1.6739472374022668
            ],
            [
              -78.6585608310555,
              -1.6738108360993504
            ],
            [
              -78.65863338840354,
              -1.6739018765972389
            ],
            [
              -78.6587719652356,
              -1.6737547421138947
            ],
            [
              -78.65859071999716,
              -1.673534755161878
            ],
            [
              -78.65857587897837,
              -1.6735167412029144
            ],
            [
              -78.65847353205092,
              -1.6733932415342683
            ],
            [
              -78.65829809310148,
              -1.6735391999368772
            ],
            [
              -78.65829970501828,
              -1.6735411634766537
            ],
            [
              -78.65826792016163,
              -1.6735678808119883
            ],
            [
              -78.6581677881431,
              -1.673652052417948
            ],
            [
              -78.65828159378582,
              -1.6737974689225577
            ],
            [
              -78.6582946344085,
              -1.6738141320040725
            ],
            [
              -78.65831992545058,
              -1.6738464474897607
            ],
            [
              -78.65834834982257,
              -1.6738825010193328
            ],
            [
              -78.65835840643615,
              -1.673895256293075
            ],
            [
              -78.65839938722327,
              -1.6739472374022668
            ]
          ]
        ]
      }
    },
    {
      "type": "Feature",
      "properties": {
        "source_id": 26,
        "objectid": 2715,
        "codigo": "060104003001063",
        "equipamien": "Recreativo y Deporte",
        "nombre": "Canchas deportivas de Santa Faz",
        "categoria": "BARRIAL",
        "isocrona_distance_m": 400,
        "genera_isocrona": true,
        "shape_area": 2253.344687105949,
        "shape_leng": 199.79183480518893
      },
      "geometry": {
        "type": "Polygon",
        "coordinates": [
          [
            [
              -78.65264516135106,
              -1.6807729697088747
            ],
            [
              -78.65285536831621,
              -1.681020264743845
            ],
            [
              -78.65295008310176,
              -1.6809340393392114
            ],
            [
              -78.6531151412893,
              -1.680783775646282
            ],
            [
              -78.6532892030333,
              -1.680625317539078
            ],
            [
              -78.65310183855168,
              -1.6803955418018668
            ],
            [
              -78.65304805539297,
              -1.6804399904992298
            ],
            [
              -78.65288667622784,
              -1.6805733654524577
            ],
            [
              -78.65264516135106,
              -1.6807729697088747
            ]
          ]
        ]
      }
    },
    {
      "type": "Feature",
      "properties": {
        "source_id": 27,
        "objectid": 2734,
        "codigo": "060104003002030",
        "equipamien": "Recreativo y Deporte",
        "nombre": "Canchas de portivas la Paz",
        "categoria": "BARRIAL",
        "isocrona_distance_m": 400,
        "genera_isocrona": true,
        "shape_area": 4748.398522911186,
        "shape_leng": 275.726359981274
      },
      "geometry": {
        "type": "Polygon",
        "coordinates": [
          [
            [
              -78.65017984269566,
              -1.6812857797831224
            ],
            [
              -78.65058972459941,
              -1.681774997380132
            ],
            [
              -78.65105019301244,
              -1.6813824124233125
            ],
            [
              -78.65064080315172,
              -1.6808946300551866
            ],
            [
              -78.65017984269566,
              -1.6812857797831224
            ]
          ]
        ]
      }
    },
    {
      "type": "Feature",
      "properties": {
        "source_id": 28,
        "objectid": 2853,
        "codigo": "060101003003061",
        "equipamien": "Recreativo y Deporte",
        "nombre": "Parque",
        "categoria": "BARRIAL",
        "isocrona_distance_m": 400,
        "genera_isocrona": true,
        "shape_area": 2076.7356237161644,
        "shape_leng": 199.24606272208823
      },
      "geometry": {
        "type": "Polygon",
        "coordinates": [
          [
            [
              -78.65628804120996,
              -1.67946264201977
            ],
            [
              -78.6564406663672,
              -1.6796518331711827
            ],
            [
              -78.65644279713761,
              -1.6796548504601498
            ],
            [
              -78.65644538110777,
              -1.6796574859198417
            ],
            [
              -78.65644835278681,
              -1.6796596680580875
            ],
            [
              -78.65645163318887,
              -1.6796613425417941
            ],
            [
              -78.65645513882686,
              -1.6796624631680357
            ],
            [
              -78.65645877810421,
              -1.6796630045152638
            ],
            [
              -78.65646208751247,
              -1.6796629533684697
            ],
            [
              -78.65658690730575,
              -1.6795184880156893
            ],
            [
              -78.6566908690812,
              -1.6793885991748254
            ],
            [
              -78.65685147410605,
              -1.6791879404766734
            ],
            [
              -78.65685311941095,
              -1.679185248651191
            ],
            [
              -78.65685429429023,
              -1.6791823176117824
            ],
            [
              -78.65685497528894,
              -1.679179230494735
            ],
            [
              -78.65685513715016,
              -1.679176074954058
            ],
            [
              -78.65685477707885,
              -1.6791729350549476
            ],
            [
              -78.65685390575011,
              -1.6791698984947483
            ],
            [
              -78.65685254642071,
              -1.6791670484661285
            ],
            [
              -78.65685073582623,
              -1.6791644645622201
            ],
            [
              -78.65668981500927,
              -1.6789697637187555
            ],
            [
              -78.65659057009968,
              -1.6790915126709305
            ],
            [
              -78.65654098047328,
              -1.6791523483077417
            ],
            [
              -78.6565018929837,
              -1.6792002979635527
            ],
            [
              -78.65647620439894,
              -1.6792318107542301
            ],
            [
              -78.65643110115843,
              -1.6792871421378832
            ],
            [
              -78.65638599701529,
              -1.679342474419748
            ],
            [
              -78.65628804120996,
              -1.67946264201977
            ]
          ]
        ]
      }
    },
    {
      "type": "Feature",
      "properties": {
        "source_id": 29,
        "objectid": 3168,
        "codigo": "060101007001002",
        "equipamien": "Recreativo y Deporte",
        "nombre": "Cancha Jesús Obrero",
        "categoria": "BARRIAL",
        "isocrona_distance_m": 400,
        "genera_isocrona": true,
        "shape_area": 889.8998705423388,
        "shape_leng": 124.9484908099634
      },
      "geometry": {
        "type": "Polygon",
        "coordinates": [
          [
            [
              -78.66051618044607,
              -1.6760197339223204
            ],
            [
              -78.6605252531481,
              -1.6760251686261711
            ],
            [
              -78.66070091547539,
              -1.676130389035942
            ],
            [
              -78.660702605113,
              -1.676128936586583
            ],
            [
              -78.66088771564513,
              -1.6759611869163502
            ],
            [
              -78.66091571819246,
              -1.6759349395781495
            ],
            [
              -78.6609579054693,
              -1.6758953974870623
            ],
            [
              -78.66095832348147,
              -1.6758943873555632
            ],
            [
              -78.6609596473662,
              -1.6758885149758855
            ],
            [
              -78.66095995453867,
              -1.6758825012592349
            ],
            [
              -78.66095923311168,
              -1.6758765224647283
            ],
            [
              -78.66095750802526,
              -1.6758707576076122
            ],
            [
              -78.66095482848753,
              -1.6758653739807972
            ],
            [
              -78.66095127336135,
              -1.6758605298730924
            ],
            [
              -78.6609469484758,
              -1.675856369142354
            ],
            [
              -78.66094197855332,
              -1.6758530112620031
            ],
            [
              -78.66076792719677,
              -1.6758133276424587
            ],
            [
              -78.66074850573722,
              -1.6758088992686855
            ],
            [
              -78.66072114087281,
              -1.6758337326639545
            ],
            [
              -78.66070532986184,
              -1.6758480812889516
            ],
            [
              -78.66066668901712,
              -1.6758831475780016
            ],
            [
              -78.66065496699773,
              -1.6758937858180742
            ],
            [
              -78.66051618044607,
              -1.6760197339223204
            ]
          ]
        ]
      }
    }
  ]
}