{"type": "FeatureCollection", "features": [{"type": "Feature", "properties": {"categoria": "Educación", "distance_m": 1250, "mode": "walking", "equipamientos_origen": 54, "nodos_alcanzables": 7896, "target_platform": "PLATAFORMA Ñ"}, "geometry": {"type": "Polygon", "coordinates": [[[-78.68335893190678, -1.6832961928311676], [-78.66787540833636, -1.6518284269930439], [-78.63353150935855, -1.6586141548006352], [-78.61996076630615, -1.6791019264773954], [-78.64183852784855, -1.7020566995672899], [-78.67836591039682, -1.7023403000881625], [-78.68335893190678, -1.6832961928311676]], [[-78.62305204858957, -1.6757688882486024], [-78.62465388732052, -1.6760579867082686], [-78.62322874447958, -1.6764290611550567], [-78.62305204858957, -1.6757688882486024]], [[-78.62432998441507, -1.6786564766110283], [-78.62342316250053, -1.6780182781034931], [-78.62446231497665, -1.678191801944948], [-78.62432998441507, -1.6786564766110283]], [[-78.62595498988509, -1.6786700096864], [-78.62429789388425, -1.677211122757646], [-78.62494252672545, -1.6765439156692152], [-78.62595498988509, -1.6786700096864]], [[-78.62661687589681, -1.6733586936541016], [-78.62557814741596, -1.6762811256805248], [-78.62526369361012, -1.6711615026025957], [-78.62661687589681, -1.6733586936541016]], [[-78.62703949664608, -1.6764087122249998], [-78.62598685875184, -1.6775658088380527], [-78.62678916681982, -1.6761611027680818], [-78.62703949664608, -1.6764087122249998]], [[-78.62677926275316, -1.6709789936210686], [-78.62855670504744, -1.6697988157104506], [-78.62787896435117, -1.6718789910670406], [-78.62677926275316, -1.6709789936210686]], [[-78.62762990781415, -1.6794023601252357], [-78.62696887870976, -1.6794022592703104], [-78.62720388815795, -1.6790365149716342], [-78.62762990781415, -1.6794023601252357]], [[-78.62714190837625, -1.6844124408208345], [-78.627339283719, -1.6839632559044109], [-78.62741112626877, -1.6843721633406818], [-78.62714190837625, -1.6844124408208345]], [[-78.6278390335896, -1.6831331167172778], [-78.62771225529973, -1.6825758121745347], [-78.62833525151952, -1.6826965808062129], [-78.6278390335896, -1.6831331167172778]], [[-78.62808321872186, -1.6674409790687186], [-78.62789169985919, -1.6690437513107161], [-78.62766362700458, -1.6689267521557518], [-78.62808321872186, -1.6674409790687186]], [[-78.62857429495847, -1.6765187301519922], [-78.62789396704206, -1.6774094746578323], [-78.62815823629971, -1.6764214279012317], [-78.62857429495847, -1.6765187301519922]], [[-78.62861399811356, -1.6833129673644023], [-78.62806606228202, -1.6840258526740992], [-78.62785872545741, -1.6838256784218992], [-78.62861399811356, -1.6833129673644023]], [[-78.62851455070256, -1.6862431311400374], [-78.62846134366922, -1.6871358540664156], [-78.6280165880799, -1.6865745877746678], [-78.62851455070256, -1.6862431311400374]], [[-78.62846551299499, -1.6818528122571177], [-78.62979890583453, -1.6833181235213948], [-78.62957846612932, -1.683518946311621], [-78.62846551299499, -1.6818528122571177]], [[-78.62952665115718, -1.6710949080580761], [-78.62853962429593, -1.6723642217254293], [-78.62885764388392, -1.6708797825246646], [-78.62952665115718, -1.6710949080580761]], [[-78.62884581629709, -1.6752565673451871], [-78.62931168303228, -1.6765682129725787], [-78.6285962604604, -1.675278394283079], [-78.62884581629709, -1.6752565673451871]], [[-78.6290572014583, -1.6801622733348454], [-78.62925830772826, -1.6806812813438474], [-78.62882321414047, -1.6805083930748297], [-78.6290572014583, -1.6801622733348454]], [[-78.62894774720739, -1.6789680532312912], [-78.6295999345907, -1.6788775380164402], [-78.62909337286497, -1.679242779795033], [-78.62894774720739, -1.6789680532312912]], [[-78.63083094458128, -1.6678487770359054], [-78.63112192348161, -1.6706731166414743], [-78.62902589994601, -1.6702854045160251], [-78.63083094458128, -1.6678487770359054]], [[-78.62966055360894, -1.6736660630786042], [-78.62970864877056, -1.6743895814463434], [-78.62937898016297, -1.6742205191572075], [-78.62966055360894, -1.6736660630786042]], [[-78.62958517503708, -1.6871338569737302], [-78.6303086924917, -1.6872301185539706], [-78.62972329597795, -1.6875034412773873], [-78.62958517503708, -1.6871338569737302]], [[-78.63043901116654, -1.6878474036609337], [-78.63042337692578, -1.6884135250063506], [-78.6301653987325, -1.687969966243234], [-78.63043901116654, -1.6878474036609337]], [[-78.6307541672618, -1.6712769763028956], [-78.63028472831324, -1.6716190293383029], [-78.63029027944548, -1.6710594451794907], [-78.6307541672618, -1.6712769763028956]], [[-78.63077597529457, -1.6789286794624312], [-78.63022994225427, -1.6788172697378323], [-78.63037185458747, -1.6779612706038094], [-78.63077597529457, -1.6789286794624312]], [[-78.63206524011466, -1.6792902778447583], [-78.63064843870211, -1.6804238056263072], [-78.63027712465602, -1.6801415556589308], [-78.63206524011466, -1.6792902778447583]], [[-78.63033007323477, -1.6812781466472342], [-78.63079492419807, -1.6814029504149135], [-78.63048199747581, -1.6816614318059353], [-78.63033007323477, -1.6812781466472342]], [[-78.6304942188791, -1.6822758485700502], [-78.63197125653234, -1.6829242723766762], [-78.6304108054622, -1.6831454325988249], [-78.6304942188791, -1.6822758485700502]], [[-78.63052272835135, -1.6838150696766243], [-78.63126359497626, -1.6843986080173816], [-78.63046989387122, -1.6844767542633665], [-78.63052272835135, -1.6838150696766243]], [[-78.63095371415977, -1.6774424692810317], [-78.6320468657207, -1.6786878873754505], [-78.63137381959487, -1.678911872981026], [-78.63095371415977, -1.6774424692810317]], [[-78.6310735561136, -1.6744184516114664], [-78.63136264930604, -1.674193880880825], [-78.63133611938302, -1.6744649899451214], [-78.6310735561136, -1.6744184516114664]], [[-78.63158553305485, -1.6709743016971947], [-78.6319242793318, -1.6716913820559083], [-78.6311665808907, -1.6719913203762664], [-78.63158553305485, -1.6709743016971947]], [[-78.63239926716284, -1.6806284431231684], [-78.63153778412637, -1.6814972630308116], [-78.63127552823757, -1.6810250021406858], [-78.63239926716284, -1.6806284431231684]], [[-78.63187228465671, -1.662645884503246], [-78.63166565518108, -1.663172983555009], [-78.6314637332179, -1.6628835602470018], [-78.63187228465671, -1.662645884503246]], [[-78.63256154923442, -1.6657351447140099], [-78.63261245606483, -1.6673381204035866], [-78.63156101787155, -1.6671372287757906], [-78.63256154923442, -1.6657351447140099]], [[-78.6324567922939, -1.671974742187298], [-78.63285013384528, -1.6726510872978728], [-78.6321529091433, -1.672394824469056], [-78.6324567922939, -1.671974742187298]], [[-78.63276677746089, -1.683251835845777], [-78.63255067166193, -1.6840224104788692], [-78.63217122642257, -1.683541446555177], [-78.63276677746089, -1.683251835845777]], [[-78.63232422286157, -1.6696244154442874], [-78.63253385111591, -1.6692037901425927], [-78.63263494707127, -1.6694907481137944], [-78.63232422286157, -1.6696244154442874]], [[-78.63365482002423, -1.669389834396746], [-78.63398282301748, -1.6723428609122644], [-78.6322507950437, -1.670632702566967], [-78.63365482002423, -1.669389834396746]], [[-78.63236579311972, -1.6615476852341498], [-78.63322480861615, -1.660857349221832], [-78.63282159014427, -1.661845160260281], [-78.63236579311972, -1.6615476852341498]], [[-78.63333064721661, -1.6754882853627555], [-78.63589846620913, -1.6777681725900242], [-78.63256987844788, -1.6785241246369336], [-78.63333064721661, -1.6754882853627555]], [[-78.63258001100816, -1.66429826836839], [-78.6328061657515, -1.6646981704075943], [-78.63253795582233, -1.6647352884260687], [-78.63258001100816, -1.66429826836839]], [[-78.63278185709827, -1.662574106000131], [-78.63286604755405, -1.6632833034388441], [-78.63255676256532, -1.6627017477715524], [-78.63278185709827, -1.662574106000131]], [[-78.63280677826344, -1.6791215659964835], [-78.63413259247771, -1.6794843105880937], [-78.63288558467717, -1.6797439109837495], [-78.63280677826344, -1.6791215659964835]], [[-78.6329676370159, -1.673122802794548], [-78.63301915882155, -1.6727247372096377], [-78.63319278840217, -1.672948036454579], [-78.6329676370159, -1.673122802794548]], [[-78.6333017185509, -1.6684923845670985], [-78.63315464098224, -1.669034767241838], [-78.63295277217235, -1.6688352672027411], [-78.6333017185509, -1.6684923845670985]], [[-78.63343874920359, -1.6649821431207463], [-78.63330500109141, -1.6655652564532506], [-78.63306187398209, -1.6651722364175774], [-78.63343874920359, -1.6649821431207463]], [[-78.6334500985415, -1.6679852632538812], [-78.63319397884048, -1.6682896874339743], [-78.63314943287006, -1.6680098439759437], [-78.6334500985415, -1.6679852632538812]], [[-78.63397690113334, -1.6872073436886375], [-78.6340476158151, -1.688130970087941], [-78.63353300664339, -1.6878188204654632], [-78.63397690113334, -1.6872073436886375]], [[-78.63434455777971, -1.6850320858482122], [-78.63407687357073, -1.6857394418931222], [-78.63379437882271, -1.6853679129258574], [-78.63434455777971, -1.6850320858482122]], [[-78.63420814722645, -1.6599716612611322], [-78.63452884922344, -1.6610457711027502], [-78.63388696812724, -1.6606441801821987], [-78.63420814722645, -1.6599716612611322]], [[-78.63408328284876, -1.6636818242111984], [-78.63488573865477, -1.66357937719527], [-78.6342987141226, -1.664142218017849], [-78.63408328284876, -1.6636818242111984]], [[-78.63454238035155, -1.6750237042082492], [-78.63423929311638, -1.674769077685662], [-78.63468818844748, -1.6746444910051521], [-78.63454238035155, -1.6750237042082492]], [[-78.63451263884173, -1.6849403783237153], [-78.63480478466417, -1.6846449766658949], [-78.63478211026663, -1.6849380021781235], [-78.63451263884173, -1.6849403783237153]], [[-78.63471320118846, -1.6621822809391356], [-78.63494643423068, -1.6624649291654992], [-78.63468983282434, -1.6624515536103084], [-78.63471320118846, -1.6621822809391356]], [[-78.63464631463253, -1.678759013935255], [-78.63514792370769, -1.6787397868508984], [-78.63491833800029, -1.6790014268658209], [-78.63464631463253, -1.678759013935255]], [[-78.63538015990356, -1.6610898546110922], [-78.63506089659978, -1.6616003098870067], [-78.6351249118258, -1.661113080955043], [-78.63538015990356, -1.6610898546110922]], [[-78.63584647054276, -1.6783594630964709], [-78.6357226515233, -1.6790584419236303], [-78.63537029065851, -1.6785090553050375], [-78.63584647054276, -1.6783594630964709]], [[-78.63591313443902, -1.660451328071482], [-78.63626151708436, -1.661308840788175], [-78.63571607841679, -1.6606108499995413], [-78.63591313443902, -1.660451328071482]], [[-78.63722634485106, -1.659857461064784], [-78.6364872410987, -1.6598989940162976], [-78.63678654881214, -1.6595044391203675], [-78.63722634485106, -1.659857461064784]], [[-78.63730694100015, -1.670902014767575], [-78.63721974509215, -1.672042560940175], [-78.63666535283994, -1.6713377417853126], [-78.63730694100015, -1.670902014767575]], [[-78.63743590501844, -1.6677959431498945], [-78.63732276698762, -1.668517784703464], [-78.63672979617247, -1.6679443723216865], [-78.63743590501844, -1.6677959431498945]], [[-78.63729880197488, -1.6799165383655457], [-78.63701576503544, -1.6802246489309571], [-78.63698579442779, -1.67992802206542], [-78.63729880197488, -1.6799165383655457]], [[-78.63723338734587, -1.6591084314539044], [-78.6378182737745, -1.6588113894717276], [-78.63757003585314, -1.6593126214614675], [-78.63723338734587, -1.6591084314539044]], [[-78.63753479183174, -1.6941283858023715], [-78.63819860665065, -1.6949368281446229], [-78.63733850163112, -1.695090140719004], [-78.63753479183174, -1.6941283858023715]], [[-78.63734901161344, -1.696645535448747], [-78.63799126801797, -1.6962028436319352], [-78.63758190474401, -1.6968253549753773], [-78.63734901161344, -1.696645535448747]], [[-78.63793194097498, -1.6929094920804464], [-78.63759376332592, -1.693089950933665], [-78.63765888486077, -1.6928199528059609], [-78.63793194097498, -1.6929094920804464]], [[-78.6378893327019, -1.678552786307333], [-78.63799460115543, -1.6780501110371795], [-78.63825912772461, -1.6784116675656444], [-78.6378893327019, -1.678552786307333]], [[-78.63973574429389, -1.6952015301702397], [-78.63921683347401, -1.698301887959354], [-78.63794732571782, -1.6974076057719854], [-78.63973574429389, -1.6952015301702397]], [[-78.63842793040813, -1.6939087780050242], [-78.63866505853447, -1.6942963982741461], [-78.63826956014925, -1.694201154517667], [-78.63842793040813, -1.6939087780050242]], [[-78.63867278870605, -1.679703189263828], [-78.6387108516421, -1.680253150470314], [-78.6384251859239, -1.679850982810409], [-78.63867278870605, -1.679703189263828]], [[-78.63975241851008, -1.6925294201591137], [-78.63964060823056, -1.6942100824454875], [-78.63885270924742, -1.6927964807155589], [-78.63975241851008, -1.6925294201591137]], [[-78.63960771268042, -1.6874866525415202], [-78.63909761423936, -1.6875707913260998], [-78.63940276546575, -1.687279386253314], [-78.63960771268042, -1.6874866525415202]], [[-78.63941420488564, -1.6631465954502513], [-78.63939055428202, -1.6635912577934453], [-78.63918601899441, -1.6632957618493116], [-78.63941420488564, -1.6631465954502513]], [[-78.63957952731012, -1.6789153112926818], [-78.639311653434, -1.6791893932718793], [-78.63930896080456, -1.6789154372736992], [-78.63957952731012, -1.6789153112926818]], [[-78.64238908995436, -1.6898908076863195], [-78.64214263929124, -1.6920448652231135], [-78.63961577921107, -1.6915441819220693], [-78.64238908995436, -1.6898908076863195]], [[-78.64052742864087, -1.6811725849528676], [-78.63990346230183, -1.6819155847359815], [-78.6397076233031, -1.6812330130445883], [-78.64052742864087, -1.6811725849528676]], [[-78.6402794562435, -1.6879286721712266], [-78.64095692010302, -1.689817578696879], [-78.63989865193098, -1.6882125457263464], [-78.6402794562435, -1.6879286721712266]], [[-78.64069836165405, -1.6941606640196107], [-78.6412912120275, -1.6956316602580501], [-78.640183703438, -1.6946700464207207], [-78.64069836165405, -1.6941606640196107]], [[-78.64080011597477, -1.6806397572162535], [-78.64165779441471, -1.6805856401711763], [-78.64058453382704, -1.681162393846838], [-78.64080011597477, -1.6806397572162535]], [[-78.64117152181437, -1.6836839540478314], [-78.64118875825066, -1.6848753883115288], [-78.64056812823227, -1.6841298782819931], [-78.64117152181437, -1.6836839540478314]], [[-78.64184666921791, -1.6868863699596823], [-78.64148279935789, -1.6879390335238158], [-78.64096900701084, -1.6875281474125903], [-78.64184666921791, -1.6868863699596823]], [[-78.64114583057534, -1.6579255584524915], [-78.64168873203921, -1.657638493218441], [-78.64147934284469, -1.6581165822713069], [-78.64114583057534, -1.6579255584524915]], [[-78.64332499076178, -1.693877687836299], [-78.64173929232345, -1.6938017723943304], [-78.64206907833109, -1.692748684942132], [-78.64332499076178, -1.693877687836299]], [[-78.64205440568966, -1.6957455855904284], [-78.64214648895019, -1.6962633359976822], [-78.64181279438209, -1.6959484933713571], [-78.64205440568966, -1.6957455855904284]], [[-78.64218390340596, -1.6579061773531851], [-78.64248736119089, -1.6584156815690825], [-78.641967971813, -1.6587454780290734], [-78.64218390340596, -1.6579061773531851]], [[-78.6442476467957, -1.6616003483864095], [-78.64287508539046, -1.6617024788787436], [-78.6432544569553, -1.6609882578783906], [-78.6442476467957, -1.6616003483864095]], [[-78.64375181968288, -1.696336445342581], [-78.6433444461265, -1.6967677886292991], [-78.64337594456538, -1.696296241060063], [-78.64375181968288, -1.696336445342581]], [[-78.6445732994213, -1.6800888710494273], [-78.64449293288811, -1.6822035828011161], [-78.64349519074278, -1.6822108710629449], [-78.6445732994213, -1.6800888710494273]], [[-78.6444531799435, -1.694409839508168], [-78.64434215523741, -1.696159081284508], [-78.64385746403306, -1.6943217087786748], [-78.6444531799435, -1.694409839508168]], [[-78.64433077249709, -1.686720370277713], [-78.6441731269825, -1.6887802774837182], [-78.643939122211, -1.68674532417121], [-78.64433077249709, -1.686720370277713]], [[-78.64437931287851, -1.6918844802190378], [-78.64475147801234, -1.6917893078287087], [-78.64462484189603, -1.6920142736348598], [-78.64437931287851, -1.6918844802190378]], [[-78.64499035474246, -1.6652981383132277], [-78.64564542451862, -1.6665406087260977], [-78.64451307128024, -1.665734529536229], [-78.64499035474246, -1.6652981383132277]], [[-78.64489911429884, -1.6905320178443166], [-78.64601540583206, -1.6913665655941086], [-78.64573705305932, -1.691622262975288], [-78.64489911429884, -1.6905320178443166]], [[-78.64515052074775, -1.694418295332582], [-78.64526963136305, -1.6953088953283988], [-78.64491462516305, -1.694947788242784], [-78.64515052074775, -1.694418295332582]], [[-78.64519803730444, -1.6962324360405256], [-78.64524328652088, -1.696722617976513], [-78.64494415171023, -1.6965126573057812], [-78.64519803730444, -1.6962324360405256]], [[-78.64562751314108, -1.6827632274446995], [-78.64724824481982, -1.6853637758886302], [-78.6450972942846, -1.6833773626991473], [-78.64562751314108, -1.6827632274446995]], [[-78.64553831293388, -1.693435576183741], [-78.6452237906544, -1.6938608283597523], [-78.64528290214112, -1.6934017269518369], [-78.64553831293388, -1.693435576183741]], [[-78.64538702083865, -1.6922119563090883], [-78.6456598045615, -1.6926303467692234], [-78.64533542751865, -1.692587715346923], [-78.64538702083865, -1.6922119563090883]], [[-78.64744225610178, -1.6673759144598388], [-78.64781711275398, -1.667456272020461], [-78.64759433051506, -1.6676027743292028], [-78.64744225610178, -1.6673759144598388]], [[-78.64915785394686, -1.6677538360446391], [-78.64916247587009, -1.6682187835957973], [-78.64893359681167, -1.6679586968183349], [-78.64915785394686, -1.6677538360446391]], [[-78.65092301186294, -1.6792652209549777], [-78.65137206318313, -1.681207533873517], [-78.65021677215992, -1.679778551937356], [-78.65092301186294, -1.6792652209549777]], [[-78.6505290910447, -1.683417728542235], [-78.65065672811603, -1.6839690023753113], [-78.65026685801786, -1.6836039276112227], [-78.6505290910447, -1.683417728542235]], [[-78.65227850599948, -1.6679660228694124], [-78.65247700172287, -1.6683103552936094], [-78.65218731569887, -1.6682330370685903], [-78.65227850599948, -1.6679660228694124]], [[-78.65280692344682, -1.6788488563542432], [-78.6526736220272, -1.679284505773042], [-78.65244920530218, -1.6789613998540216], [-78.65280692344682, -1.6788488563542432]], [[-78.65572140988864, -1.656794264051169], [-78.65467637395955, -1.6625249888562166], [-78.65290458467574, -1.661272304968005], [-78.65572140988864, -1.656794264051169]], [[-78.65396454397793, -1.6839994839489727], [-78.65346494514003, -1.6840975747329534], [-78.65374835521578, -1.6837849456460752], [-78.65396454397793, -1.6839994839489727]], [[-78.65380908110964, -1.6627760394166875], [-78.65392975606251, -1.6635032129475793], [-78.65350587357571, -1.6632120911783328], [-78.65380908110964, -1.6627760394166875]], [[-78.65475139929882, -1.6713375449498937], [-78.65485128149152, -1.6709072923475015], [-78.65500961769816, -1.6711761205075066], [-78.65475139929882, -1.6713375449498937]], [[-78.65572854286945, -1.6818540925714867], [-78.6549108902449, -1.6823730920300617], [-78.65550173347413, -1.6816639974254186], [-78.65572854286945, -1.6818540925714867]], [[-78.65686236978209, -1.6758231658458629], [-78.65787052996373, -1.6775626259388532], [-78.65661351163118, -1.675854770466723], [-78.65686236978209, -1.6758231658458629]], [[-78.65714102912224, -1.667553405017495], [-78.65700567480619, -1.6671125426340547], [-78.65729141844997, -1.6672936269606993], [-78.65714102912224, -1.667553405017495]], [[-78.65787714496143, -1.6812621143511466], [-78.65732116075439, -1.6816207818624882], [-78.65704824793588, -1.6807892329368912], [-78.65787714496143, -1.6812621143511466]], [[-78.65844838971299, -1.679791456075365], [-78.65832736888211, -1.6810904203183055], [-78.65753719839998, -1.6802356464497543], [-78.65844838971299, -1.679791456075365]], [[-78.65913386982571, -1.6771858998760991], [-78.65893921330277, -1.6793972594139328], [-78.65792975995998, -1.678625337773073], [-78.65913386982571, -1.6771858998760991]], [[-78.65924089751894, -1.6634828865108435], [-78.65865480368218, -1.6636121470739136], [-78.65908076392301, -1.6632827209220933], [-78.65924089751894, -1.6634828865108435]], [[-78.65983958586675, -1.6685354301896032], [-78.65981129903311, -1.6690427499670548], [-78.6595304230051, -1.6688079766857447], [-78.65983958586675, -1.6685354301896032]], [[-78.6606014929153, -1.6649863534480391], [-78.66009202641237, -1.6670199976037592], [-78.6595844413062, -1.6657329395640144], [-78.6606014929153, -1.6649863534480391]], [[-78.65999085603639, -1.6690558947009206], [-78.66027247590458, -1.6696124966642671], [-78.65984354369878, -1.669632661733736], [-78.65999085603639, -1.6690558947009206]], [[-78.66111091054535, -1.672422023261601], [-78.66209942743514, -1.6726025895673116], [-78.66146434736244, -1.6733260175918585], [-78.66111091054535, -1.672422023261601]], [[-78.66212060650567, -1.6830608355971108], [-78.66216587097749, -1.6836804329082877], [-78.66170942990684, -1.6834365816264822], [-78.66212060650567, -1.6830608355971108]], [[-78.662069368521, -1.6794401087486528], [-78.66183721411777, -1.6798365302772982], [-78.6617725696432, -1.6794525086623946], [-78.662069368521, -1.6794401087486528]], [[-78.66202175038717, -1.6752363371544137], [-78.66265472264611, -1.6749362037905837], [-78.66248285450641, -1.675301871685798], [-78.66202175038717, -1.6752363371544137]], [[-78.66209364837775, -1.6773184503412468], [-78.66248930595692, -1.6775348070711522], [-78.6621486094716, -1.677633365434348], [-78.66209364837775, -1.6773184503412468]], [[-78.66246102089062, -1.6551052848282597], [-78.66321310907495, -1.65543026806569], [-78.66284257955705, -1.6556593866822238], [-78.66246102089062, -1.6551052848282597]], [[-78.66668235982962, -1.6661731429810234], [-78.66378376543234, -1.668353090563353], [-78.66275813538611, -1.6676406380448254], [-78.66668235982962, -1.6661731429810234]], [[-78.66411241595786, -1.6762273224134865], [-78.6641565948745, -1.6816494171682506], [-78.66326666748684, -1.6820672246108102], [-78.66411241595786, -1.6762273224134865]], [[-78.66323256071516, -1.665672261854589], [-78.66331719940376, -1.6662724962303466], [-78.66285309606636, -1.665902720395041], [-78.66323256071516, -1.665672261854589]], [[-78.66373751100606, -1.6584479945270205], [-78.66308621815797, -1.6600518016811439], [-78.66349271478823, -1.658337912110045], [-78.66373751100606, -1.6584479945270205]], [[-78.66395847167391, -1.6555564957745104], [-78.6638819227811, -1.6565983134029194], [-78.66333378446284, -1.6561825880447107], [-78.66395847167391, -1.6555564957745104]], [[-78.66408222804529, -1.6641192395525022], [-78.66408515993555, -1.6646550441617718], [-78.66384776777754, -1.664242847268822], [-78.66408222804529, -1.6641192395525022]], [[-78.66694725243374, -1.6715153382039007], [-78.66685535221633, -1.6750098159849731], [-78.66455366654779, -1.6744574226151347], [-78.66694725243374, -1.6715153382039007]], [[-78.66467088933658, -1.6596489548396562], [-78.66535182252983, -1.6595942545891431], [-78.66483881055971, -1.6599961372570244], [-78.66467088933658, -1.6596489548396562]], [[-78.66629583636329, -1.671377557912369], [-78.6649972728371, -1.6708024542044217], [-78.66534083979911, -1.6703466290696105], [-78.66629583636329, -1.671377557912369]], [[-78.66591950945082, -1.655089339951535], [-78.66624508869168, -1.6555767134332684], [-78.66563716446339, -1.6555377010610988], [-78.66591950945082, -1.655089339951535]], [[-78.66584993201512, -1.662776747935976], [-78.66623446839341, -1.6630562094855035], [-78.665952029268, -1.6631251012690982], [-78.66584993201512, -1.662776747935976]], [[-78.66618385030031, -1.679604827021825], [-78.66657075923357, -1.6801148843326454], [-78.66600413511497, -1.6798336555518172], [-78.66618385030031, -1.679604827021825]], [[-78.66824899102473, -1.6678358754975646], [-78.66788943892911, -1.6710943068390547], [-78.66606399553804, -1.6701841569266564], [-78.66824899102473, -1.6678358754975646]], [[-78.66626344753077, -1.6835428431433963], [-78.66665508008757, -1.6839912973315379], [-78.66614844155546, -1.6838305632795423], [-78.66626344753077, -1.6835428431433963]], [[-78.67015552817482, -1.6906997904753114], [-78.66862681942655, -1.691852427362442], [-78.66768602989738, -1.6906359743800436], [-78.67015552817482, -1.6906997904753114]], [[-78.6705066511592, -1.6638471442061296], [-78.67053919971282, -1.664248813454162], [-78.67026873386875, -1.6640726992891102], [-78.6705066511592, -1.6638471442061296]], [[-78.67307546982092, -1.6909388160180094], [-78.67281545441747, -1.691264904344276], [-78.67275166078704, -1.6909626287911574], [-78.67307546982092, -1.6909388160180094]], [[-78.67561645890048, -1.6850139053491409], [-78.67680493889455, -1.684899496472049], [-78.67616702548646, -1.6854833029974547], [-78.67561645890048, -1.6850139053491409]], [[-78.67767371204248, -1.6816142864733188], [-78.67811293945064, -1.6832720523190134], [-78.67748504953283, -1.685123114805608], [-78.67767371204248, -1.6816142864733188]], [[-78.67917661591034, -1.6808526760831972], [-78.6802295877812, -1.6821197787542088], [-78.67957415763533, -1.682701377207249], [-78.67917661591034, -1.6808526760831972]], [[-78.68031939135398, -1.6842339239178266], [-78.68058026091066, -1.6850280741224468], [-78.679813340328, -1.6846160465032491], [-78.68031939135398, -1.6842339239178266]]]}}, {"type": "Feature", "properties": {"categoria": "Salud", "distance_m": 1250, "mode": "walking", "equipamientos_origen": 9, "nodos_alcanzables": 4674, "target_platform": "PLATAFORMA Ñ"}, "geometry": {"type": "MultiPolygon", "coordinates": [[[[-78.6729362951741, -1.6748765899191227], [-78.6716811218014, -1.6627987496390515], [-78.65647139071442, -1.6590278957117863], [-78.65463021871489, -1.6625475652582682], [-78.64798371507564, -1.6603715336683689], [-78.63547209769976, -1.6657107122483208], [-78.6344954413759, -1.6720187797038195], [-78.624972438238, -1.6758552106265747], [-78.62233347628862, -1.6818923966060098], [-78.63185653758923, -1.691282915613663], [-78.6729362951741, -1.6748765899191227]], [[-78.62703949664608, -1.6764087122249998], [-78.62598685875184, -1.6775658088380527], [-78.62678916681989, -1.6761611027680652], [-78.62703949664608, -1.6764087122249998]], [[-78.62762990781415, -1.6794023601252357], [-78.62696887870976, -1.6794022592703104], [-78.62720388815795, -1.6790365149716342], [-78.62762990781415, -1.6794023601252357]], [[-78.62714190837625, -1.6844124408208345], [-78.62733928371898, -1.6839632559043936], [-78.62741112626877, -1.6843721633406818], [-78.62714190837625, -1.6844124408208345]], [[-78.6278390335896, -1.6831331167172778], [-78.62771225529973, -1.6825758121745347], [-78.62833525151952, -1.6826965808061962], [-78.6278390335896, -1.6831331167172778]], [[-78.62857429495848, -1.6765187301519922], [-78.62789396704206, -1.6774094746578323], [-78.62815823629971, -1.6764214279012317], [-78.62857429495848, -1.6765187301519922]], [[-78.62861399811356, -1.6833129673644023], [-78.62806606228229, -1.6840258526740832], [-78.6278587254574, -1.6838256784219159], [-78.62861399811356, -1.6833129673644023]], [[-78.62851455070256, -1.6862431311400374], [-78.62846134366922, -1.6871358540664156], [-78.6280165880799, -1.6865745877746678], [-78.62851455070256, -1.6862431311400374]], [[-78.62846551299499, -1.6818528122571177], [-78.62979890583453, -1.6833181235213948], [-78.62957846612932, -1.683518946311621], [-78.62846551299499, -1.6818528122571177]], [[-78.62884581629709, -1.6752565673451871], [-78.62931168303228, -1.6765682129725787], [-78.6285962604604, -1.675278394283079], [-78.62884581629709, -1.6752565673451871]], [[-78.6290572014583, -1.6801622733348454], [-78.62925830772826, -1.6806812813438474], [-78.62882321414047, -1.6805083930748297], [-78.6290572014583, -1.6801622733348454]], [[-78.62894774720739, -1.6789680532312912], [-78.62959996207913, -1.6788758098491097], [-78.62909313601192, -1.6792424294257027], [-78.62894774720739, -1.6789680532312912]], [[-78.62958517503708, -1.6871338569737302], [-78.6303086924917, -1.6872301185539706], [-78.62972329597793, -1.6875034412773706], [-78.62958517503708, -1.6871338569737302]], [[-78.63043901116654, -1.6878474036609337], [-78.63042337692578, -1.6884135250063506], [-78.6301653987325, -1.687969966243234], [-78.63043901116654, -1.6878474036609337]], [[-78.63077597529457, -1.6789286794624145], [-78.63022994225427, -1.6788172697378323], [-78.63037185458747, -1.6779612706038094], [-78.63077597529457, -1.6789286794624145]], [[-78.63206524011466, -1.6792902778447583], [-78.63064843870211, -1.6804238056263072], [-78.63027712465602, -1.6801415556589308], [-78.63206524011466, -1.6792902778447583]], [[-78.63033007323477, -1.6812781466472342], [-78.63079492419807, -1.6814029504149135], [-78.63048199747581, -1.6816614318059353], [-78.63033007323477, -1.6812781466472342]], [[-78.6304942188791, -1.6822758485700502], [-78.63197125653234, -1.6829242723766762], [-78.63041080546222, -1.6831454325988249], [-78.6304942188791, -1.6822758485700502]], [[-78.63052272835135, -1.6838150696766243], [-78.63126359497626, -1.6843986080173816], [-78.63046989387122, -1.6844767542633665], [-78.63052272835135, -1.6838150696766243]], [[-78.63095371415977, -1.6774424692810317], [-78.6320468657207, -1.6786878873754505], [-78.63137381959487, -1.678911872981026], [-78.63095371415977, -1.6774424692810317]], [[-78.63107355611359, -1.6744184516114327], [-78.63136264930604, -1.674193880880825], [-78.63133611938301, -1.6744649899451045], [-78.63107355611359, -1.6744184516114327]], [[-78.63239926716284, -1.6806284431231684], [-78.63153778412637, -1.6814972630308116], [-78.63127552823757, -1.6810250021406858], [-78.63239926716284, -1.6806284431231684]], [[-78.63276677746089, -1.683251835845777], [-78.63255067166193, -1.6840224104788692], [-78.63217122642257, -1.683541446555177], [-78.63276677746089, -1.683251835845777]], [[-78.63333064721661, -1.6754882853627555], [-78.63589846620913, -1.6777681725900242], [-78.63256987844788, -1.6785241246369336], [-78.63333064721661, -1.6754882853627555]], [[-78.63269605675946, -1.6888954144488135], [-78.63281286933362, -1.6894971872288884], [-78.63248878425692, -1.6894281801687079], [-78.63269605675946, -1.6888954144488135]], [[-78.63280677826344, -1.6791215659964835], [-78.63413259247771, -1.6794843105880937], [-78.63288558467717, -1.6797439109837495], [-78.63280677826344, -1.6791215659964835]], [[-78.6329676370159, -1.673122802794548], [-78.63301915882155, -1.6727247372096377], [-78.63319278840217, -1.672948036454579], [-78.6329676370159, -1.673122802794548]], [[-78.63397690113334, -1.6872073436886375], [-78.63404761581528, -1.6881309700878906], [-78.63353300664339, -1.6878188204654632], [-78.63397690113334, -1.6872073436886375]], [[-78.63434455777971, -1.6850320858482122], [-78.63407687357073, -1.6857394418931222], [-78.6337943788227, -1.6853679129258743], [-78.63434455777971, -1.6850320858482122]], [[-78.63454238035155, -1.6750237042082492], [-78.63423929311638, -1.674769077685662], [-78.6346881884475, -1.6746444910051521], [-78.63454238035155, -1.6750237042082492]], [[-78.63451263884173, -1.6849403783237153], [-78.63480478466417, -1.6846449766658949], [-78.63478211026666, -1.6849380021781064], [-78.63451263884173, -1.6849403783237153]], [[-78.63464631463253, -1.678759013935255], [-78.63514792370769, -1.6787397868508984], [-78.63491833800029, -1.6790014268658209], [-78.63464631463253, -1.678759013935255]], [[-78.63584647054276, -1.6783594630964709], [-78.6357226515233, -1.6790584419236303], [-78.63537029065851, -1.6785090553050375], [-78.63584647054276, -1.6783594630964709]], [[-78.63730694100015, -1.670902014767575], [-78.63721974509215, -1.672042560940175], [-78.63666535283994, -1.6713377417853126], [-78.63730694100015, -1.670902014767575]], [[-78.63743590501844, -1.6677959431498945], [-78.63732276698762, -1.668517784703464], [-78.63672979617247, -1.6679443723216865], [-78.63743590501844, -1.6677959431498945]], [[-78.63729880197488, -1.6799165383655457], [-78.63701576503544, -1.6802246489309571], [-78.63698579442779, -1.67992802206542], [-78.63729880197488, -1.6799165383655457]], [[-78.6378893327019, -1.678552786307333], [-78.63799460115543, -1.6780501110371795], [-78.63825912772461, -1.6784116675656444], [-78.6378893327019, -1.678552786307333]], [[-78.63867278870605, -1.679703189263828], [-78.6387108516421, -1.680253150470314], [-78.6384251859239, -1.679850982810409], [-78.63867278870605, -1.679703189263828]], [[-78.63960771268042, -1.6874866525415202], [-78.63909761423938, -1.6875707913261166], [-78.63940276546575, -1.687279386253314], [-78.63960771268042, -1.6874866525415202]], [[-78.63957952731032, -1.6789153112929176], [-78.639311653434, -1.6791893932718793], [-78.63930896080463, -1.6789154372736483], [-78.63957952731032, -1.6789153112929176]], [[-78.63986256235947, -1.681019209219075], [-78.64165779441471, -1.680585640171193], [-78.63983339971126, -1.6818631630985137], [-78.63986256235947, -1.681019209219075]], [[-78.64009818281848, -1.6662339400507415], [-78.64022519005513, -1.6667036101437818], [-78.63992384979993, -1.6664633598196101], [-78.64009818281848, -1.6662339400507415]], [[-78.64499035474248, -1.6652981383132277], [-78.64564542451862, -1.6665406087260977], [-78.64451307128024, -1.665734529536229], [-78.64499035474248, -1.6652981383132277]], [[-78.64621138834515, -1.6623709262772817], [-78.64637668665843, -1.661885653859828], [-78.64652585338818, -1.6622623942621473], [-78.64621138834515, -1.6623709262772817]], [[-78.64744225610178, -1.6673759144598388], [-78.64781711275398, -1.667456272020461], [-78.64759433051506, -1.6676027743292028], [-78.64744225610178, -1.6673759144598388]], [[-78.64915785394686, -1.6677538360446391], [-78.6491624758701, -1.6682187835957973], [-78.64893359681167, -1.667958696818352], [-78.64915785394686, -1.6677538360446391]], [[-78.65092301186294, -1.6792652209549777], [-78.65137206318313, -1.681207533873517], [-78.65021677215994, -1.6797785519373392], [-78.65092301186294, -1.6792652209549777]], [[-78.65227850599953, -1.6679660228693787], [-78.65247700172281, -1.668310355293643], [-78.65218731569884, -1.6682330370685061], [-78.65227850599953, -1.6679660228693787]], [[-78.65280692344682, -1.6788488563542432], [-78.6526736220272, -1.679284505773042], [-78.65244920530218, -1.6789613998540216], [-78.65280692344682, -1.6788488563542432]], [[-78.65380908110964, -1.6627760394167042], [-78.65392975606251, -1.6635032129475793], [-78.65350587357572, -1.6632120911783328], [-78.65380908110964, -1.6627760394167042]], [[-78.65475139929879, -1.6713375449498937], [-78.65485128149153, -1.6709072923474675], [-78.65500961769816, -1.6711761205075235], [-78.65475139929879, -1.6713375449498937]], [[-78.65686236978209, -1.6758231658458629], [-78.65787052996373, -1.6775626259388532], [-78.65661351163118, -1.675854770466723], [-78.65686236978209, -1.6758231658458629]], [[-78.65714102912226, -1.667553405017495], [-78.65700567480619, -1.6671125426340547], [-78.65729141844996, -1.6672936269606993], [-78.65714102912226, -1.667553405017495]], [[-78.65913386982571, -1.6771858998760991], [-78.65893921330277, -1.6793972594139328], [-78.65792975996, -1.678625337773073], [-78.65913386982571, -1.6771858998760991]], [[-78.65924089751894, -1.6634828865108435], [-78.65865480368218, -1.6636121470739136], [-78.65908076392303, -1.6632827209220933], [-78.65924089751894, -1.6634828865108435]], [[-78.65983958586675, -1.6685354301895858], [-78.65981129903311, -1.6690427499670548], [-78.6595304230051, -1.6688079766857618], [-78.65983958586675, -1.6685354301895858]], [[-78.6606014929153, -1.6649863534480391], [-78.66009202641237, -1.6670199976037592], [-78.6595844413062, -1.6657329395640144], [-78.6606014929153, -1.6649863534480391]], [[-78.65999085603639, -1.6690558947009206], [-78.66027247590458, -1.6696124966642671], [-78.65984354369878, -1.669632661733736], [-78.65999085603639, -1.6690558947009206]], [[-78.66111091054535, -1.6724220232616183], [-78.66209942743514, -1.6726025895673116], [-78.66146434736244, -1.6733260175918585], [-78.66111091054535, -1.6724220232616183]], [[-78.66202175038717, -1.6752363371544137], [-78.66265472264611, -1.6749362037905837], [-78.66248285450641, -1.675301871685798], [-78.66202175038717, -1.6752363371544137]], [[-78.66209364837775, -1.6773184503412468], [-78.66248930595692, -1.6775348070711522], [-78.6621486094716, -1.677633365434348], [-78.66209364837775, -1.6773184503412468]], [[-78.66668235982962, -1.6661731429810234], [-78.66378376543234, -1.668353090563353], [-78.66275813538611, -1.6676406380448254], [-78.66668235982962, -1.6661731429810234]], [[-78.66323256071516, -1.665672261854589], [-78.66331719940376, -1.6662724962303466], [-78.66285309606636, -1.665902720395041], [-78.66323256071516, -1.665672261854589]], [[-78.6640822280453, -1.6641192395525022], [-78.66408515993551, -1.6646550441617547], [-78.66384776777755, -1.6642428472688051], [-78.6640822280453, -1.6641192395525022]], [[-78.66694725243374, -1.6715153382039007], [-78.66685535221633, -1.6750098159849731], [-78.66455366654779, -1.6744574226151347], [-78.66694725243374, -1.6715153382039007]], [[-78.66629583636329, -1.671377557912369], [-78.6649972728371, -1.6708024542044217], [-78.66534083979911, -1.6703466290696105], [-78.66629583636329, -1.671377557912369]], [[-78.6658499320151, -1.6627767479359932], [-78.6662344683934, -1.6630562094855035], [-78.665952029268, -1.6631251012690982], [-78.6658499320151, -1.6627767479359932]], [[-78.66824899102473, -1.6678358754975646], [-78.66788943892911, -1.6710943068390547], [-78.66606399553804, -1.6701841569266564], [-78.66824899102473, -1.6678358754975646]], [[-78.6705066511592, -1.6638471442061296], [-78.67053919971282, -1.664248813454162], [-78.67026873386875, -1.6640726992890933], [-78.6705066511592, -1.6638471442061296]]], [[[-78.68439239525345, -1.6851997373282837], [-78.6814874851306, -1.6805709754454483], [-78.67710537326872, -1.6797679306578137], [-78.66981271016513, -1.684904288856003], [-78.67576300341368, -1.6989959968363326], [-78.68439239525345, -1.6851997373282837]], [[-78.67307546982092, -1.6909388160180094], [-78.67281545441747, -1.691264904344276], [-78.67275166078704, -1.6909626287911574], [-78.67307546982092, -1.6909388160180094]], [[-78.67561645890048, -1.6850139053491409], [-78.67680493889455, -1.684899496472049], [-78.67616702548646, -1.6854833029974547], [-78.67561645890048, -1.6850139053491409]], [[-78.67767371204248, -1.6816142864733188], [-78.67811293945064, -1.6832720523190134], [-78.67748504953283, -1.685123114805608], [-78.67767371204248, -1.6816142864733188]], [[-78.68031939135398, -1.6842339239178266], [-78.68058026091066, -1.6850280741224468], [-78.679813340328, -1.6846160465032491], [-78.68031939135398, -1.6842339239178266]], [[-78.6822181712279, -1.6835857753494823], [-78.68180292916377, -1.6848958185226082], [-78.68093753728745, -1.6838544040154846], [-78.6822181712279, -1.6835857753494823]]]]}}, {"type": "Feature", "properties": {"categoria": "Seguridad", "distance_m": 1250, "mode": "walking", "equipamientos_origen": 7, "nodos_alcanzables": 3678, "target_platform": "PLATAFORMA Ñ"}, "geometry": {"type": "MultiPolygon", "coordinates": [[[[-78.66693687019641, -1.668793546990563], [-78.66083452610917, -1.661570999155391], [-78.64867241821001, -1.6614789361124078], [-78.64075917495643, -1.66437080888297], [-78.64007338148633, -1.6707088122702367], [-78.63220745551554, -1.6738708813468521], [-78.62923289702954, -1.681195093591117], [-78.63274689342738, -1.688438678401006], [-78.64369967554225, -1.687724901722982], [-78.64763743991239, -1.6813467053754372], [-78.66281249466654, -1.6836920848841586], [-78.66646715406216, -1.675468281105686], [-78.66693687019641, -1.668793546990563]], [[-78.63206524011466, -1.6792902778447583], [-78.63064843870211, -1.6804238056263072], [-78.63027712465602, -1.6801415556589308], [-78.63206524011466, -1.6792902778447583]], [[-78.63050407346539, -1.6810984558460302], [-78.63058409262408, -1.6816500089095234], [-78.6303503567932, -1.6815581045099186], [-78.63050407346539, -1.6810984558460302]], [[-78.6315545085869, -1.681498197817474], [-78.63236495347181, -1.6806288372407236], [-78.63266461059278, -1.6810631490281416], [-78.6315545085869, -1.681498197817474]], [[-78.63333064721661, -1.6754882853627555], [-78.63589846620913, -1.6777681725900242], [-78.63256987844788, -1.6785241246369336], [-78.63333064721661, -1.6754882853627555]], [[-78.63280677826344, -1.6791215659964835], [-78.63413259247771, -1.6794843105880937], [-78.63288558467717, -1.6797439109837495], [-78.63280677826344, -1.6791215659964835]], [[-78.63454238035155, -1.6750237042082492], [-78.63423929311638, -1.674769077685662], [-78.6346881884475, -1.6746444910051521], [-78.63454238035155, -1.6750237042082492]], [[-78.6348422804018, -1.684703302226281], [-78.63447465097799, -1.6848797748326758], [-78.63461277086871, -1.6846010969798888], [-78.6348422804018, -1.684703302226281]], [[-78.63464631463253, -1.678759013935255], [-78.63514792370769, -1.6787397868508984], [-78.63491833800029, -1.6790014268658209], [-78.63464631463253, -1.678759013935255]], [[-78.63584647054276, -1.6783594630964709], [-78.6357226515233, -1.6790584419236303], [-78.63537029065851, -1.6785090553050375], [-78.63584647054276, -1.6783594630964709]], [[-78.63729880197488, -1.6799165383655457], [-78.63701576503544, -1.6802246489309571], [-78.63698579442779, -1.67992802206542], [-78.63729880197488, -1.6799165383655457]], [[-78.6378893327019, -1.678552786307333], [-78.63799460115543, -1.6780501110371795], [-78.63825912772461, -1.6784116675656444], [-78.6378893327019, -1.678552786307333]], [[-78.63867278870605, -1.679703189263828], [-78.6387108516421, -1.680253150470314], [-78.6384251859239, -1.679850982810409], [-78.63867278870605, -1.679703189263828]], [[-78.63960771268042, -1.6874866525415202], [-78.63909761423936, -1.6875707913260998], [-78.63940276546575, -1.687279386253314], [-78.63960771268042, -1.6874866525415202]], [[-78.63957952731012, -1.6789153112926818], [-78.639311653434, -1.6791893932718793], [-78.63930896080456, -1.6789154372736992], [-78.63957952731012, -1.6789153112926818]], [[-78.63986256235947, -1.681019209219075], [-78.64165779441471, -1.6805856401711763], [-78.63983339971126, -1.6818631630985137], [-78.63986256235947, -1.681019209219075]], [[-78.64117152181437, -1.6836839540478485], [-78.64118875825066, -1.6848753883115288], [-78.64056812823227, -1.6841298782819931], [-78.64117152181437, -1.6836839540478485]], [[-78.6445732994213, -1.6800888710494273], [-78.64449293288811, -1.6822035828011161], [-78.64349519074278, -1.6822108710629449], [-78.6445732994213, -1.6800888710494273]], [[-78.64744225610178, -1.6673759144598221], [-78.64781711275398, -1.667456272020444], [-78.64759433051506, -1.6676027743292028], [-78.64744225610178, -1.6673759144598221]], [[-78.64915785394686, -1.6677538360446391], [-78.6491624758701, -1.6682187835957973], [-78.64893359681167, -1.667958696818352], [-78.64915785394686, -1.6677538360446391]], [[-78.65092301186294, -1.6792652209549777], [-78.65137206318313, -1.681207533873517], [-78.65021677215994, -1.6797785519373392], [-78.65092301186294, -1.6792652209549777]], [[-78.65227850599953, -1.6679660228693787], [-78.65247700172281, -1.668310355293643], [-78.65218731569884, -1.6682330370685061], [-78.65227850599953, -1.6679660228693787]], [[-78.65280692344682, -1.6788488563542432], [-78.6526736220272, -1.679284505773042], [-78.65244920530218, -1.6789613998540216], [-78.65280692344682, -1.6788488563542432]], [[-78.65380908110964, -1.6627760394166875], [-78.65392975606251, -1.6635032129475793], [-78.65350587357572, -1.6632120911783328], [-78.65380908110964, -1.6627760394166875]], [[-78.6547513992988, -1.6713375449498937], [-78.65485128149155, -1.6709072923474844], [-78.65500961769816, -1.6711761205075066], [-78.6547513992988, -1.6713375449498937]], [[-78.65686236978209, -1.6758231658458629], [-78.6578705299637, -1.6775626259388532], [-78.65661351163118, -1.675854770466723], [-78.65686236978209, -1.6758231658458629]], [[-78.6570056748062, -1.6671125426340547], [-78.65714102912226, -1.667553405017495], [-78.65685761916448, -1.6673732007691389], [-78.6570056748062, -1.6671125426340547]], [[-78.65841355707595, -1.6797950295061268], [-78.6583633290918, -1.6810872583535925], [-78.65753952662345, -1.6802716282921233], [-78.65841355707595, -1.6797950295061268]], [[-78.65913386982571, -1.6771858998760991], [-78.65893921330277, -1.6793972594139328], [-78.65792975995998, -1.678625337773073], [-78.65913386982571, -1.6771858998760991]], [[-78.65924089751894, -1.6634828865108435], [-78.65865480368218, -1.6636121470739136], [-78.65908076392303, -1.6632827209220933], [-78.65924089751894, -1.6634828865108435]], [[-78.65983958586675, -1.6685354301896032], [-78.65981129903311, -1.6690427499670548], [-78.6595304230051, -1.668807976685728], [-78.65983958586675, -1.6685354301896032]], [[-78.6606014929153, -1.6649863534480391], [-78.66009202641237, -1.6670199976037592], [-78.6595844413062, -1.6657329395640144], [-78.6606014929153, -1.6649863534480391]], [[-78.65999085603639, -1.6690558947009206], [-78.66027247590458, -1.6696124966642671], [-78.65984354369878, -1.669632661733736], [-78.65999085603639, -1.6690558947009206]], [[-78.66069764530084, -1.6624997456675994], [-78.66104739038668, -1.6622312334130913], [-78.66099304453581, -1.662608450228555], [-78.66069764530084, -1.6624997456675994]], [[-78.66111091054535, -1.6724220232616183], [-78.66209942743514, -1.6726025895673116], [-78.66146434736244, -1.6733260175918585], [-78.66111091054535, -1.6724220232616183]], [[-78.662069368521, -1.6794401087486528], [-78.66183721411777, -1.6798365302772982], [-78.6617725696432, -1.6794525086623946], [-78.662069368521, -1.6794401087486528]], [[-78.66202175038717, -1.6752363371544137], [-78.66265472264611, -1.6749362037905837], [-78.66248285450641, -1.675301871685798], [-78.66202175038717, -1.6752363371544137]], [[-78.66209364837775, -1.6773184503412468], [-78.66248930595692, -1.6775348070711522], [-78.6621486094716, -1.677633365434348], [-78.66209364837775, -1.6773184503412468]], [[-78.66353133628384, -1.6660906787156302], [-78.66285309606636, -1.665902720395041], [-78.66323256071516, -1.665672261854572], [-78.66353133628384, -1.6660906787156302]], [[-78.6654966315558, -1.6703539517072234], [-78.66573054964542, -1.6717258579517986], [-78.66499991943662, -1.6706448053733969], [-78.6654966315558, -1.6703539517072234]]], [[[-78.6844404702915, -1.6850288235737225], [-78.680558749815, -1.6804294869031526], [-78.67691897133838, -1.6798598999582623], [-78.67577300064929, -1.683265628003381], [-78.67561751223295, -1.6789294327407815], [-78.66444309234838, -1.6900967033699936], [-78.67610518466596, -1.6993185683409717], [-78.6844404702915, -1.6850288235737225]], [[-78.67015552817477, -1.6906997904752943], [-78.66862681942655, -1.691852427362442], [-78.66768602989738, -1.6906359743800436], [-78.67015552817477, -1.6906997904752943]], [[-78.67307546982092, -1.6909388160180094], [-78.67281545441747, -1.691264904344276], [-78.67275166078704, -1.6909626287911574], [-78.67307546982092, -1.6909388160180094]], [[-78.67561645890048, -1.6850139053491409], [-78.67680493889455, -1.684899496472049], [-78.67616702548646, -1.6854833029974547], [-78.67561645890048, -1.6850139053491409]], [[-78.67767371204248, -1.6816142864733188], [-78.67811293945064, -1.6832720523190134], [-78.67748504953283, -1.685123114805608], [-78.67767371204248, -1.6816142864733188]], [[-78.68031939135399, -1.6842339239178266], [-78.68058026091066, -1.6850280741224468], [-78.679813340328, -1.6846160465032491], [-78.68031939135399, -1.6842339239178266]], [[-78.6822181712279, -1.6835857753494823], [-78.68180292916377, -1.6848958185226082], [-78.68093753728745, -1.6838544040154846], [-78.6822181712279, -1.6835857753494823]]]]}}]}