{"type": "FeatureCollection", "features": [{"type": "Feature", "properties": {"nombre": "Plaza Alfaro - Estacionamientos", "categoria": "Recreativo y Deporte", "codigo": "060101001002068", "platform_name": "PLATAFORMA K", "snap_m": 43.9}, "geometry": {"type": "Point", "coordinates": [-78.6542722343053, -1.669488890704343]}}, {"type": "Feature", "properties": {"nombre": "UE San Vicente de Paúl", "categoria": "Educación", "codigo": "060104003001032", "platform_name": "PLATAFORMA K", "snap_m": 42.72}, "geometry": {"type": "Point", "coordinates": [-78.65086062284738, -1.6758688014406196]}}, {"type": "Feature", "properties": {"nombre": "Centro Cultural Simon Bolivar-Parqueadero", "categoria": "Cultural", "codigo": "060102001001002", "platform_name": "PLATAFORMA K", "snap_m": 56.69}, "geometry": {"type": "Point", "coordinates": [-78.64628879001124, -1.6715187236019025]}}, {"type": "Feature", "properties": {"nombre": "UE Maria Auxiliadora", "categoria": "Educación", "codigo": "060104001001041", "platform_name": "PLATAFORMA K", "snap_m": 57.87}, "geometry": {"type": "Point", "coordinates": [-78.6491436301915, -1.6749709472691103]}}, {"type": "Feature", "properties": {"nombre": "Mercado Gastronomico Mariano Borja", "categoria": "Comercio Zonal", "codigo": "060101001002081", "platform_name": "PLATAFORMA K", "snap_m": 21.7}, "geometry": {"type": "Point", "coordinates": [-78.65018401434294, -1.6738217508937692]}}, {"type": "Feature", "properties": {"nombre": "Iglesia San Alfonso", "categoria": "Religioso", "codigo": "060102001001001", "platform_name": "PLATAFORMA K", "snap_m": 53.32}, "geometry": {"type": "Point", "coordinates": [-78.64684218482842, -1.6710270839366932]}}, {"type": "Feature", "properties": {"nombre": "GADMR", "categoria": "Administración Pública", "codigo": "060102001001025", "platform_name": "PLATAFORMA K", "snap_m": 38.81}, "geometry": {"type": "Point", "coordinates": [-78.64764370229344, -1.67321620381321]}}, {"type": "Feature", "properties": {"nombre": "UE Nuestra Señora de Fatima", "categoria": "Educación", "codigo": "060101001002053", "platform_name": "PLATAFORMA K", "snap_m": 32.82}, "geometry": {"type": "Point", "coordinates": [-78.65275855042248, -1.6696002142057393]}}, {"type": "Feature", "properties": {"nombre": "Parque Maldonado", "categoria": "Recreativo y Deporte", "codigo": "060102001001014", "platform_name": "PLATAFORMA K", "snap_m": 5.91}, "geometry": {"type": "Point", "coordinates": [-78.64824151916253, -1.6727187612465775]}}, {"type": "Feature", "properties": {"nombre": "Parque Sucre", "categoria": "Recreativo y Deporte", "codigo": "060101001002058", "platform_name": "PLATAFORMA K", "snap_m": 5.26}, "geometry": {"type": "Point", "coordinates": [-78.65040714329032, -1.6718609233987474]}}, {"type": "Feature", "properties": {"nombre": "Centro Cultural Maldonado", "categoria": "Cultural", "codigo": "060103001002036", "platform_name": "PLATAFORMA K", "snap_m": 51.24}, "geometry": {"type": "Point", "coordinates": [-78.64993308039556, -1.6712824765746772]}}, {"type": "Feature", "properties": {"nombre": "Plaza de Toros Raul Davalos", "categoria": "Recreativo y Deporte", "codigo": "060101001002070", "platform_name": "PLATAFORMA K", "snap_m": 52.73}, "geometry": {"type": "Point", "coordinates": [-78.65607459586508, -1.6683778490643335]}}, {"type": "Feature", "properties": {"nombre": "UE Riobamba", "categoria": "Educación", "codigo": "060101001002056", "platform_name": "PLATAFORMA K", "snap_m": 38.85}, "geometry": {"type": "Point", "coordinates": [-78.65148992689959, -1.671059776683994]}}, {"type": "Feature", "properties": {"nombre": "UE Santa Mariana de Jesús", "categoria": "Educación", "codigo": "060102001001012", "platform_name": "PLATAFORMA K", "snap_m": 56.42}, "geometry": {"type": "Point", "coordinates": [-78.6467602964003, -1.6720926516560215]}}, {"type": "Feature", "properties": {"nombre": "La Concepción", "categoria": "Religioso", "codigo": "060103001002013", "platform_name": "PLATAFORMA K", "snap_m": 43.16}, "geometry": {"type": "Point", "coordinates": [-78.64873465915935, -1.6703660329274839]}}, {"type": "Feature", "properties": {"nombre": "Plaza Juan Fernardo de León", "categoria": "Cultural", "codigo": "060103001002031", "platform_name": "PLATAFORMA K", "snap_m": 44.44}, "geometry": {"type": "Point", "coordinates": [-78.64885179308736, -1.6710506536363874]}}, {"type": "Feature", "properties": {"nombre": "ILE San Francisco", "categoria": "Educación", "codigo": "060104001001040", "platform_name": "PLATAFORMA K", "snap_m": 48.24}, "geometry": {"type": "Point", "coordinates": [-78.64969610959221, -1.6744679811703729]}}, {"type": "Feature", "properties": {"nombre": "GADPCH", "categoria": "Administración Pública", "codigo": "060103001002042", "platform_name": "PLATAFORMA K", "snap_m": 55.17}, "geometry": {"type": "Point", "coordinates": [-78.65282573249257, -1.6687735682202016]}}, {"type": "Feature", "properties": {"nombre": "Parque del Barrio Mariana de Jesús", "categoria": "Recreativo y Deporte", "codigo": "060102002002041", "platform_name": "PLATAFORMA O", "snap_m": 38.43}, "geometry": {"type": "Point", "coordinates": [-78.64407812466138, -1.6724725956460715]}}, {"type": "Feature", "properties": {"nombre": "Escuela Juan de Velazco", "categoria": "Educación", "codigo": "060101003003004", "platform_name": "PLATAFORMA K", "snap_m": 43.41}, "geometry": {"type": "Point", "coordinates": [-78.65133564672226, -1.6749947840395114]}}, {"type": "Feature", "properties": {"nombre": "UE 11 de Noviembre", "categoria": "Educación", "codigo": "060101003003002", "platform_name": "PLATAFORMA K", "snap_m": 46.33}, "geometry": {"type": "Point", "coordinates": [-78.65239358401493, -1.674047671208538]}}, {"type": "Feature", "properties": {"nombre": "Casa Madre", "categoria": "Religioso", "codigo": "060102001001005", "platform_name": "PLATAFORMA O", "snap_m": 49.3}, "geometry": {"type": "Point", "coordinates": [-78.6445562825807, -1.6731281330885404]}}, {"type": "Feature", "properties": {"nombre": "Iglesia San Antonio de Padua", "categoria": "Religioso", "codigo": "060103001002002", "platform_name": "PLATAFORMA K", "snap_m": 36.03}, "geometry": {"type": "Point", "coordinates": [-78.65254192011716, -1.665948582848278]}}, {"type": "Feature", "properties": {"nombre": "Parque 21 de Abril", "categoria": "Recreativo y Deporte", "codigo": "060103001002020", "platform_name": "PLATAFORMA K", "snap_m": 44.57}, "geometry": {"type": "Point", "coordinates": [-78.65322712593775, -1.6664416642534492]}}, {"type": "Feature", "properties": {"nombre": "Canchas de Santa Rosa", "categoria": "Recreativo y Deporte", "codigo": "060101001003008", "platform_name": "PLATAFORMA K", "snap_m": 45.47}, "geometry": {"type": "Point", "coordinates": [-78.65415994384371, -1.6726518108566188]}}, {"type": "Feature", "properties": {"nombre": "Iglesia de Santa Rosa", "categoria": "Religioso", "codigo": "060101001003008", "platform_name": "PLATAFORMA K", "snap_m": 31.53}, "geometry": {"type": "Point", "coordinates": [-78.65399380307758, -1.672949293183107]}}, {"type": "Feature", "properties": {"nombre": "Baterias Sanitarias", "categoria": "Infraestructura", "codigo": "060101001002048", "platform_name": "PLATAFORMA K", "snap_m": 24.3}, "geometry": {"type": "Point", "coordinates": [-78.65454890314096, -1.6679567516638878]}}, {"type": "Feature", "properties": {"nombre": "Fiscalia General del Estado", "categoria": "Administración Pública", "codigo": "060103001002045", "platform_name": "PLATAFORMA K", "snap_m": 32.8}, "geometry": {"type": "Point", "coordinates": [-78.65434129127217, -1.6672229800328746]}}, {"type": "Feature", "properties": {"nombre": "Registro Civil", "categoria": "Administración Pública", "codigo": "060101001002051", "platform_name": "PLATAFORMA K", "snap_m": 31.96}, "geometry": {"type": "Point", "coordinates": [-78.65360426019781, -1.668850975670036]}}, {"type": "Feature", "properties": {"nombre": "Corte de Justicia", "categoria": "Administración Pública", "codigo": "060103001002041", "platform_name": "PLATAFORMA K", "snap_m": 20.29}, "geometry": {"type": "Point", "coordinates": [-78.65226579745111, -1.6689234549149994]}}, {"type": "Feature", "properties": {"nombre": "UPC", "categoria": "Seguridad", "codigo": "060101001002068", "platform_name": "PLATAFORMA K", "snap_m": 27.78}, "geometry": {"type": "Point", "coordinates": [-78.65409549580087, -1.669872724673239]}}, {"type": "Feature", "properties": {"nombre": "Estación del Tren", "categoria": "Transporte", "codigo": "060101001002068", "platform_name": "PLATAFORMA K", "snap_m": 27.17}, "geometry": {"type": "Point", "coordinates": [-78.65371385660006, -1.6698820622463635]}}, {"type": "Feature", "properties": {"nombre": "Cuerpo de Bomberos", "categoria": "Seguridad", "codigo": "060101001003042", "platform_name": "PLATAFORMA K", "snap_m": 30.77}, "geometry": {"type": "Point", "coordinates": [-78.65371801711224, -1.6732595629666593]}}, {"type": "Feature", "properties": {"nombre": "UE Nuestra Señora de Fatima", "categoria": "Educación", "codigo": "060101001002054", "platform_name": "PLATAFORMA K", "snap_m": 38.09}, "geometry": {"type": "Point", "coordinates": [-78.65253704577776, -1.66994640520962]}}, {"type": "Feature", "properties": {"nombre": "Contraloria General del Estado", "categoria": "Administración Pública", "codigo": "060101001002055", "platform_name": "PLATAFORMA K", "snap_m": 34.67}, "geometry": {"type": "Point", "coordinates": [-78.65224661882854, -1.6701791957660954]}}, {"type": "Feature", "properties": {"nombre": "IESS", "categoria": "Administración Pública", "codigo": "060101001002055", "platform_name": "PLATAFORMA K", "snap_m": 40.47}, "geometry": {"type": "Point", "coordinates": [-78.6520753383724, -1.6705418607893217]}}, {"type": "Feature", "properties": {"nombre": "Hospital Geriatrico Ramiro Guerrero", "categoria": "Salud", "codigo": "060103001002030", "platform_name": "PLATAFORMA K", "snap_m": 39.92}, "geometry": {"type": "Point", "coordinates": [-78.64947742120002, -1.6705081441788212]}}, {"type": "Feature", "properties": {"nombre": "Baterias Sanitarias", "categoria": "Infraestructura", "codigo": "060103001002029", "platform_name": "PLATAFORMA K", "snap_m": 26.39}, "geometry": {"type": "Point", "coordinates": [-78.65004801892442, -1.6704790191130319]}}, {"type": "Feature", "properties": {"nombre": "Estacionamientos", "categoria": "Transporte", "codigo": "060103001002038", "platform_name": "PLATAFORMA K", "snap_m": 44.13}, "geometry": {"type": "Point", "coordinates": [-78.65115723098928, -1.6701518955762364]}}, {"type": "Feature", "properties": {"nombre": "Estacionamiento GADPCH", "categoria": "Transporte", "codigo": "060101001002057", "platform_name": "PLATAFORMA K", "snap_m": 37.15}, "geometry": {"type": "Point", "coordinates": [-78.65088933424462, -1.6714443649502275]}}, {"type": "Feature", "properties": {"nombre": "Estacionamientos", "categoria": "Transporte", "codigo": "060101001002086", "platform_name": "PLATAFORMA K", "snap_m": 37.72}, "geometry": {"type": "Point", "coordinates": [-78.65257432636055, -1.6730412733930011]}}, {"type": "Feature", "properties": {"nombre": "Estacionamientos", "categoria": "Transporte", "codigo": "060101003003003", "platform_name": "PLATAFORMA K", "snap_m": 17.84}, "geometry": {"type": "Point", "coordinates": [-78.65178270177044, -1.674300343828389]}}, {"type": "Feature", "properties": {"nombre": "Estacionamientos", "categoria": "Transporte", "codigo": "060101001002084", "platform_name": "PLATAFORMA K", "snap_m": 21.02}, "geometry": {"type": "Point", "coordinates": [-78.65160602914543, -1.6740891896064123]}}, {"type": "Feature", "properties": {"nombre": "Estacionamientos", "categoria": "Transporte", "codigo": "060101001002084", "platform_name": "PLATAFORMA K", "snap_m": 41.65}, "geometry": {"type": "Point", "coordinates": [-78.6511474403676, -1.6741626699125929]}}, {"type": "Feature", "properties": {"nombre": "Subcentro de Salud Municipal", "categoria": "Salud", "codigo": "060101003003002", "platform_name": "PLATAFORMA K", "snap_m": 37.67}, "geometry": {"type": "Point", "coordinates": [-78.65227990959676, -1.6743380477702843]}}, {"type": "Feature", "properties": {"nombre": "Estacionamientos", "categoria": "Transporte", "codigo": "060101001002084", "platform_name": "PLATAFORMA K", "snap_m": 13.56}, "geometry": {"type": "Point", "coordinates": [-78.65091616093471, -1.6740297392402372]}}, {"type": "Feature", "properties": {"nombre": "Universidad de la casa Velez", "categoria": "Educación", "codigo": "060104001001026", "platform_name": "PLATAFORMA K", "snap_m": 43.11}, "geometry": {"type": "Point", "coordinates": [-78.64879487720384, -1.6734643192659227]}}, {"type": "Feature", "properties": {"nombre": "La Catedral y palacio Arsobispal", "categoria": "Religioso", "codigo": "060102001001014", "platform_name": "PLATAFORMA K", "snap_m": 41.89}, "geometry": {"type": "Point", "coordinates": [-78.64781105577316, -1.672194700121309]}}, {"type": "Feature", "properties": {"nombre": "SRI", "categoria": "Administración Pública", "codigo": "060103001002034", "platform_name": "PLATAFORMA K", "snap_m": 22.41}, "geometry": {"type": "Point", "coordinates": [-78.64881384093951, -1.6725356253608332]}}, {"type": "Feature", "properties": {"nombre": "Gobernación", "categoria": "Administración Pública", "codigo": "060102001001025", "platform_name": "PLATAFORMA K", "snap_m": 22.54}, "geometry": {"type": "Point", "coordinates": [-78.64796686701686, -1.673228775295377]}}, {"type": "Feature", "properties": {"nombre": "CNT", "categoria": "Administración Pública", "codigo": "060102001001025", "platform_name": "PLATAFORMA K", "snap_m": 19.29}, "geometry": {"type": "Point", "coordinates": [-78.64744251869391, -1.673254189512454]}}, {"type": "Feature", "properties": {"nombre": "BANECUADOR", "categoria": "Administración Pública", "codigo": "060104001001027", "platform_name": "PLATAFORMA K", "snap_m": 42.92}, "geometry": {"type": "Point", "coordinates": [-78.64809933912952, -1.6736361972828164]}}, {"type": "Feature", "properties": {"nombre": "Cuerpo de Bomberos", "categoria": "Administración Pública", "codigo": "060102001001005", "platform_name": "PLATAFORMA O", "snap_m": 38.13}, "geometry": {"type": "Point", "coordinates": [-78.64423165518123, -1.6735383563576236]}}, {"type": "Feature", "properties": {"nombre": "Teatro León", "categoria": "Cultural", "codigo": "060101001002057", "platform_name": "PLATAFORMA K", "snap_m": 21.36}, "geometry": {"type": "Point", "coordinates": [-78.65072624339174, -1.671286197207603]}}, {"type": "Feature", "properties": {"nombre": "", "categoria": "Recreativo y Deporte", "codigo": "", "platform_name": "PLATAFORMA N", "snap_m": 39.8}, "geometry": {"type": "Point", "coordinates": [-78.66521279245134, -1.6848082482704543]}}, {"type": "Feature", "properties": {"nombre": "Parque Barrio la Piscina", "categoria": "Recreativo y Deporte", "codigo": "060105008003066", "platform_name": "PLATAFORMA N", "snap_m": 28.07}, "geometry": {"type": "Point", "coordinates": [-78.6791028772044, -1.6898731345045768]}}, {"type": "Feature", "properties": {"nombre": "Parque Monseñor Leonidas Proaño", "categoria": "Recreativo y Deporte", "codigo": "060104007003002", "platform_name": "PLATAFORMA P", "snap_m": 150.49}, "geometry": {"type": "Point", "coordinates": [-78.64794956463112, -1.6901959857069402]}}, {"type": "Feature", "properties": {"nombre": "", "categoria": "Recreativo y Deporte", "codigo": "", "platform_name": "PLATAFORMA N", "snap_m": 14.81}, "geometry": {"type": "Point", "coordinates": [-78.66266862431706, -1.6835399083013622]}}, {"type": "Feature", "properties": {"nombre": "Área verde barrio la Tarazano", "categoria": "Recreativo y Deporte", "codigo": "", "platform_name": "PLATAFORMA N", "snap_m": 31.77}, "geometry": {"type": "Point", "coordinates": [-78.66299320525525, -1.6838627717278758]}}, {"type": "Feature", "properties": {"nombre": "Iglesia de Yaruquies", "categoria": "Religioso", "codigo": "060105008003041", "platform_name": "PLATAFORMA N", "snap_m": 38.22}, "geometry": {"type": "Point", "coordinates": [-78.67636301068077, -1.6896030791191747]}}, {"type": "Feature", "properties": {"nombre": "Parque Central", "categoria": "Recreativo y Deporte", "codigo": "060105008003034", "platform_name": "PLATAFORMA N", "snap_m": 2.63}, "geometry": {"type": "Point", "coordinates": [-78.67587396307601, -1.6890370508018684]}}, {"type": "Feature", "properties": {"nombre": "Cementerio de Yaruquies", "categoria": "Servicios Funerarios", "codigo": "060105008003067", "platform_name": "PLATAFORMA N", "snap_m": 46.63}, "geometry": {"type": "Point", "coordinates": [-78.67961899813791, -1.6902996498274034]}}, {"type": "Feature", "properties": {"nombre": "UE Yaruquies", "categoria": "Educación", "codigo": "060105008003018", "platform_name": "PLATAFORMA N", "snap_m": 47.28}, "geometry": {"type": "Point", "coordinates": [-78.67484823254196, -1.6890913320600405]}}, {"type": "Feature", "properties": {"nombre": "Estación de servicios", "categoria": "Comercio Zonal", "codigo": "060104007003049", "platform_name": "PLATAFORMA P", "snap_m": 17.89}, "geometry": {"type": "Point", "coordinates": [-78.64573697359953, -1.6861488266535378]}}, {"type": "Feature", "properties": {"nombre": "Parque Monseñor Leonidas Proaño", "categoria": "Recreativo y Deporte", "codigo": "060104007003023", "platform_name": "PLATAFORMA P", "snap_m": 38.1}, "geometry": {"type": "Point", "coordinates": [-78.64978440096007, -1.6872438348354322]}}, {"type": "Feature", "properties": {"nombre": "Parque Balcon del Valle", "categoria": "Recreativo y Deporte", "codigo": "060104007003042", "platform_name": "PLATAFORMA P", "snap_m": 37.99}, "geometry": {"type": "Point", "coordinates": [-78.64753131794038, -1.6879955960102424]}}, {"type": "Feature", "properties": {"nombre": "Parque San Antonio de Yaruquies", "categoria": "Recreativo y Deporte", "codigo": "060105008003003", "platform_name": "PLATAFORMA N", "snap_m": 27.21}, "geometry": {"type": "Point", "coordinates": [-78.67953979096606, -1.6846376574871265]}}, {"type": "Feature", "properties": {"nombre": "Centro bilingue", "categoria": "Educación", "codigo": "060105008003074", "platform_name": "PLATAFORMA N", "snap_m": 37.57}, "geometry": {"type": "Point", "coordinates": [-78.67630563515175, -1.6939786588975974]}}, {"type": "Feature", "properties": {"nombre": "Terminal Interparroquial", "categoria": "Transporte", "codigo": "060105008003036", "platform_name": "PLATAFORMA N", "snap_m": 85.47}, "geometry": {"type": "Point", "coordinates": [-78.67831568212675, -1.6842036157761051]}}, {"type": "Feature", "properties": {"nombre": "Cuerpo de Bomberos", "categoria": "Seguridad", "codigo": "060105008003013", "platform_name": "PLATAFORMA N", "snap_m": 38.59}, "geometry": {"type": "Point", "coordinates": [-78.67383364363587, -1.6890495199181221]}}, {"type": "Feature", "properties": {"nombre": "Centro Cultural", "categoria": "Cultural", "codigo": "060105008003078", "platform_name": "PLATAFORMA N", "snap_m": 14.24}, "geometry": {"type": "Point", "coordinates": [-78.6749998458641, -1.693220972629187]}}, {"type": "Feature", "properties": {"nombre": "Mercado", "categoria": "Comercio Zonal", "codigo": "060105008003080", "platform_name": "PLATAFORMA N", "snap_m": 41.25}, "geometry": {"type": "Point", "coordinates": [-78.6741691390791, -1.6907069649874351]}}, {"type": "Feature", "properties": {"nombre": "Estadio AFNACH", "categoria": "Recreativo y Deporte", "codigo": "060101008002001", "platform_name": "PLATAFORMA N", "snap_m": 89.92}, "geometry": {"type": "Point", "coordinates": [-78.67270007435809, -1.6856990676502954]}}, {"type": "Feature", "properties": {"nombre": "UE George Washintong", "categoria": "Educación", "codigo": "060104008001001", "platform_name": "PLATAFORMA N", "snap_m": 26.81}, "geometry": {"type": "Point", "coordinates": [-78.66806259782769, -1.6842864819628405]}}, {"type": "Feature", "properties": {"nombre": "UE Mercedes de Jesús Molina", "categoria": "Educación", "codigo": "060104007003036", "platform_name": "PLATAFORMA P", "snap_m": 94.92}, "geometry": {"type": "Point", "coordinates": [-78.64460588377308, -1.6878351634999507]}}, {"type": "Feature", "properties": {"nombre": "Área verde", "categoria": "Recreativo y Deporte", "codigo": "060104007003029", "platform_name": "PLATAFORMA P", "snap_m": 39.13}, "geometry": {"type": "Point", "coordinates": [-78.64594823609141, -1.6877903771771945]}}, {"type": "Feature", "properties": {"nombre": "Área Verde", "categoria": "Recreativo y Deporte", "codigo": "060104007003049", "platform_name": "PLATAFORMA P", "snap_m": 14.68}, "geometry": {"type": "Point", "coordinates": [-78.64596406499425, -1.6861890787188223]}}, {"type": "Feature", "properties": {"nombre": "Tubasec", "categoria": "Industrial MI-BI", "codigo": "060102006004062", "platform_name": "PLATAFORMA Q", "snap_m": 55.91}, "geometry": {"type": "Point", "coordinates": [-78.62973169568673, -1.6905805348545477]}}, {"type": "Feature", "properties": {"nombre": "Parque Industrial", "categoria": "Industrial MI-BI", "codigo": "060102006006001", "platform_name": "PLATAFORMA Q", "snap_m": 33.49}, "geometry": {"type": "Point", "coordinates": [-78.63088441038119, -1.686554106752725]}}, {"type": "Feature", "properties": {"nombre": "Parque Industrial", "categoria": "Industrial MI-BI", "codigo": "060102006006003", "platform_name": "PLATAFORMA Q", "snap_m": 56.05}, "geometry": {"type": "Point", "coordinates": [-78.6320339910545, -1.6852494633850654]}}, {"type": "Feature", "properties": {"nombre": "Parque Industrial", "categoria": "Industrial MI-BI", "codigo": "060102006006001", "platform_name": "PLATAFORMA Q", "snap_m": 49.59}, "geometry": {"type": "Point", "coordinates": [-78.63442855813216, -1.6851126522552782]}}, {"type": "Feature", "properties": {"nombre": "Mercado Zonal", "categoria": "Comercio Zonal", "codigo": "060102006006001", "platform_name": "PLATAFORMA Q", "snap_m": 40.56}, "geometry": {"type": "Point", "coordinates": [-78.63307300891384, -1.685762930797908]}}, {"type": "Feature", "properties": {"nombre": "Área recreativa del barrio Bolibar Chiriboga", "categoria": "Recreativo y Deporte", "codigo": "060102006006025", "platform_name": "PLATAFORMA Q", "snap_m": 33.2}, "geometry": {"type": "Point", "coordinates": [-78.63359947429228, -1.683318471111273]}}, {"type": "Feature", "properties": {"nombre": "Parque Industrial", "categoria": "Industrial MI-BI", "codigo": "060102006006004", "platform_name": "PLATAFORMA Q", "snap_m": 6.15}, "geometry": {"type": "Point", "coordinates": [-78.63178973999811, -1.6839122449724673]}}, {"type": "Feature", "properties": {"nombre": "Casa barrial y área recreativa", "categoria": "Recreativo y Deporte", "codigo": "060102006007032", "platform_name": "PLATAFORMA Q", "snap_m": 32.36}, "geometry": {"type": "Point", "coordinates": [-78.63556489187728, -1.6828804211682802]}}, {"type": "Feature", "properties": {"nombre": "Parque Industrial", "categoria": "Industrial MI-BI", "codigo": "060102006006005", "platform_name": "PLATAFORMA Q", "snap_m": 92.02}, "geometry": {"type": "Point", "coordinates": [-78.63129918430805, -1.682660916016559]}}, {"type": "Feature", "properties": {"nombre": "Área recreativa de la Fausto Molina", "categoria": "Recreativo y Deporte", "codigo": "060102006007040", "platform_name": "PLATAFORMA Q", "snap_m": 22.44}, "geometry": {"type": "Point", "coordinates": [-78.63461487931814, -1.6820632367184767]}}, {"type": "Feature", "properties": {"nombre": "Áreas verdes", "categoria": "Recreativo y Deporte", "codigo": "", "platform_name": "PLATAFORMA Q", "snap_m": 22.1}, "geometry": {"type": "Point", "coordinates": [-78.63594580840916, -1.6813866832409703]}}, {"type": "Feature", "properties": {"nombre": "Parque Industrial", "categoria": "Industrial MI-BI", "codigo": "060102006004019", "platform_name": "PLATAFORMA Q", "snap_m": 45.51}, "geometry": {"type": "Point", "coordinates": [-78.62966775613357, -1.6823532336147524]}}, {"type": "Feature", "properties": {"nombre": "Área verde e iglesia de Pucará", "categoria": "Recreativo y Deporte", "codigo": "060102006007013", "platform_name": "PLATAFORMA Q", "snap_m": 36.68}, "geometry": {"type": "Point", "coordinates": [-78.63651099774295, -1.6811860447852474]}}, {"type": "Feature", "properties": {"nombre": "Parque Industrial", "categoria": "Industrial MI-BI", "codigo": "060102006006006", "platform_name": "PLATAFORMA Q", "snap_m": 49.61}, "geometry": {"type": "Point", "coordinates": [-78.63149678035728, -1.6811511356307016]}}, {"type": "Feature", "properties": {"nombre": "UE Carlos Cisneros", "categoria": "Educación", "codigo": "060102006007004", "platform_name": "PLATAFORMA Q", "snap_m": 44.04}, "geometry": {"type": "Point", "coordinates": [-78.63707843420048, -1.6801488679102285]}}, {"type": "Feature", "properties": {"nombre": "", "categoria": "Industrial MI-BI", "codigo": "060102006006007", "platform_name": "PLATAFORMA Q", "snap_m": 70.93}, "geometry": {"type": "Point", "coordinates": [-78.63130532243702, -1.6798827307353545]}}, {"type": "Feature", "properties": {"nombre": "Jefatra de policia N5", "categoria": "Seguridad", "codigo": "060102006007002", "platform_name": "PLATAFORMA Q", "snap_m": 8.99}, "geometry": {"type": "Point", "coordinates": [-78.63921505274217, -1.6798100158681992]}}, {"type": "Feature", "properties": {"nombre": "Parque Industrial", "categoria": "Industrial MI-BI", "codigo": "060102006006011", "platform_name": "PLATAFORMA Q", "snap_m": 35.7}, "geometry": {"type": "Point", "coordinates": [-78.63487048666092, -1.6789707115201917]}}, {"type": "Feature", "properties": {"nombre": "Parque Industrial", "categoria": "Industrial MI-BI", "codigo": "060102006006008", "platform_name": "PLATAFORMA Q", "snap_m": 60.2}, "geometry": {"type": "Point", "coordinates": [-78.63048047805393, -1.6787774673576967]}}, {"type": "Feature", "properties": {"nombre": "Parque Industrial", "categoria": "Industrial MI-BI", "codigo": "060102006006009", "platform_name": "PLATAFORMA Q", "snap_m": 74.22}, "geometry": {"type": "Point", "coordinates": [-78.63143282653752, -1.6778194000205902]}}, {"type": "Feature", "properties": {"nombre": "", "categoria": "Bienestar Social", "codigo": "060102006006012", "platform_name": "PLATAFORMA O", "snap_m": 42.11}, "geometry": {"type": "Point", "coordinates": [-78.63703335506058, -1.676805789485706]}}, {"type": "Feature", "properties": {"nombre": "UE Juan Bernardo de León", "categoria": "Educación", "codigo": "060102002001050", "platform_name": "PLATAFORMA O", "snap_m": 41.8}, "geometry": {"type": "Point", "coordinates": [-78.64036943508289, -1.67617891027973]}}, {"type": "Feature", "properties": {"nombre": "Centro de Educacion Inicial Alfredo Costales", "categoria": "Educación", "codigo": "060102002001051", "platform_name": "PLATAFORMA O", "snap_m": 40.87}, "geometry": {"type": "Point", "coordinates": [-78.64059813755495, -1.675510337889365]}}, {"type": "Feature", "properties": {"nombre": "IST Carlos Cisneros", "categoria": "Educación", "codigo": "060102006006010", "platform_name": "PLATAFORMA O", "snap_m": 26.87}, "geometry": {"type": "Point", "coordinates": [-78.6345104049341, -1.675787900660192]}}, {"type": "Feature", "properties": {"nombre": "Parque de la Madre", "categoria": "Recreativo y Deporte", "codigo": "060102002001023", "platform_name": "PLATAFORMA O", "snap_m": 44.48}, "geometry": {"type": "Point", "coordinates": [-78.63871262806073, -1.674225187569397]}}, {"type": "Feature", "properties": {"nombre": "Canchas de Bellavista", "categoria": "Recreativo y Deporte", "codigo": "060102002001014", "platform_name": "PLATAFORMA O", "snap_m": 52.66}, "geometry": {"type": "Point", "coordinates": [-78.63816735042184, -1.673693652691842]}}, {"type": "Feature", "properties": {"nombre": "UE Nasareno", "categoria": "Educación", "codigo": "060102002001020", "platform_name": "PLATAFORMA O", "snap_m": 41.24}, "geometry": {"type": "Point", "coordinates": [-78.64060738767826, -1.6727522588237744]}}, {"type": "Feature", "properties": {"nombre": "UE Juan de Velasco", "categoria": "Educación", "codigo": "060102002006073", "platform_name": "PLATAFORMA O", "snap_m": 68.72}, "geometry": {"type": "Point", "coordinates": [-78.63726246292262, -1.6716641698177934]}}, {"type": "Feature", "properties": {"nombre": "IT Teodoro Rusbelt", "categoria": "Educación", "codigo": "060102002006070", "platform_name": "PLATAFORMA O", "snap_m": 26.87}, "geometry": {"type": "Point", "coordinates": [-78.63806392525689, -1.669665928163673]}}, {"type": "Feature", "properties": {"nombre": "Áreas verdes", "categoria": "Recreativo y Deporte", "codigo": "060102006004078", "platform_name": "PLATAFORMA O", "snap_m": 25.67}, "geometry": {"type": "Point", "coordinates": [-78.636086143429, -1.6685317152162966]}}, {"type": "Feature", "properties": {"nombre": "Áreas verdes", "categoria": "Recreativo y Deporte", "codigo": "060102006003050", "platform_name": "PLATAFORMA O", "snap_m": 36.21}, "geometry": {"type": "Point", "coordinates": [-78.63660779464516, -1.6660026776830468]}}, {"type": "Feature", "properties": {"nombre": "Áreas verdes", "categoria": "Recreativo y Deporte", "codigo": "060102006003003", "platform_name": "PLATAFORMA O", "snap_m": 20.76}, "geometry": {"type": "Point", "coordinates": [-78.63788735601347, -1.664785524447188]}}, {"type": "Feature", "properties": {"nombre": "Área verde de Los Laureles", "categoria": "Recreativo y Deporte", "codigo": "060102006004072", "platform_name": "PLATAFORMA Q", "snap_m": 42.52}, "geometry": {"type": "Point", "coordinates": [-78.6278100181541, -1.6786485630207928]}}, {"type": "Feature", "properties": {"nombre": "Áreas verdes", "categoria": "Recreativo y Deporte", "codigo": "", "platform_name": "PLATAFORMA Q", "snap_m": 12.25}, "geometry": {"type": "Point", "coordinates": [-78.63513997153285, -1.6816346518678738]}}, {"type": "Feature", "properties": {"nombre": "Áreas verdes", "categoria": "Recreativo y Deporte", "codigo": "", "platform_name": "PLATAFORMA Q", "snap_m": 21.08}, "geometry": {"type": "Point", "coordinates": [-78.63491975477925, -1.6813951159148401]}}, {"type": "Feature", "properties": {"nombre": "Áreas verdes", "categoria": "Recreativo y Deporte", "codigo": "", "platform_name": "PLATAFORMA Q", "snap_m": 6.88}, "geometry": {"type": "Point", "coordinates": [-78.63509717288753, -1.6811794720774635]}}, {"type": "Feature", "properties": {"nombre": "Áreas verdes", "categoria": "Recreativo y Deporte", "codigo": "", "platform_name": "PLATAFORMA Q", "snap_m": 8.43}, "geometry": {"type": "Point", "coordinates": [-78.63540677180849, -1.681783867996558]}}, {"type": "Feature", "properties": {"nombre": "Áreas verdes", "categoria": "Recreativo y Deporte", "codigo": "", "platform_name": "PLATAFORMA Q", "snap_m": 9.16}, "geometry": {"type": "Point", "coordinates": [-78.63564157174514, -1.681709277524458]}}, {"type": "Feature", "properties": {"nombre": "Áreas verdes", "categoria": "Recreativo y Deporte", "codigo": "", "platform_name": "PLATAFORMA Q", "snap_m": 18.8}, "geometry": {"type": "Point", "coordinates": [-78.63535564502118, -1.679656241948158]}}, {"type": "Feature", "properties": {"nombre": "Áreas verdes", "categoria": "Recreativo y Deporte", "codigo": "", "platform_name": "PLATAFORMA Q", "snap_m": 10.87}, "geometry": {"type": "Point", "coordinates": [-78.63504450526935, -1.679837036035023]}}, {"type": "Feature", "properties": {"nombre": "Áreas verdes", "categoria": "Recreativo y Deporte", "codigo": "", "platform_name": "PLATAFORMA Q", "snap_m": 12.15}, "geometry": {"type": "Point", "coordinates": [-78.63488179349767, -1.6798774051082652]}}, {"type": "Feature", "properties": {"nombre": "Áreas verdes", "categoria": "Recreativo y Deporte", "codigo": "", "platform_name": "PLATAFORMA Q", "snap_m": 19.26}, "geometry": {"type": "Point", "coordinates": [-78.63436057738951, -1.6799094259686544]}}, {"type": "Feature", "properties": {"nombre": "Áreas verdes", "categoria": "Recreativo y Deporte", "codigo": "060102006005060", "platform_name": "PLATAFORMA O", "snap_m": 21.59}, "geometry": {"type": "Point", "coordinates": [-78.6357223995779, -1.6722566453533636]}}, {"type": "Feature", "properties": {"nombre": "Parque Industrial", "categoria": "Industrial MI-BI", "codigo": "060102006005001", "platform_name": "PLATAFORMA O", "snap_m": 13.24}, "geometry": {"type": "Point", "coordinates": [-78.63300264652236, -1.6763228685977598]}}, {"type": "Feature", "properties": {"nombre": "Parque Industrial", "categoria": "Industrial MI-BI", "codigo": "060102006006010", "platform_name": "PLATAFORMA Q", "snap_m": 72.45}, "geometry": {"type": "Point", "coordinates": [-78.63264909936368, -1.6770917764815456]}}, {"type": "Feature", "properties": {"nombre": "Parque Industrial", "categoria": "Industrial MI-BI", "codigo": "060102006006010", "platform_name": "PLATAFORMA Q", "snap_m": 91.56}, "geometry": {"type": "Point", "coordinates": [-78.63546518471551, -1.677785263827223]}}, {"type": "Feature", "properties": {"nombre": "Parque Industrial", "categoria": "Industrial MI-BI", "codigo": "060102006006012", "platform_name": "PLATAFORMA Q", "snap_m": 34.54}, "geometry": {"type": "Point", "coordinates": [-78.63710687717935, -1.6774432925330134]}}, {"type": "Feature", "properties": {"nombre": "Parque Industrial", "categoria": "Industrial MI-BI", "codigo": "060102006006016", "platform_name": "PLATAFORMA Q", "snap_m": 38.22}, "geometry": {"type": "Point", "coordinates": [-78.63741096881844, -1.6786119826420296]}}, {"type": "Feature", "properties": {"nombre": "Parque Industrial", "categoria": "Industrial MI-BI", "codigo": "060102006006015", "platform_name": "PLATAFORMA Q", "snap_m": 38.24}, "geometry": {"type": "Point", "coordinates": [-78.63725561178815, -1.6780098420476328]}}, {"type": "Feature", "properties": {"nombre": "Área Verde", "categoria": "Recreativo y Deporte", "codigo": "060102006004019", "platform_name": "PLATAFORMA Q", "snap_m": 16.41}, "geometry": {"type": "Point", "coordinates": [-78.62844307437493, -1.682097425510882]}}, {"type": "Feature", "properties": {"nombre": "Parque Industrial", "categoria": "Industrial MI-BI", "codigo": "060102006004041", "platform_name": "PLATAFORMA Q", "snap_m": 30.64}, "geometry": {"type": "Point", "coordinates": [-78.62981669047275, -1.6847307121254953]}}, {"type": "Feature", "properties": {"nombre": "Parque Industrial", "categoria": "Industrial MI-BI", "codigo": "060102006004048", "platform_name": "PLATAFORMA Q", "snap_m": 31.23}, "geometry": {"type": "Point", "coordinates": [-78.62994114734705, -1.6857393876239541]}}, {"type": "Feature", "properties": {"nombre": "UE Davinci", "categoria": "Educación", "codigo": "060102006003075", "platform_name": "PLATAFORMA O", "snap_m": 22.99}, "geometry": {"type": "Point", "coordinates": [-78.63782505023505, -1.6682489058520074]}}, {"type": "Feature", "properties": {"nombre": "Casa Comunal Quintul", "categoria": "Cultural", "codigo": "060102006004092", "platform_name": "PLATAFORMA O", "snap_m": 45.24}, "geometry": {"type": "Point", "coordinates": [-78.6307423474531, -1.6737547248564975]}}, {"type": "Feature", "properties": {"nombre": "Estación de servicios", "categoria": "Comercio Zonal", "codigo": "060102006003015", "platform_name": "PLATAFORMA O", "snap_m": 3.84}, "geometry": {"type": "Point", "coordinates": [-78.63998742021624, -1.6636015849002384]}}, {"type": "Feature", "properties": {"nombre": "Áreas verdes", "categoria": "Recreativo y Deporte", "codigo": "060102006003018", "platform_name": "PLATAFORMA O", "snap_m": 43.81}, "geometry": {"type": "Point", "coordinates": [-78.63775301695519, -1.6634099561188702]}}, {"type": "Feature", "properties": {"nombre": "Áreas verdes", "categoria": "Recreativo y Deporte", "codigo": "060102006003037", "platform_name": "PLATAFORMA O", "snap_m": 34.16}, "geometry": {"type": "Point", "coordinates": [-78.63473995065482, -1.6649961391452872]}}, {"type": "Feature", "properties": {"nombre": "Áreas verdes", "categoria": "Recreativo y Deporte", "codigo": "060102006004090", "platform_name": "PLATAFORMA O", "snap_m": 15.88}, "geometry": {"type": "Point", "coordinates": [-78.63597337717644, -1.6697852932829291]}}, {"type": "Feature", "properties": {"nombre": "Áreas verdes", "categoria": "Recreativo y Deporte", "codigo": "060102006004013", "platform_name": "PLATAFORMA O", "snap_m": 25.81}, "geometry": {"type": "Point", "coordinates": [-78.63468226641325, -1.6689371308966194]}}, {"type": "Feature", "properties": {"nombre": "Áreas verdes", "categoria": "Recreativo y Deporte", "codigo": "060102006004013", "platform_name": "PLATAFORMA O", "snap_m": 28.22}, "geometry": {"type": "Point", "coordinates": [-78.63512431694878, -1.6685920320178864]}}, {"type": "Feature", "properties": {"nombre": "Área verde", "categoria": "Recreativo y Deporte", "codigo": "060102002006073", "platform_name": "PLATAFORMA O", "snap_m": 18.92}, "geometry": {"type": "Point", "coordinates": [-78.63726743137549, -1.6706214061543259]}}, {"type": "Feature", "properties": {"nombre": "Escuela Luis Enrique Basante Larrea", "categoria": "Educación", "codigo": "060102002006068", "platform_name": "PLATAFORMA O", "snap_m": 11.65}, "geometry": {"type": "Point", "coordinates": [-78.63919310379768, -1.6713181278768041]}}, {"type": "Feature", "properties": {"nombre": "Área verde", "categoria": "Recreativo y Deporte", "codigo": "060102002006071", "platform_name": "PLATAFORMA O", "snap_m": 17.57}, "geometry": {"type": "Point", "coordinates": [-78.6375199499629, -1.670433566147853]}}, {"type": "Feature", "properties": {"nombre": "Áreas verdes", "categoria": "Recreativo y Deporte", "codigo": "060102006005073", "platform_name": "PLATAFORMA O", "snap_m": 15.55}, "geometry": {"type": "Point", "coordinates": [-78.63550013907894, -1.673064629438904]}}, {"type": "Feature", "properties": {"nombre": "Áreas verdes", "categoria": "Recreativo y Deporte", "codigo": "060102006005072", "platform_name": "PLATAFORMA O", "snap_m": 14.26}, "geometry": {"type": "Point", "coordinates": [-78.63507862778944, -1.6724950721894118]}}, {"type": "Feature", "properties": {"nombre": "Áreas verdes", "categoria": "Recreativo y Deporte", "codigo": "060102006005074", "platform_name": "PLATAFORMA O", "snap_m": 46.23}, "geometry": {"type": "Point", "coordinates": [-78.63498062340076, -1.673467644292928]}}, {"type": "Feature", "properties": {"nombre": "Áreas verdes", "categoria": "Recreativo y Deporte", "codigo": "060102006005076", "platform_name": "PLATAFORMA O", "snap_m": 21.65}, "geometry": {"type": "Point", "coordinates": [-78.63440606318771, -1.6735627385536804]}}, {"type": "Feature", "properties": {"nombre": "Áreas Verdes", "categoria": "Recreativo y Deporte", "codigo": "060102006005070", "platform_name": "PLATAFORMA O", "snap_m": 42.75}, "geometry": {"type": "Point", "coordinates": [-78.63290413522638, -1.6742265874310391]}}, {"type": "Feature", "properties": {"nombre": "Áreas Verdes", "categoria": "Recreativo y Deporte", "codigo": "060102006005010", "platform_name": "PLATAFORMA O", "snap_m": 40.94}, "geometry": {"type": "Point", "coordinates": [-78.63247408482876, -1.6744450315255364]}}, {"type": "Feature", "properties": {"nombre": "Áreas verdes", "categoria": "Recreativo y Deporte", "codigo": "060102006004004", "platform_name": "PLATAFORMA O", "snap_m": 20.33}, "geometry": {"type": "Point", "coordinates": [-78.6346704835149, -1.6710911394696017]}}, {"type": "Feature", "properties": {"nombre": "Áreas verdes", "categoria": "Recreativo y Deporte", "codigo": "060102006004033", "platform_name": "PLATAFORMA O", "snap_m": 17.29}, "geometry": {"type": "Point", "coordinates": [-78.63456900608281, -1.6716647122651778]}}, {"type": "Feature", "properties": {"nombre": "EMAPAR", "categoria": "Infraestructura", "codigo": "060102006004004", "platform_name": "PLATAFORMA O", "snap_m": 51.66}, "geometry": {"type": "Point", "coordinates": [-78.63229986029303, -1.672252081763248]}}, {"type": "Feature", "properties": {"nombre": "UE Especial", "categoria": "Educación", "codigo": "060102002001056", "platform_name": "PLATAFORMA O", "snap_m": 37.93}, "geometry": {"type": "Point", "coordinates": [-78.64236677084148, -1.6747106074369111]}}, {"type": "Feature", "properties": {"nombre": "British School", "categoria": "Educación", "codigo": "060102002001020", "platform_name": "PLATAFORMA O", "snap_m": 23.67}, "geometry": {"type": "Point", "coordinates": [-78.64009641395708, -1.6727269450838416]}}, {"type": "Feature", "properties": {"nombre": "Iglesia Mormona", "categoria": "Religioso", "codigo": "060102002001057", "platform_name": "PLATAFORMA O", "snap_m": 61.68}, "geometry": {"type": "Point", "coordinates": [-78.64171488175046, -1.6754855715682988]}}, {"type": "Feature", "properties": {"nombre": "Centro de Salud y UPC", "categoria": "Salud", "codigo": "060102002001024", "platform_name": "PLATAFORMA O", "snap_m": 26.05}, "geometry": {"type": "Point", "coordinates": [-78.63813593738848, -1.6744533147431362]}}, {"type": "Feature", "properties": {"nombre": "Parque zonal", "categoria": "Recreativo y Deporte", "codigo": "060102006006010", "platform_name": "PLATAFORMA O", "snap_m": 74.33}, "geometry": {"type": "Point", "coordinates": [-78.63565166405527, -1.6768712207464196]}}, {"type": "Feature", "properties": {"nombre": "Centro de Salud Riobamba Chambo", "categoria": "Salud", "codigo": "060102006006017", "platform_name": "PLATAFORMA Q", "snap_m": 61.38}, "geometry": {"type": "Point", "coordinates": [-78.63201405706796, -1.681920304514169]}}, {"type": "Feature", "properties": {"nombre": "Registro de la Propiedad", "categoria": "Administración Pública", "codigo": "060102002001076", "platform_name": "PLATAFORMA Q", "snap_m": 21.91}, "geometry": {"type": "Point", "coordinates": [-78.64129367671097, -1.6788251489033634]}}, {"type": "Feature", "properties": {"nombre": "EERSA", "categoria": "Administración Pública", "codigo": "060102006007001", "platform_name": "PLATAFORMA Q", "snap_m": 20.4}, "geometry": {"type": "Point", "coordinates": [-78.64104126751413, -1.6793484309418432]}}, {"type": "Feature", "properties": {"nombre": "Área recreativa Pucara", "categoria": "Recreativo y Deporte", "codigo": "060102006007004", "platform_name": "PLATAFORMA Q", "snap_m": 27.76}, "geometry": {"type": "Point", "coordinates": [-78.63760571934287, -1.679849214409553]}}, {"type": "Feature", "properties": {"nombre": "Direcciones Zonales", "categoria": "Administración Pública", "codigo": "060102006006003", "platform_name": "PLATAFORMA Q", "snap_m": 24.35}, "geometry": {"type": "Point", "coordinates": [-78.63220640863724, -1.6846505337873792]}}, {"type": "Feature", "properties": {"nombre": "Direcciones Zonales", "categoria": "Administración Pública", "codigo": "060102006004019", "platform_name": "PLATAFORMA Q", "snap_m": 59.88}, "geometry": {"type": "Point", "coordinates": [-78.62886570365012, -1.682097425510882]}}, {"type": "Feature", "properties": {"nombre": "UE Riobamba", "categoria": "Educación", "codigo": "060101004003039", "platform_name": "PLATAFORMA J", "snap_m": 44.59}, "geometry": {"type": "Point", "coordinates": [-78.66344814866599, -1.6601234105333984]}}, {"type": "Feature", "properties": {"nombre": "Parque de la Politecnica y UPC", "categoria": "Recreativo y Deporte", "codigo": "060104007004023", "platform_name": "PLATAFORMA P", "snap_m": 76.21}, "geometry": {"type": "Point", "coordinates": [-78.64121351720607, -1.6843014252274302]}}, {"type": "Feature", "properties": {"nombre": "UNACH", "categoria": "Educación", "codigo": "060104007004033", "platform_name": "PLATAFORMA P", "snap_m": 36.58}, "geometry": {"type": "Point", "coordinates": [-78.64053312694193, -1.681119820007301]}}, {"type": "Feature", "properties": {"nombre": "Área verde de Los Altares", "categoria": "Recreativo y Deporte", "codigo": "060104007004061", "platform_name": "PLATAFORMA P", "snap_m": 44.44}, "geometry": {"type": "Point", "coordinates": [-78.63447473369516, -1.68926413202888]}}, {"type": "Feature", "properties": {"nombre": "Área recreativa La Dolorosa", "categoria": "Recreativo y Deporte", "codigo": "060104003001018", "platform_name": "PLATAFORMA P", "snap_m": 27.57}, "geometry": {"type": "Point", "coordinates": [-78.64268987092541, -1.680316140423368]}}, {"type": "Feature", "properties": {"nombre": "Parque Abdón Calderón", "categoria": "Recreativo y Deporte", "codigo": "060104003001006", "platform_name": "PLATAFORMA P", "snap_m": 46.93}, "geometry": {"type": "Point", "coordinates": [-78.64174943171027, -1.679386071814462]}}, {"type": "Feature", "properties": {"nombre": "Polideportivo de Altorendimiento", "categoria": "Recreativo y Deporte", "codigo": "060104007005036", "platform_name": "PLATAFORMA P", "snap_m": 19.21}, "geometry": {"type": "Point", "coordinates": [-78.6414917077343, -1.6880853729403085]}}, {"type": "Feature", "properties": {"nombre": "UE Fernando Daquilema", "categoria": "Educación", "codigo": "060104007004056", "platform_name": "PLATAFORMA P", "snap_m": 75.15}, "geometry": {"type": "Point", "coordinates": [-78.63400995781788, -1.687670798571339]}}, {"type": "Feature", "properties": {"nombre": "Escuela Marianas de Jesús", "categoria": "Educación", "codigo": "060104007005001", "platform_name": "PLATAFORMA P", "snap_m": 78.66}, "geometry": {"type": "Point", "coordinates": [-78.64281334661277, -1.690819516328982]}}, {"type": "Feature", "properties": {"nombre": "Escuela Marianas de Jesús", "categoria": "Educación", "codigo": "060104007005019", "platform_name": "PLATAFORMA P", "snap_m": 19.94}, "geometry": {"type": "Point", "coordinates": [-78.64292739599301, -1.6899147374600183]}}, {"type": "Feature", "properties": {"nombre": "Inst Cantonal de Protección y Bienestar Animal", "categoria": "Especial", "codigo": "060104007005036", "platform_name": "PLATAFORMA P", "snap_m": 54.78}, "geometry": {"type": "Point", "coordinates": [-78.64018587710999, -1.6882901665429095]}}, {"type": "Feature", "properties": {"nombre": "Terminal Interparroquial Sur", "categoria": "Transporte", "codigo": "060104007005028", "platform_name": "PLATAFORMA P", "snap_m": 86.87}, "geometry": {"type": "Point", "coordinates": [-78.6404599421877, -1.6914786191403475]}}, {"type": "Feature", "properties": {"nombre": "Mercado San Rafael", "categoria": "Comercio Zonal", "codigo": "060104007004047", "platform_name": "PLATAFORMA P", "snap_m": 30.13}, "geometry": {"type": "Point", "coordinates": [-78.63826937807724, -1.6865841857052244]}}, {"type": "Feature", "properties": {"nombre": "Áreas verdes", "categoria": "Recreativo y Deporte", "codigo": "060101004005002", "platform_name": "PLATAFORMA J", "snap_m": 103.34}, "geometry": {"type": "Point", "coordinates": [-78.66786529600589, -1.669051527736115]}}, {"type": "Feature", "properties": {"nombre": "MAGAP", "categoria": "Administración Pública", "codigo": "060101004005001", "platform_name": "PLATAFORMA J", "snap_m": 45.98}, "geometry": {"type": "Point", "coordinates": [-78.66540431966807, -1.6714401954965699]}}, {"type": "Feature", "properties": {"nombre": "Iglesia Mormona", "categoria": "Religioso", "codigo": "060101004010008", "platform_name": "PLATAFORMA J", "snap_m": 32.59}, "geometry": {"type": "Point", "coordinates": [-78.6646150397599, -1.6699896876838884]}}, {"type": "Feature", "properties": {"nombre": "SOLCA", "categoria": "Salud", "codigo": "060101004010004", "platform_name": "PLATAFORMA J", "snap_m": 28.14}, "geometry": {"type": "Point", "coordinates": [-78.66388981930399, -1.6685022766421242]}}, {"type": "Feature", "properties": {"nombre": "Parque de la URB San Luis", "categoria": "Recreativo y Deporte", "codigo": "060101004010015", "platform_name": "PLATAFORMA J", "snap_m": 36.5}, "geometry": {"type": "Point", "coordinates": [-78.66569930822644, -1.6693605753525254]}}, {"type": "Feature", "properties": {"nombre": "Plataforma Gubernamental y Cultural del GADM", "categoria": "Administración Pública", "codigo": "060101004010002", "platform_name": "PLATAFORMA J", "snap_m": 103.95}, "geometry": {"type": "Point", "coordinates": [-78.66594262445352, -1.667194896510087]}}, {"type": "Feature", "properties": {"nombre": "Área Verde Plaza Puruha", "categoria": "Recreativo y Deporte", "codigo": "060101003004019", "platform_name": "PLATAFORMA J", "snap_m": 18.8}, "geometry": {"type": "Point", "coordinates": [-78.66243530232722, -1.6671232851735611]}}, {"type": "Feature", "properties": {"nombre": "UE Edmundo Chiriboga", "categoria": "Educación", "codigo": "060101007001031", "platform_name": "PLATAFORMA J", "snap_m": 53.1}, "geometry": {"type": "Point", "coordinates": [-78.66231381733624, -1.6774362605316404]}}, {"type": "Feature", "properties": {"nombre": "GADPCH", "categoria": "Administración Pública", "codigo": "060101007001046", "platform_name": "PLATAFORMA J", "snap_m": 25.37}, "geometry": {"type": "Point", "coordinates": [-78.66439326642622, -1.6745195436415283]}}, {"type": "Feature", "properties": {"nombre": "Parque Bonilla Abarca", "categoria": "Recreativo y Deporte", "codigo": "060101003003030", "platform_name": "PLATAFORMA J", "snap_m": 42.98}, "geometry": {"type": "Point", "coordinates": [-78.65846881699251, -1.6737033972290727]}}, {"type": "Feature", "properties": {"nombre": "Escuela Leonidas Garcia", "categoria": "Educación", "codigo": "060101003003049", "platform_name": "PLATAFORMA J", "snap_m": 36.25}, "geometry": {"type": "Point", "coordinates": [-78.65625896130521, -1.676438422275941]}}, {"type": "Feature", "properties": {"nombre": "Asociación de Municipales", "categoria": "Administración Pública", "codigo": "060101003003064", "platform_name": "PLATAFORMA J", "snap_m": 35.49}, "geometry": {"type": "Point", "coordinates": [-78.65556914115386, -1.680377953898847]}}, {"type": "Feature", "properties": {"nombre": "Área Verde", "categoria": "Recreativo y Deporte", "codigo": "060101003004053", "platform_name": "PLATAFORMA J", "snap_m": 22.46}, "geometry": {"type": "Point", "coordinates": [-78.66022761983439, -1.6710620317221827]}}, {"type": "Feature", "properties": {"nombre": "UE La Providencia", "categoria": "Educación", "codigo": "060101003004060", "platform_name": "PLATAFORMA J", "snap_m": 59.5}, "geometry": {"type": "Point", "coordinates": [-78.66163785254528, -1.6729237655166762]}}, {"type": "Feature", "properties": {"nombre": "GADMR", "categoria": "Administración Pública", "codigo": "060101003004056", "platform_name": "PLATAFORMA J", "snap_m": 39.29}, "geometry": {"type": "Point", "coordinates": [-78.66232053374412, -1.6709573926532575]}}, {"type": "Feature", "properties": {"nombre": "Iglesia Las Carmelitas", "categoria": "Religioso", "codigo": "060101001003022", "platform_name": "PLATAFORMA J", "snap_m": 45.58}, "geometry": {"type": "Point", "coordinates": [-78.65498043846443, -1.6738214347830767]}}, {"type": "Feature", "properties": {"nombre": "Estadio Olímpico", "categoria": "Recreativo y Deporte", "codigo": "060101003004025", "platform_name": "PLATAFORMA J", "snap_m": 104.99}, "geometry": {"type": "Point", "coordinates": [-78.66020760907261, -1.6660340874382822]}}, {"type": "Feature", "properties": {"nombre": "Terminal de Tranferencia de Transporte Urbano", "categoria": "Transporte", "codigo": "060101003004004", "platform_name": "PLATAFORMA J", "snap_m": 48.69}, "geometry": {"type": "Point", "coordinates": [-78.6631871416748, -1.6630050307417554]}}, {"type": "Feature", "properties": {"nombre": "UE Nicanor Larrea", "categoria": "Educación", "codigo": "060101003004028", "platform_name": "PLATAFORMA J", "snap_m": 53.39}, "geometry": {"type": "Point", "coordinates": [-78.65690434222256, -1.6673043842194497]}}, {"type": "Feature", "properties": {"nombre": "Área Verde Plaza del Tren", "categoria": "Recreativo y Deporte", "codigo": "060101003004038", "platform_name": "PLATAFORMA J", "snap_m": 20.9}, "geometry": {"type": "Point", "coordinates": [-78.66112436164177, -1.6675310799476333]}}, {"type": "Feature", "properties": {"nombre": "Parque Guayaquil", "categoria": "Recreativo y Deporte", "codigo": "060101003004026", "platform_name": "PLATAFORMA J", "snap_m": 6.62}, "geometry": {"type": "Point", "coordinates": [-78.65882509530948, -1.6665395888111352]}}, {"type": "Feature", "properties": {"nombre": "Mercado La Condamine", "categoria": "Comercio Zonal", "codigo": "060101001003020", "platform_name": "PLATAFORMA J", "snap_m": 40.87}, "geometry": {"type": "Point", "coordinates": [-78.65646513903269, -1.673204133594912]}}, {"type": "Feature", "properties": {"nombre": "IESS", "categoria": "Salud", "codigo": "060101003004040", "platform_name": "PLATAFORMA J", "snap_m": 59.15}, "geometry": {"type": "Point", "coordinates": [-78.65976736280652, -1.6686945506298403]}}, {"type": "Feature", "properties": {"nombre": "Adminitrativo Público y cultural", "categoria": "Administración Pública", "codigo": "060101003004040", "platform_name": "PLATAFORMA J", "snap_m": 25.77}, "geometry": {"type": "Point", "coordinates": [-78.66037633785372, -1.6690099748943357]}}, {"type": "Feature", "properties": {"nombre": "Área verde de la Urb Calero", "categoria": "Recreativo y Deporte", "codigo": "060101003004040", "platform_name": "PLATAFORMA J", "snap_m": 31.7}, "geometry": {"type": "Point", "coordinates": [-78.66197952062791, -1.6692617932527996]}}, {"type": "Feature", "properties": {"nombre": "", "categoria": "Recreativo y Deporte", "codigo": "060101004005002", "platform_name": "PLATAFORMA J", "snap_m": 101.03}, "geometry": {"type": "Point", "coordinates": [-78.66780124783435, -1.6704142033054112]}}, {"type": "Feature", "properties": {"nombre": "MSP", "categoria": "Salud", "codigo": "060101004005001", "platform_name": "PLATAFORMA J", "snap_m": 7.3}, "geometry": {"type": "Point", "coordinates": [-78.66518926243936, -1.6718786952812217]}}, {"type": "Feature", "properties": {"nombre": "Unidad Forence", "categoria": "Servicios Funerarios", "codigo": "060101003003065", "platform_name": "PLATAFORMA J", "snap_m": 34.07}, "geometry": {"type": "Point", "coordinates": [-78.65605631058872, -1.6799546452762513]}}, {"type": "Feature", "properties": {"nombre": "Parque", "categoria": "Recreativo y Deporte", "codigo": "060101003003061", "platform_name": "PLATAFORMA J", "snap_m": 40.64}, "geometry": {"type": "Point", "coordinates": [-78.65657923966117, -1.6793148082418403]}}, {"type": "Feature", "properties": {"nombre": "Canchas", "categoria": "Recreativo y Deporte", "codigo": "060101003003060", "platform_name": "PLATAFORMA J", "snap_m": 32.75}, "geometry": {"type": "Point", "coordinates": [-78.65701690820401, -1.6787697095601302]}}, {"type": "Feature", "properties": {"nombre": "APRODVICH", "categoria": "Educación", "codigo": "060101003003026", "platform_name": "PLATAFORMA J", "snap_m": 37.4}, "geometry": {"type": "Point", "coordinates": [-78.65796789257328, -1.6769640339227614]}}, {"type": "Feature", "properties": {"nombre": "Dirección Municipal de Movilidad", "categoria": "Administración Pública", "codigo": "060102002006041", "platform_name": "PLATAFORMA O", "snap_m": 20.83}, "geometry": {"type": "Point", "coordinates": [-78.63880941533617, -1.6669326818660002]}}, {"type": "Feature", "properties": {"nombre": "Iglesia Comunidad Espiritu Santo", "categoria": "Religioso", "codigo": "060102002006030", "platform_name": "PLATAFORMA O", "snap_m": 31.85}, "geometry": {"type": "Point", "coordinates": [-78.63967772544017, -1.6652583026036365]}}, {"type": "Feature", "properties": {"nombre": "Parque de las Flores", "categoria": "Recreativo y Deporte", "codigo": "060102002002007", "platform_name": "PLATAFORMA O", "snap_m": 35.46}, "geometry": {"type": "Point", "coordinates": [-78.6409303161476, -1.6705337712395294]}}, {"type": "Feature", "properties": {"nombre": "UE La Salle", "categoria": "Educación", "codigo": "060103002003033", "platform_name": "PLATAFORMA K", "snap_m": 34.13}, "geometry": {"type": "Point", "coordinates": [-78.64656490778253, -1.6677751060333295]}}, {"type": "Feature", "properties": {"nombre": "Mercado General Dávalos", "categoria": "Comercio Zonal", "codigo": "060103002003030", "platform_name": "PLATAFORMA K", "snap_m": 53.1}, "geometry": {"type": "Point", "coordinates": [-78.6482729522343, -1.6656864038348997]}}, {"type": "Feature", "properties": {"nombre": "UE Miguel Ángel León", "categoria": "Educación", "codigo": "060103002003074", "platform_name": "PLATAFORMA K", "snap_m": 26.01}, "geometry": {"type": "Point", "coordinates": [-78.64568837424342, -1.6658401299758647]}}, {"type": "Feature", "properties": {"nombre": "UE Miguel Ángel León", "categoria": "Educación", "codigo": "060103002003006", "platform_name": "PLATAFORMA K", "snap_m": 62.71}, "geometry": {"type": "Point", "coordinates": [-78.64570565228456, -1.6650404653238933]}}, {"type": "Feature", "properties": {"nombre": "Parque Barriga", "categoria": "Recreativo y Deporte", "codigo": "060101001002046", "platform_name": "PLATAFORMA K", "snap_m": 43.59}, "geometry": {"type": "Point", "coordinates": [-78.6549320800286, -1.6669618169245646]}}, {"type": "Feature", "properties": {"nombre": "Escuela Martiano Guerrero", "categoria": "Educación", "codigo": "060103001002001", "platform_name": "PLATAFORMA K", "snap_m": 37.23}, "geometry": {"type": "Point", "coordinates": [-78.6533642851104, -1.6651254996385272]}}, {"type": "Feature", "properties": {"nombre": "Escuela Semillitas", "categoria": "Educación", "codigo": "060103002003040", "platform_name": "PLATAFORMA K", "snap_m": 39.4}, "geometry": {"type": "Point", "coordinates": [-78.64978685860575, -1.6654903597853872]}}, {"type": "Feature", "properties": {"nombre": "Mercado el Prado", "categoria": "Comercio Zonal", "codigo": "060103002003074", "platform_name": "PLATAFORMA K", "snap_m": 44.07}, "geometry": {"type": "Point", "coordinates": [-78.64419558913559, -1.666123799149129]}}, {"type": "Feature", "properties": {"nombre": "Parque del Barrio Pueblo Unido", "categoria": "Recreativo y Deporte", "codigo": "060102002006041", "platform_name": "PLATAFORMA O", "snap_m": 23.16}, "geometry": {"type": "Point", "coordinates": [-78.63837851608403, -1.6677594474250395]}}, {"type": "Feature", "properties": {"nombre": "Estacionamiento", "categoria": "Transporte", "codigo": "060102001001013", "platform_name": "PLATAFORMA K", "snap_m": 36.23}, "geometry": {"type": "Point", "coordinates": [-78.64713453128321, -1.6716726421218335]}}, {"type": "Feature", "properties": {"nombre": "MINEDUC", "categoria": "Educación", "codigo": "060101001003017", "platform_name": "PLATAFORMA J", "snap_m": 39.5}, "geometry": {"type": "Point", "coordinates": [-78.65800198320483, -1.6709975601319678]}}, {"type": "Feature", "properties": {"nombre": "Iglesia Belén", "categoria": "Religioso", "codigo": "060101003004043", "platform_name": "PLATAFORMA J", "snap_m": 31.89}, "geometry": {"type": "Point", "coordinates": [-78.65875028294977, -1.6702938201890674]}}, {"type": "Feature", "properties": {"nombre": "IESS", "categoria": "Bienestar Social", "codigo": "060101003004043", "platform_name": "PLATAFORMA J", "snap_m": 48.67}, "geometry": {"type": "Point", "coordinates": [-78.6586656597269, -1.6707528288339697]}}, {"type": "Feature", "properties": {"nombre": "Centro infantil San Martin", "categoria": "Bienestar Social", "codigo": "060101003004052", "platform_name": "PLATAFORMA J", "snap_m": 31.92}, "geometry": {"type": "Point", "coordinates": [-78.66057601599991, -1.6710746905283584]}}, {"type": "Feature", "properties": {"nombre": "Sede de Comerciantes Minoristas", "categoria": "Recreativo y Deporte", "codigo": "060101001003016", "platform_name": "PLATAFORMA J", "snap_m": 37.62}, "geometry": {"type": "Point", "coordinates": [-78.65791516639409, -1.670368535119761]}}, {"type": "Feature", "properties": {"nombre": "Camara de construcción", "categoria": "Administración Pública", "codigo": "060101003004050", "platform_name": "PLATAFORMA J", "snap_m": 14.22}, "geometry": {"type": "Point", "coordinates": [-78.66229464755219, -1.6702589984661775]}}, {"type": "Feature", "properties": {"nombre": "Dirección de educación bilingue de Chimborazo", "categoria": "Educación", "codigo": "060101003004050", "platform_name": "PLATAFORMA J", "snap_m": 35.93}, "geometry": {"type": "Point", "coordinates": [-78.66259963901686, -1.6700127747535487]}}, {"type": "Feature", "properties": {"nombre": "Sede de los Militares en servicio pasivo", "categoria": "Recreativo y Deporte", "codigo": "060103001002022", "platform_name": "PLATAFORMA K", "snap_m": 33.36}, "geometry": {"type": "Point", "coordinates": [-78.65443818800499, -1.6665698015815869]}}, {"type": "Feature", "properties": {"nombre": "Cemento Chimborazo", "categoria": "Administración Pública", "codigo": "060101002005054", "platform_name": "PLATAFORMA J", "snap_m": 58.54}, "geometry": {"type": "Point", "coordinates": [-78.65696762686932, -1.6657167412011225]}}, {"type": "Feature", "properties": {"nombre": "MIDUVI", "categoria": "Administración Pública", "codigo": "060101002005054", "platform_name": "PLATAFORMA J", "snap_m": 54.24}, "geometry": {"type": "Point", "coordinates": [-78.65699742772651, -1.6658662698724584]}}, {"type": "Feature", "properties": {"nombre": "Cemento Chimborazo", "categoria": "Administración Pública", "codigo": "060101002005054", "platform_name": "PLATAFORMA J", "snap_m": 40.1}, "geometry": {"type": "Point", "coordinates": [-78.65688827200435, -1.6659546005539552]}}, {"type": "Feature", "properties": {"nombre": "Iglesia Jesus Obrero", "categoria": "Religioso", "codigo": "060101007001002", "platform_name": "PLATAFORMA J", "snap_m": 43.83}, "geometry": {"type": "Point", "coordinates": [-78.66055048634784, -1.6759424639404492]}}, {"type": "Feature", "properties": {"nombre": "Cancha Jesús Obrero", "categoria": "Recreativo y Deporte", "codigo": "060101007001002", "platform_name": "PLATAFORMA J", "snap_m": 35.14}, "geometry": {"type": "Point", "coordinates": [-78.66070192510409, -1.67599046038244]}}, {"type": "Feature", "properties": {"nombre": "Centro de Comercio HyJ", "categoria": "Comercio Zonal", "codigo": "060101003003010", "platform_name": "PLATAFORMA J", "snap_m": 15.78}, "geometry": {"type": "Point", "coordinates": [-78.6529309504001, -1.6752512580739225]}}, {"type": "Feature", "properties": {"nombre": "Centro de Comercio HyJ", "categoria": "Comercio Zonal", "codigo": "060101003003011", "platform_name": "PLATAFORMA J", "snap_m": 41.67}, "geometry": {"type": "Point", "coordinates": [-78.65261205857101, -1.67558448022976]}}, {"type": "Feature", "properties": {"nombre": "Recreación pasiva", "categoria": "Recreativo y Deporte", "codigo": "060103002003009", "platform_name": "PLATAFORMA K", "snap_m": 27.22}, "geometry": {"type": "Point", "coordinates": [-78.6471222319413, -1.664542502565168]}}, {"type": "Feature", "properties": {"nombre": "UPC", "categoria": "Seguridad", "codigo": "060101003003030", "platform_name": "PLATAFORMA J", "snap_m": 27.96}, "geometry": {"type": "Point", "coordinates": [-78.65851912913573, -1.6739245569628993]}}, {"type": "Feature", "properties": {"nombre": "Jardin 21 de Abril", "categoria": "Educación", "codigo": "060101001003032", "platform_name": "PLATAFORMA J", "snap_m": 33.46}, "geometry": {"type": "Point", "coordinates": [-78.65819742458115, -1.6733269481997626]}}, {"type": "Feature", "properties": {"nombre": "AKI", "categoria": "Comercio Zonal", "codigo": "060101003004027", "platform_name": "PLATAFORMA J", "snap_m": 35.0}, "geometry": {"type": "Point", "coordinates": [-78.65798368029729, -1.666518517765644]}}, {"type": "Feature", "properties": {"nombre": "Centro de Arte y Cultura Municipal", "categoria": "Administración Pública", "codigo": "060101003004027", "platform_name": "PLATAFORMA J", "snap_m": 35.1}, "geometry": {"type": "Point", "coordinates": [-78.65761474571259, -1.666620278860878]}}, {"type": "Feature", "properties": {"nombre": "Colegio de Odontologos", "categoria": "Administración Pública", "codigo": "060101003004027", "platform_name": "PLATAFORMA J", "snap_m": 21.02}, "geometry": {"type": "Point", "coordinates": [-78.65780745305759, -1.6661991338739264]}}, {"type": "Feature", "properties": {"nombre": "Jardin ABC", "categoria": "Educación", "codigo": "060101003004027", "platform_name": "PLATAFORMA J", "snap_m": 14.52}, "geometry": {"type": "Point", "coordinates": [-78.65794831400186, -1.6670611618507143]}}, {"type": "Feature", "properties": {"nombre": "Colegio de Abogados", "categoria": "Administración Pública", "codigo": "060101003004031", "platform_name": "PLATAFORMA J", "snap_m": 21.61}, "geometry": {"type": "Point", "coordinates": [-78.65846107181406, -1.667528920316923]}}, {"type": "Feature", "properties": {"nombre": "MIES - INFA", "categoria": "Bienestar Social", "codigo": "060101003004031", "platform_name": "PLATAFORMA J", "snap_m": 27.67}, "geometry": {"type": "Point", "coordinates": [-78.65809560602402, -1.6675025265784744]}}, {"type": "Feature", "properties": {"nombre": "UE Jefersson", "categoria": "Educación", "codigo": "060101003004028", "platform_name": "PLATAFORMA J", "snap_m": 22.2}, "geometry": {"type": "Point", "coordinates": [-78.65752759445462, -1.667409688056435]}}, {"type": "Feature", "properties": {"nombre": "Clínica Riobamba", "categoria": "Salud", "codigo": "060101003004030", "platform_name": "PLATAFORMA J", "snap_m": 27.06}, "geometry": {"type": "Point", "coordinates": [-78.6575967821305, -1.6682256999345664]}}, {"type": "Feature", "properties": {"nombre": "UNACH", "categoria": "Educación", "codigo": "060101003004020", "platform_name": "PLATAFORMA J", "snap_m": 39.73}, "geometry": {"type": "Point", "coordinates": [-78.66184070747107, -1.666218526513202]}}, {"type": "Feature", "properties": {"nombre": "Subsecretaria de Tierras y Reforma Agraria", "categoria": "Administración Pública", "codigo": "060101003004018", "platform_name": "PLATAFORMA J", "snap_m": 30.35}, "geometry": {"type": "Point", "coordinates": [-78.6626213019523, -1.6665983754559985]}}, {"type": "Feature", "properties": {"nombre": "Giralda Plaza", "categoria": "Comercio Zonal", "codigo": "060101001002070", "platform_name": "PLATAFORMA K", "snap_m": 12.21}, "geometry": {"type": "Point", "coordinates": [-78.65581838546467, -1.6680713458637966]}}, {"type": "Feature", "properties": {"nombre": "GADPCH", "categoria": "Administración Pública", "codigo": "060101001002057", "platform_name": "PLATAFORMA K", "snap_m": 26.5}, "geometry": {"type": "Point", "coordinates": [-78.65103402534487, -1.6716183070676687]}}, {"type": "Feature", "properties": {"nombre": "FEDEBAR", "categoria": "Administración Pública", "codigo": "060103001002037", "platform_name": "PLATAFORMA K", "snap_m": 19.57}, "geometry": {"type": "Point", "coordinates": [-78.65018623445553, -1.6707714793160409]}}, {"type": "Feature", "properties": {"nombre": "Dirección de Patrimonio", "categoria": "Administración Pública", "codigo": "060104001001026", "platform_name": "PLATAFORMA K", "snap_m": 27.02}, "geometry": {"type": "Point", "coordinates": [-78.64905172487273, -1.6733784722210963]}}, {"type": "Feature", "properties": {"nombre": "Dirección de Cultura", "categoria": "Administración Pública", "codigo": "060104001001026", "platform_name": "PLATAFORMA K", "snap_m": 31.03}, "geometry": {"type": "Point", "coordinates": [-78.64876655064157, -1.6731004878729778]}}, {"type": "Feature", "properties": {"nombre": "Policia Judicial", "categoria": "Seguridad", "codigo": "060102001001025", "platform_name": "PLATAFORMA K", "snap_m": 41.5}, "geometry": {"type": "Point", "coordinates": [-78.64781130067126, -1.673301318371502]}}, {"type": "Feature", "properties": {"nombre": "Parque de Piedra del Barrio Rosa  Elena", "categoria": "Recreativo y Deporte", "codigo": "", "platform_name": "PLATAFORMA J", "snap_m": 15.57}, "geometry": {"type": "Point", "coordinates": [-78.66223124625807, -1.6647523501371024]}}, {"type": "Feature", "properties": {"nombre": "Estación de servicios", "categoria": "Comercio Zonal", "codigo": "060101003004001", "platform_name": "PLATAFORMA J", "snap_m": 18.6}, "geometry": {"type": "Point", "coordinates": [-78.66599035368775, -1.665884608608598]}}, {"type": "Feature", "properties": {"nombre": "Iglesia de Bellavista", "categoria": "Religioso", "codigo": "060102002001014", "platform_name": "PLATAFORMA O", "snap_m": 30.91}, "geometry": {"type": "Point", "coordinates": [-78.63833240047562, -1.6733790116828162]}}, {"type": "Feature", "properties": {"nombre": "UE Britich School", "categoria": "Educación", "codigo": "060102002001034", "platform_name": "PLATAFORMA O", "snap_m": 31.16}, "geometry": {"type": "Point", "coordinates": [-78.64067043507133, -1.6733205579552641]}}, {"type": "Feature", "properties": {"nombre": "UE Pitagoras", "categoria": "Educación", "codigo": "060102002001021", "platform_name": "PLATAFORMA O", "snap_m": 43.62}, "geometry": {"type": "Point", "coordinates": [-78.63986423215437, -1.6733968464295852]}}, {"type": "Feature", "properties": {"nombre": "ITS Misael Acosta Solis", "categoria": "Educación", "codigo": "060102002001018", "platform_name": "PLATAFORMA O", "snap_m": 33.32}, "geometry": {"type": "Point", "coordinates": [-78.64046731781829, -1.6718857437488286]}}, {"type": "Feature", "properties": {"nombre": "Federación Deportiva Estudiantil", "categoria": "Recreativo y Deporte", "codigo": "060102002001035", "platform_name": "PLATAFORMA O", "snap_m": 43.93}, "geometry": {"type": "Point", "coordinates": [-78.64142302400003, -1.6729792244963002]}}, {"type": "Feature", "properties": {"nombre": "UE EcoMundo", "categoria": "Educación", "codigo": "060102006004007", "platform_name": "PLATAFORMA Q", "snap_m": 65.86}, "geometry": {"type": "Point", "coordinates": [-78.62890399195226, -1.67529881187136]}}, {"type": "Feature", "properties": {"nombre": "Áreas verdes", "categoria": "Recreativo y Deporte", "codigo": "060102006003067", "platform_name": "PLATAFORMA O", "snap_m": 34.61}, "geometry": {"type": "Point", "coordinates": [-78.63488942642189, -1.665842142181413]}}, {"type": "Feature", "properties": {"nombre": "Iglesia la Dolorosa", "categoria": "Religioso", "codigo": "060104007004033", "platform_name": "PLATAFORMA P", "snap_m": 37.58}, "geometry": {"type": "Point", "coordinates": [-78.6413392721691, -1.680090097173271]}}, {"type": "Feature", "properties": {"nombre": "Mega Santa María", "categoria": "Comercio Zonal", "codigo": "060104007004033", "platform_name": "PLATAFORMA P", "snap_m": 20.83}, "geometry": {"type": "Point", "coordinates": [-78.6408871750524, -1.6801664718364517]}}, {"type": "Feature", "properties": {"nombre": "Albergues", "categoria": "Bienestar Social", "codigo": "060104007004055", "platform_name": "PLATAFORMA P", "snap_m": 38.03}, "geometry": {"type": "Point", "coordinates": [-78.63560959039233, -1.6879335850450756]}}, {"type": "Feature", "properties": {"nombre": "EMAPAR", "categoria": "Administración Pública", "codigo": "060104007004024", "platform_name": "PLATAFORMA P", "snap_m": 6.17}, "geometry": {"type": "Point", "coordinates": [-78.6427483529807, -1.6835107692490934]}}, {"type": "Feature", "properties": {"nombre": "Dirección de Salubridad e Higiene", "categoria": "Administración Pública", "codigo": "060104007004003", "platform_name": "PLATAFORMA P", "snap_m": 16.58}, "geometry": {"type": "Point", "coordinates": [-78.64294472343171, -1.6839818466331888]}}, {"type": "Feature", "properties": {"nombre": "Concejo Nacional de Transito", "categoria": "Administración Pública", "codigo": "060104007004024", "platform_name": "PLATAFORMA P", "snap_m": 19.35}, "geometry": {"type": "Point", "coordinates": [-78.64255823990004, -1.6836630853518637]}}, {"type": "Feature", "properties": {"nombre": "Colping", "categoria": "Educación", "codigo": "060105008003073", "platform_name": "PLATAFORMA N", "snap_m": 31.61}, "geometry": {"type": "Point", "coordinates": [-78.67551670709634, -1.694051048208253]}}, {"type": "Feature", "properties": {"nombre": "Gruta de un Santo", "categoria": "Religioso", "codigo": "060105008003074", "platform_name": "PLATAFORMA N", "snap_m": 10.3}, "geometry": {"type": "Point", "coordinates": [-78.67654641732892, -1.693343592668684]}}, {"type": "Feature", "properties": {"nombre": "Canchas Barrios Santa Rosa", "categoria": "Recreativo y Deporte", "codigo": "060105008003072", "platform_name": "PLATAFORMA N", "snap_m": 22.48}, "geometry": {"type": "Point", "coordinates": [-78.67628711807613, -1.693329908648495]}}, {"type": "Feature", "properties": {"nombre": "Canchas", "categoria": "Recreativo y Deporte", "codigo": "060105008003011", "platform_name": "PLATAFORMA N", "snap_m": 32.26}, "geometry": {"type": "Point", "coordinates": [-78.6748005945625, -1.6883740091817319]}}, {"type": "Feature", "properties": {"nombre": "Piscinas", "categoria": "Recreativo y Deporte", "codigo": "060105008003067", "platform_name": "PLATAFORMA N", "snap_m": 49.84}, "geometry": {"type": "Point", "coordinates": [-78.67925929245446, -1.6906221013999025]}}, {"type": "Feature", "properties": {"nombre": "Subcentro de Salud", "categoria": "Salud", "codigo": "060105008003066", "platform_name": "PLATAFORMA N", "snap_m": 40.57}, "geometry": {"type": "Point", "coordinates": [-78.67884023202572, -1.6898557588482677]}}, {"type": "Feature", "properties": {"nombre": "UPC", "categoria": "Seguridad", "codigo": "060105008003051", "platform_name": "PLATAFORMA N", "snap_m": 19.39}, "geometry": {"type": "Point", "coordinates": [-78.67706846975219, -1.6896617672190941]}}, {"type": "Feature", "properties": {"nombre": "EMAPAR", "categoria": "Infraestructura", "codigo": "060101008002001", "platform_name": "PLATAFORMA N", "snap_m": 86.72}, "geometry": {"type": "Point", "coordinates": [-78.67139673289323, -1.6853101660700953]}}, {"type": "Feature", "properties": {"nombre": "EMAPAR", "categoria": "Infraestructura", "codigo": "060101008002001", "platform_name": "PLATAFORMA N", "snap_m": 82.19}, "geometry": {"type": "Point", "coordinates": [-78.67134009680996, -1.6854296071878982]}}, {"type": "Feature", "properties": {"nombre": "EMAPAR Estacion de bombeo la Tarazana", "categoria": "Infraestructura", "codigo": "", "platform_name": "PLATAFORMA N", "snap_m": 17.43}, "geometry": {"type": "Point", "coordinates": [-78.66527626970131, -1.6826438140629343]}}, {"type": "Feature", "properties": {"nombre": "UE Mercedes de Jesús Molina", "categoria": "Educación", "codigo": "060104007003036", "platform_name": "PLATAFORMA P", "snap_m": 21.26}, "geometry": {"type": "Point", "coordinates": [-78.64419938195451, -1.686559121514855]}}, {"type": "Feature", "properties": {"nombre": "UE Mercedes de Jesús Molina", "categoria": "Educación", "codigo": "060104007003036", "platform_name": "PLATAFORMA P", "snap_m": 15.76}, "geometry": {"type": "Point", "coordinates": [-78.64373345250257, -1.687023219676513]}}, {"type": "Feature", "properties": {"nombre": "Estación de servicios", "categoria": "Comercio Zonal", "codigo": "060104008001001", "platform_name": "PLATAFORMA N", "snap_m": 16.7}, "geometry": {"type": "Point", "coordinates": [-78.66741177863625, -1.6840620286820687]}}, {"type": "Feature", "properties": {"nombre": "Quinta la Primavera CESA", "categoria": "Administración Pública", "codigo": "060101007001038", "platform_name": "PLATAFORMA J", "snap_m": 32.01}, "geometry": {"type": "Point", "coordinates": [-78.66271608849735, -1.6815221902785429]}}, {"type": "Feature", "properties": {"nombre": "Quinta la Primavera CESA", "categoria": "Administración Pública", "codigo": "060101007001038", "platform_name": "PLATAFORMA J", "snap_m": 72.56}, "geometry": {"type": "Point", "coordinates": [-78.66239671570983, -1.680650792943358]}}, {"type": "Feature", "properties": {"nombre": "UE Riobamba", "categoria": "Educación", "codigo": "060101001002056", "platform_name": "PLATAFORMA K", "snap_m": 38.9}, "geometry": {"type": "Point", "coordinates": [-78.65175927449923, -1.6707880418739154]}}, {"type": "Feature", "properties": {"nombre": "Parque Industrial", "categoria": "Industrial MI-BI", "codigo": "060102006004041", "platform_name": "PLATAFORMA Q", "snap_m": 22.62}, "geometry": {"type": "Point", "coordinates": [-78.62982000498059, -1.6840674327254337]}}, {"type": "Feature", "properties": {"nombre": "Estadio Olímpico", "categoria": "Recreativo y Deporte", "codigo": "060101003004025", "platform_name": "PLATAFORMA J", "snap_m": 15.64}, "geometry": {"type": "Point", "coordinates": [-78.66036076762279, -1.6671399187223424]}}, {"type": "Feature", "properties": {"nombre": "Parque Guayaquil", "categoria": "Recreativo y Deporte", "codigo": "060101003004026", "platform_name": "PLATAFORMA J", "snap_m": 41.83}, "geometry": {"type": "Point", "coordinates": [-78.65924174641022, -1.667614279405122]}}]}