{"type":"FeatureCollection","features":[{"type":"Feature","properties":{"target_platform":"PLATAFORMA Q","selected_rank":1,"source_id":42,"codigo":"851ae2a8","nombre":"Barrio Pucara","elemento":"Parques infantiles con jardines sin canchas","tipologia":"Barrial","estado":"Bueno","gestion":"Público","source_lon":-78.63479475417179,"source_lat":-1.682674091568923,"tipo_propuesta":"Candidato a gimnasio al aire libre","prioridad_gimnasio":"Alta","criterio":"Validacion satelital: DESCARTADO. Punto sobre borde urbano denso, sin area libre clara para gimnasio. Criterio previo: Preseleccion desde equipamientos recreativos publicos, no desde parques estrategicos. Validar en imagen satelital Google Maps y campo que exista area libre para instalar equipos.","validacion_satelital":"descartado","validacion_fuente":"Revision visual con imagen satelital Google Maps","validacion_fecha":"2026-08-27","criterio_visual":"Punto sobre borde urbano denso, sin area libre clara para gimnasio.","apto_visual":false},"geometry":{"type":"Point","coordinates":[-78.63479475417179,-1.682674091568923]}},{"type":"Feature","properties":{"target_platform":"PLATAFORMA Q","selected_rank":2,"source_id":45,"codigo":"5db29321","nombre":"Parque","elemento":"Parques infantiles con jardines sin canchas","tipologia":"Barrial","estado":"Malo","gestion":"Público","source_lon":-78.6275269,"source_lat":-1.6892075,"tipo_propuesta":"Candidato a gimnasio al aire libre","prioridad_gimnasio":"Alta","criterio":"Validacion satelital: APTO. Lote abierto visible junto a via; requiere verificacion de propiedad y pendiente. Criterio previo: Preseleccion desde equipamientos recreativos publicos, no desde parques estrategicos. Validar en imagen satelital Google Maps y campo que exista area libre para instalar equipos.","validacion_satelital":"apto","validacion_fuente":"Revision visual con imagen satelital Google Maps","validacion_fecha":"2026-08-27","criterio_visual":"Lote abierto visible junto a via; requiere verificacion de propiedad y pendiente.","apto_visual":true},"geometry":{"type":"Point","coordinates":[-78.6275269,-1.6892075]}},{"type":"Feature","properties":{"target_platform":"PLATAFORMA K","selected_rank":1,"source_id":18,"codigo":"c9c9d31f","nombre":"Barrio Bolivar Chiriboga","elemento":"Parques infantiles con jardines sin canchas","tipologia":"Barrial","estado":"Regular","gestion":"Público","source_lon":-78.64976750662187,"source_lat":-1.674276083867801,"tipo_propuesta":"Candidato a gimnasio al aire libre","prioridad_gimnasio":"Alta","criterio":"Validacion satelital: DESCARTADO. Punto cae sobre calzada o borde de via, no sobre area util. Criterio previo: Preseleccion desde equipamientos recreativos publicos, no desde parques estrategicos. Validar en imagen satelital Google Maps y campo que exista area libre para instalar equipos.","validacion_satelital":"descartado","validacion_fuente":"Revision visual con imagen satelital Google Maps","validacion_fecha":"2026-08-27","criterio_visual":"Punto cae sobre calzada o borde de via, no sobre area util.","apto_visual":false},"geometry":{"type":"Point","coordinates":[-78.64976750662187,-1.674276083867801]}},{"type":"Feature","properties":{"target_platform":"PLATAFORMA K","selected_rank":2,"source_id":251,"codigo":"c86013f4","nombre":"Parque 21 de Abril","elemento":"Parques infantiles con jardines sin canchas","tipologia":"Barrial","estado":"Regular","gestion":"Público","source_lon":-78.65331252,"source_lat":-1.666114042,"tipo_propuesta":"Candidato a gimnasio al aire libre","prioridad_gimnasio":"Alta","criterio":"Validacion satelital: APTO. Parque abierto con espacio libre suficiente. Criterio previo: Preseleccion desde equipamientos recreativos publicos, no desde parques estrategicos. Validar en imagen satelital Google Maps y campo que exista area libre para instalar equipos.","validacion_satelital":"apto","validacion_fuente":"Revision visual con imagen satelital Google Maps","validacion_fecha":"2026-08-27","criterio_visual":"Parque abierto con espacio libre suficiente.","apto_visual":true},"geometry":{"type":"Point","coordinates":[-78.65331252,-1.666114042]}},{"type":"Feature","properties":{"target_platform":"PLATAFORMA O","selected_rank":1,"source_id":556,"codigo":"72d4b3c0","nombre":"SN","elemento":"Parque con gimnasio al aire libre","tipologia":"Zonal","estado":"Bueno","gestion":"Público","source_lon":-78.63871371,"source_lat":-1.67679952,"tipo_propuesta":"Candidato a gimnasio al aire libre","prioridad_gimnasio":"Alta","criterio":"Validacion satelital: DESCARTADO. Punto en borde de edificacion/via, sin area libre clara. Criterio previo: Preseleccion desde equipamientos recreativos publicos, no desde parques estrategicos. Validar en imagen satelital Google Maps y campo que exista area libre para instalar equipos.","validacion_satelital":"descartado","validacion_fuente":"Revision visual con imagen satelital Google Maps","validacion_fecha":"2026-08-27","criterio_visual":"Punto en borde de edificacion/via, sin area libre clara.","apto_visual":false},"geometry":{"type":"Point","coordinates":[-78.63871371,-1.67679952]}},{"type":"Feature","properties":{"target_platform":"PLATAFORMA O","selected_rank":2,"source_id":583,"codigo":"d2d93637","nombre":"Parque Modesto Arrieta","elemento":"Parque con gimnasio al aire libre","tipologia":"Zonal","estado":"Regular","gestion":"Público","source_lon":-78.63594872829043,"source_lat":-1.6683670257959309,"tipo_propuesta":"Candidato a gimnasio al aire libre","prioridad_gimnasio":"Alta","criterio":"Validacion satelital: DESCARTADO. Punto sobre borde de calle y edificaciones. Criterio previo: Preseleccion desde equipamientos recreativos publicos, no desde parques estrategicos. Validar en imagen satelital Google Maps y campo que exista area libre para instalar equipos.","validacion_satelital":"descartado","validacion_fuente":"Revision visual con imagen satelital Google Maps","validacion_fecha":"2026-08-27","criterio_visual":"Punto sobre borde de calle y edificaciones.","apto_visual":false},"geometry":{"type":"Point","coordinates":[-78.63594872829043,-1.6683670257959309]}},{"type":"Feature","properties":{"target_platform":"PLATAFORMA G","selected_rank":1,"source_id":102,"codigo":"f6a81ee5","nombre":"Parque","elemento":"Parque con gimnasio al aire libre","tipologia":"Zonal","estado":"Bueno","gestion":"Público","source_lon":-78.66778704501706,"source_lat":-1.6498116895293793,"tipo_propuesta":"Candidato a gimnasio al aire libre","prioridad_gimnasio":"Alta","criterio":"Validacion satelital: APTO. Parque amplio con areas libres y circulacion interna. Criterio previo: Preseleccion desde equipamientos recreativos publicos, no desde parques estrategicos. Validar en imagen satelital Google Maps y campo que exista area libre para instalar equipos.","validacion_satelital":"apto","validacion_fuente":"Revision visual con imagen satelital Google Maps","validacion_fecha":"2026-08-27","criterio_visual":"Parque amplio con areas libres y circulacion interna.","apto_visual":true},"geometry":{"type":"Point","coordinates":[-78.66778704501706,-1.6498116895293793]}},{"type":"Feature","properties":{"target_platform":"PLATAFORMA I","selected_rank":1,"source_id":500,"codigo":"961915d9","nombre":"Parque los pinos","elemento":"Parque con gimnasio al aire libre","tipologia":"Zonal","estado":"Bueno","gestion":"Público","source_lon":-78.6529642,"source_lat":-1.6631787,"tipo_propuesta":"Candidato a gimnasio al aire libre","prioridad_gimnasio":"Alta","criterio":"Validacion satelital: DESCARTADO. Punto en borde construido, sin area abierta suficiente. Criterio previo: Preseleccion desde equipamientos recreativos publicos, no desde parques estrategicos. Validar en imagen satelital Google Maps y campo que exista area libre para instalar equipos.","validacion_satelital":"descartado","validacion_fuente":"Revision visual con imagen satelital Google Maps","validacion_fecha":"2026-08-27","criterio_visual":"Punto en borde construido, sin area abierta suficiente.","apto_visual":false},"geometry":{"type":"Point","coordinates":[-78.6529642,-1.6631787]}},{"type":"Feature","properties":{"target_platform":"PLATAFORMA I","selected_rank":2,"source_id":501,"codigo":"91fe0e53","nombre":"Parque las Dalias","elemento":"Parque con gimnasio al aire libre","tipologia":"Zonal","estado":"Regular","gestion":"Público","source_lon":-78.6586809,"source_lat":-1.6591896,"tipo_propuesta":"Candidato a gimnasio al aire libre","prioridad_gimnasio":"Alta","criterio":"Validacion satelital: DESCARTADO. Punto junto a edificaciones, sin area libre clara. Criterio previo: Preseleccion desde equipamientos recreativos publicos, no desde parques estrategicos. Validar en imagen satelital Google Maps y campo que exista area libre para instalar equipos.","validacion_satelital":"descartado","validacion_fuente":"Revision visual con imagen satelital Google Maps","validacion_fecha":"2026-08-27","criterio_visual":"Punto junto a edificaciones, sin area libre clara.","apto_visual":false},"geometry":{"type":"Point","coordinates":[-78.6586809,-1.6591896]}},{"type":"Feature","properties":{"target_platform":"PLATAFORMA F","selected_rank":1,"source_id":868,"codigo":"a48c2f98","nombre":"Parque Maestros 13 de Abril","elemento":"Parque con gimnasio al aire libre","tipologia":"Zonal","estado":"Bueno","gestion":"Público","source_lon":-78.672096762,"source_lat":-1.656560768,"tipo_propuesta":"Candidato a gimnasio al aire libre","prioridad_gimnasio":"Alta","criterio":"Validacion satelital: APTO. Area verde/parque visible con espacio util. Criterio previo: Preseleccion desde equipamientos recreativos publicos, no desde parques estrategicos. Validar en imagen satelital Google Maps y campo que exista area libre para instalar equipos.","validacion_satelital":"apto","validacion_fuente":"Revision visual con imagen satelital Google Maps","validacion_fecha":"2026-08-27","criterio_visual":"Area verde/parque visible con espacio util.","apto_visual":true},"geometry":{"type":"Point","coordinates":[-78.672096762,-1.656560768]}},{"type":"Feature","properties":{"target_platform":"PLATAFORMA F","selected_rank":2,"source_id":142,"codigo":"45d64f77","nombre":"Parque de la ciudadela 11 de agosto","elemento":"Parques infantiles con jardines sin canchas","tipologia":"Barrial","estado":"Bueno","gestion":"Público","source_lon":-78.668675156,"source_lat":-1.652579397,"tipo_propuesta":"Candidato a gimnasio al aire libre","prioridad_gimnasio":"Alta","criterio":"Validacion satelital: DUDOSO. Area verde pequena; puede servir solo con replanteo en campo. Criterio previo: Preseleccion desde equipamientos recreativos publicos, no desde parques estrategicos. Validar en imagen satelital Google Maps y campo que exista area libre para instalar equipos.","validacion_satelital":"dudoso","validacion_fuente":"Revision visual con imagen satelital Google Maps","validacion_fecha":"2026-08-27","criterio_visual":"Area verde pequena; puede servir solo con replanteo en campo.","apto_visual":false},"geometry":{"type":"Point","coordinates":[-78.668675156,-1.652579397]}},{"type":"Feature","properties":{"target_platform":"PLATAFORMA P","selected_rank":1,"source_id":146,"codigo":"8f3924fe","nombre":"ÁREA VERDE LA DOLOROSA","elemento":"Parques infantiles con jardines sin canchas","tipologia":"Barrial","estado":"Regular","gestion":"Público","source_lon":-78.6415041,"source_lat":-1.679443,"tipo_propuesta":"Candidato a gimnasio al aire libre","prioridad_gimnasio":"Alta","criterio":"Validacion satelital: DESCARTADO. Punto en borde de via/edificacion, no se aprecia area libre suficiente. Criterio previo: Preseleccion desde equipamientos recreativos publicos, no desde parques estrategicos. Validar en imagen satelital Google Maps y campo que exista area libre para instalar equipos.","validacion_satelital":"descartado","validacion_fuente":"Revision visual con imagen satelital Google Maps","validacion_fecha":"2026-08-27","criterio_visual":"Punto en borde de via/edificacion, no se aprecia area libre suficiente.","apto_visual":false},"geometry":{"type":"Point","coordinates":[-78.6415041,-1.679443]}},{"type":"Feature","properties":{"target_platform":"PLATAFORMA P","selected_rank":2,"source_id":183,"codigo":"f3d819c0","nombre":"AREA VERDE CALLE GUAYAQUIL","elemento":"Parques infantiles con jardines sin canchas","tipologia":"Barrial","estado":"Regular","gestion":"Público","source_lon":-78.6376414,"source_lat":-1.6865508,"tipo_propuesta":"Candidato a gimnasio al aire libre","prioridad_gimnasio":"Alta","criterio":"Validacion satelital: DESCARTADO. Punto sobre via o cruce, no apto. Criterio previo: Preseleccion desde equipamientos recreativos publicos, no desde parques estrategicos. Validar en imagen satelital Google Maps y campo que exista area libre para instalar equipos.","validacion_satelital":"descartado","validacion_fuente":"Revision visual con imagen satelital Google Maps","validacion_fecha":"2026-08-27","criterio_visual":"Punto sobre via o cruce, no apto.","apto_visual":false},"geometry":{"type":"Point","coordinates":[-78.6376414,-1.6865508]}},{"type":"Feature","properties":{"target_platform":"PLATAFORMA D","selected_rank":1,"source_id":199,"codigo":"97d60348","nombre":"PARQUE DEL MOP","elemento":"Parques infantiles con jardines sin canchas","tipologia":"Barrial","estado":"Bueno","gestion":"Público","source_lon":-78.682722566,"source_lat":-1.655856141,"tipo_propuesta":"Candidato a gimnasio al aire libre","prioridad_gimnasio":"Alta","criterio":"Validacion satelital: DUDOSO. Punto en borde de imagen; requiere verificacion puntual en campo. Criterio previo: Preseleccion desde equipamientos recreativos publicos, no desde parques estrategicos. Validar en imagen satelital Google Maps y campo que exista area libre para instalar equipos.","validacion_satelital":"dudoso","validacion_fuente":"Revision visual con imagen satelital Google Maps","validacion_fecha":"2026-08-27","criterio_visual":"Punto en borde de imagen; requiere verificacion puntual en campo.","apto_visual":false},"geometry":{"type":"Point","coordinates":[-78.682722566,-1.655856141]}},{"type":"Feature","properties":{"target_platform":"PLATAFORMA D","selected_rank":2,"source_id":408,"codigo":"3ed33c6d","nombre":"ÁREA VERDE CIUDADELA JUAN MONTALVO","elemento":"Parques infantiles con jardines sin canchas","tipologia":"Barrial","estado":"Regular","gestion":"Público","source_lon":-78.684306664,"source_lat":-1.660947892,"tipo_propuesta":"Candidato a gimnasio al aire libre","prioridad_gimnasio":"Alta","criterio":"Validacion satelital: APTO. Area verde/parque con espacio libre visible. Criterio previo: Preseleccion desde equipamientos recreativos publicos, no desde parques estrategicos. Validar en imagen satelital Google Maps y campo que exista area libre para instalar equipos.","validacion_satelital":"apto","validacion_fuente":"Revision visual con imagen satelital Google Maps","validacion_fecha":"2026-08-27","criterio_visual":"Area verde/parque con espacio libre visible.","apto_visual":true},"geometry":{"type":"Point","coordinates":[-78.684306664,-1.660947892]}},{"type":"Feature","properties":{"target_platform":"PLATAFORMA B","selected_rank":1,"source_id":722,"codigo":"15b0a383","nombre":"Parque Las Acacias","elemento":"Parque con gimnasio al aire libre","tipologia":"Zonal","estado":"Bueno","gestion":"Público","source_lon":-78.675462219,"source_lat":-1.637633516,"tipo_propuesta":"Candidato a gimnasio al aire libre","prioridad_gimnasio":"Alta","criterio":"Validacion satelital: DUDOSO. Area pavimentada pequena cercana a via; revisar disponibilidad real. Criterio previo: Preseleccion desde equipamientos recreativos publicos, no desde parques estrategicos. Validar en imagen satelital Google Maps y campo que exista area libre para instalar equipos.","validacion_satelital":"dudoso","validacion_fuente":"Revision visual con imagen satelital Google Maps","validacion_fecha":"2026-08-27","criterio_visual":"Area pavimentada pequena cercana a via; revisar disponibilidad real.","apto_visual":false},"geometry":{"type":"Point","coordinates":[-78.675462219,-1.637633516]}},{"type":"Feature","properties":{"target_platform":"PLATAFORMA B","selected_rank":2,"source_id":227,"codigo":"027caea0","nombre":"Ninguno","elemento":"Parques infantiles con jardines sin canchas","tipologia":"Barrial","estado":"Regular","gestion":"Público","source_lon":-78.66833333333334,"source_lat":-1.6398750000000002,"tipo_propuesta":"Candidato a gimnasio al aire libre","prioridad_gimnasio":"Alta","criterio":"Validacion satelital: APTO. Terreno abierto con espacio disponible. Criterio previo: Preseleccion desde equipamientos recreativos publicos, no desde parques estrategicos. Validar en imagen satelital Google Maps y campo que exista area libre para instalar equipos.","validacion_satelital":"apto","validacion_fuente":"Revision visual con imagen satelital Google Maps","validacion_fecha":"2026-08-27","criterio_visual":"Terreno abierto con espacio disponible.","apto_visual":true},"geometry":{"type":"Point","coordinates":[-78.66833333333334,-1.6398750000000002]}},{"type":"Feature","properties":{"target_platform":"PLATAFORMA L","selected_rank":1,"source_id":436,"codigo":"31799c7e","nombre":"Parque San Antonio","elemento":"Canchas deportivas múltiples.","tipologia":"Zonal","estado":"Regular","gestion":"Público","source_lon":-78.647569511,"source_lat":-1.65561374,"tipo_propuesta":"Candidato a gimnasio al aire libre","prioridad_gimnasio":"Alta","criterio":"Validacion satelital: APTO. Espacio deportivo/pavimentado con area suficiente. Criterio previo: Preseleccion desde equipamientos recreativos publicos, no desde parques estrategicos. Validar en imagen satelital Google Maps y campo que exista area libre para instalar equipos.","validacion_satelital":"apto","validacion_fuente":"Revision visual con imagen satelital Google Maps","validacion_fecha":"2026-08-27","criterio_visual":"Espacio deportivo/pavimentado con area suficiente.","apto_visual":true},"geometry":{"type":"Point","coordinates":[-78.647569511,-1.65561374]}},{"type":"Feature","properties":{"target_platform":"PLATAFORMA L","selected_rank":2,"source_id":427,"codigo":"6886da41","nombre":"San Antonio del aeropuerto","elemento":"Canchas deportivas múltiples.","tipologia":"Zonal","estado":"Malo","gestion":"Público","source_lon":-78.649519849,"source_lat":-1.659862797,"tipo_propuesta":"Candidato a gimnasio al aire libre","prioridad_gimnasio":"Media","criterio":"Validacion satelital: DUDOSO. Area abierta junto a via; requiere confirmar acceso y uso. Criterio previo: Preseleccion desde equipamientos recreativos publicos, no desde parques estrategicos. Validar en imagen satelital Google Maps y campo que exista area libre para instalar equipos.","validacion_satelital":"dudoso","validacion_fuente":"Revision visual con imagen satelital Google Maps","validacion_fecha":"2026-08-27","criterio_visual":"Area abierta junto a via; requiere confirmar acceso y uso.","apto_visual":false},"geometry":{"type":"Point","coordinates":[-78.649519849,-1.659862797]}},{"type":"Feature","properties":{"target_platform":"PLATAFORMA C","selected_rank":1,"source_id":641,"codigo":"ecf24038","nombre":"Parque del norte modesto arrieta","elemento":"Parque de ciudad con área verde y más de 5 canchas de uso múltiple","tipologia":"Cantonal","estado":"Regular","gestion":"Público","source_lon":-78.6821683,"source_lat":-1.6397481,"tipo_propuesta":"Candidato a gimnasio al aire libre","prioridad_gimnasio":"Alta","criterio":"Validacion satelital: APTO. Parque/canchas con area amplia. Criterio previo: Preseleccion desde equipamientos recreativos publicos, no desde parques estrategicos. Validar en imagen satelital Google Maps y campo que exista area libre para instalar equipos.","validacion_satelital":"apto","validacion_fuente":"Revision visual con imagen satelital Google Maps","validacion_fecha":"2026-08-27","criterio_visual":"Parque/canchas con area amplia.","apto_visual":true},"geometry":{"type":"Point","coordinates":[-78.6821683,-1.6397481]}},{"type":"Feature","properties":{"target_platform":"PLATAFORMA C","selected_rank":2,"source_id":679,"codigo":"76fae8dd","nombre":"Centro de bienestar barrialfebanor","elemento":"Parques infantiles con jardines sin canchas","tipologia":"Barrial","estado":"Regular","gestion":"Público","source_lon":-78.6788588,"source_lat":-1.64512,"tipo_propuesta":"Candidato a gimnasio al aire libre","prioridad_gimnasio":"Alta","criterio":"Validacion satelital: DESCARTADO. Punto sobre borde de calle, sin area libre suficiente. Criterio previo: Preseleccion desde equipamientos recreativos publicos, no desde parques estrategicos. Validar en imagen satelital Google Maps y campo que exista area libre para instalar equipos.","validacion_satelital":"descartado","validacion_fuente":"Revision visual con imagen satelital Google Maps","validacion_fecha":"2026-08-27","criterio_visual":"Punto sobre borde de calle, sin area libre suficiente.","apto_visual":false},"geometry":{"type":"Point","coordinates":[-78.6788588,-1.64512]}},{"type":"Feature","properties":{"target_platform":"PLATAFORMA N","selected_rank":1,"source_id":675,"codigo":"00a6647c","nombre":"Parque Yaruquies","elemento":"Parques infantiles con jardines sin canchas","tipologia":"Barrial","estado":"Bueno","gestion":"Público","source_lon":-78.6758825,"source_lat":-1.6895224,"tipo_propuesta":"Candidato a gimnasio al aire libre","prioridad_gimnasio":"Alta","criterio":"Validacion satelital: DESCARTADO. Punto junto a calzada/edificaciones. Criterio previo: Preseleccion desde equipamientos recreativos publicos, no desde parques estrategicos. Validar en imagen satelital Google Maps y campo que exista area libre para instalar equipos.","validacion_satelital":"descartado","validacion_fuente":"Revision visual con imagen satelital Google Maps","validacion_fecha":"2026-08-27","criterio_visual":"Punto junto a calzada/edificaciones.","apto_visual":false},"geometry":{"type":"Point","coordinates":[-78.6758825,-1.6895224]}},{"type":"Feature","properties":{"target_platform":"PLATAFORMA N","selected_rank":2,"source_id":632,"codigo":"75bbb3f8","nombre":"Terreno baldío","elemento":"Parque de ciudad con área verde y más de 5 canchas de uso múltiple","tipologia":"Cantonal","estado":"Malo","gestion":"Público","source_lon":-78.663373491,"source_lat":-1.682605692,"tipo_propuesta":"Candidato a gimnasio al aire libre","prioridad_gimnasio":"Alta","criterio":"Validacion satelital: APTO. Area abierta amplia visible. Criterio previo: Preseleccion desde equipamientos recreativos publicos, no desde parques estrategicos. Validar en imagen satelital Google Maps y campo que exista area libre para instalar equipos.","validacion_satelital":"apto","validacion_fuente":"Revision visual con imagen satelital Google Maps","validacion_fecha":"2026-08-27","criterio_visual":"Area abierta amplia visible.","apto_visual":true},"geometry":{"type":"Point","coordinates":[-78.663373491,-1.682605692]}},{"type":"Feature","properties":{"target_platform":"PLATAFORMA H","selected_rank":1,"source_id":756,"codigo":"1b1dc7e5","nombre":"PARQUE CDL. CEMENTO CHIMBORAZO","elemento":"Parque con gimnasio al aire libre","tipologia":"Zonal","estado":"Bueno","gestion":"Público","source_lon":-78.667007791,"source_lat":-1.65388826,"tipo_propuesta":"Candidato a gimnasio al aire libre","prioridad_gimnasio":"Alta","criterio":"Validacion satelital: DUDOSO. Punto en borde del parque; requiere ajuste fino en campo. Criterio previo: Preseleccion desde equipamientos recreativos publicos, no desde parques estrategicos. Validar en imagen satelital Google Maps y campo que exista area libre para instalar equipos.","validacion_satelital":"dudoso","validacion_fuente":"Revision visual con imagen satelital Google Maps","validacion_fecha":"2026-08-27","criterio_visual":"Punto en borde del parque; requiere ajuste fino en campo.","apto_visual":false},"geometry":{"type":"Point","coordinates":[-78.667007791,-1.65388826]}},{"type":"Feature","properties":{"target_platform":"PLATAFORMA H","selected_rank":2,"source_id":760,"codigo":"1fbd6b17","nombre":"PARQUE SESQUICENTENARIO","elemento":"Parque de ciudad con área verde y más de 5 canchas de uso múltiple","tipologia":"Cantonal","estado":"Bueno","gestion":"Público","source_lon":-78.669805454,"source_lat":-1.657718239,"tipo_propuesta":"Candidato a gimnasio al aire libre","prioridad_gimnasio":"Alta","criterio":"Validacion satelital: APTO. Complejo/parque amplio con areas libres. Criterio previo: Preseleccion desde equipamientos recreativos publicos, no desde parques estrategicos. Validar en imagen satelital Google Maps y campo que exista area libre para instalar equipos.","validacion_satelital":"apto","validacion_fuente":"Revision visual con imagen satelital Google Maps","validacion_fecha":"2026-08-27","criterio_visual":"Complejo/parque amplio con areas libres.","apto_visual":true},"geometry":{"type":"Point","coordinates":[-78.669805454,-1.657718239]}},{"type":"Feature","properties":{"target_platform":"PLATAFORMA M","selected_rank":1,"source_id":799,"codigo":"026a6c9a","nombre":"Canchas del esfuerzo 2","elemento":"Parque con gimnasio al aire libre","tipologia":"Zonal","estado":"Bueno","gestion":"Público","source_lon":-78.6432329,"source_lat":-1.6630618,"tipo_propuesta":"Candidato a gimnasio al aire libre","prioridad_gimnasio":"Alta","criterio":"Validacion satelital: DESCARTADO. Punto en borde de via/edificacion. Criterio previo: Preseleccion desde equipamientos recreativos publicos, no desde parques estrategicos. Validar en imagen satelital Google Maps y campo que exista area libre para instalar equipos.","validacion_satelital":"descartado","validacion_fuente":"Revision visual con imagen satelital Google Maps","validacion_fecha":"2026-08-27","criterio_visual":"Punto en borde de via/edificacion.","apto_visual":false},"geometry":{"type":"Point","coordinates":[-78.6432329,-1.6630618]}},{"type":"Feature","properties":{"target_platform":"PLATAFORMA M","selected_rank":2,"source_id":826,"codigo":"84309e0d","nombre":"Parque Galápagos","elemento":"Parque con gimnasio al aire libre","tipologia":"Zonal","estado":"Bueno","gestion":"Público","source_lon":-78.644480928,"source_lat":-1.656589935,"tipo_propuesta":"Candidato a gimnasio al aire libre","prioridad_gimnasio":"Alta","criterio":"Validacion satelital: APTO. Parque con area verde util visible. Criterio previo: Preseleccion desde equipamientos recreativos publicos, no desde parques estrategicos. Validar en imagen satelital Google Maps y campo que exista area libre para instalar equipos.","validacion_satelital":"apto","validacion_fuente":"Revision visual con imagen satelital Google Maps","validacion_fecha":"2026-08-27","criterio_visual":"Parque con area verde util visible.","apto_visual":true},"geometry":{"type":"Point","coordinates":[-78.644480928,-1.656589935]}},{"type":"Feature","properties":{"target_platform":"PLATAFORMA A","selected_rank":1,"source_id":786,"codigo":"09a35ac9","nombre":"Calles Javier Espinoza y alausi ( barrio 21 de abril )","elemento":"Parques temáticos","tipologia":"Cantonal","estado":"Malo","gestion":"Público","source_lon":-78.6872882,"source_lat":-1.634005445,"tipo_propuesta":"Candidato a gimnasio al aire libre","prioridad_gimnasio":"Media","criterio":"Validacion satelital: DESCARTADO. Punto en entorno construido y vial, sin espacio claro. Criterio previo: Preseleccion desde equipamientos recreativos publicos, no desde parques estrategicos. Validar en imagen satelital Google Maps y campo que exista area libre para instalar equipos.","validacion_satelital":"descartado","validacion_fuente":"Revision visual con imagen satelital Google Maps","validacion_fecha":"2026-08-27","criterio_visual":"Punto en entorno construido y vial, sin espacio claro.","apto_visual":false},"geometry":{"type":"Point","coordinates":[-78.6872882,-1.634005445]}},{"type":"Feature","properties":{"target_platform":"PLATAFORMA J","selected_rank":1,"source_id":967,"codigo":"250de9e2","nombre":"Parque la primavera","elemento":"Parque con gimnasio al aire libre","tipologia":"Zonal","estado":"Bueno","gestion":"Público","source_lon":-78.662303216,"source_lat":-1.677471938,"tipo_propuesta":"Candidato a gimnasio al aire libre","prioridad_gimnasio":"Alta","criterio":"Validacion satelital: DESCARTADO. Punto sobre borde construido, sin area abierta clara. Criterio previo: Preseleccion desde equipamientos recreativos publicos, no desde parques estrategicos. Validar en imagen satelital Google Maps y campo que exista area libre para instalar equipos.","validacion_satelital":"descartado","validacion_fuente":"Revision visual con imagen satelital Google Maps","validacion_fecha":"2026-08-27","criterio_visual":"Punto sobre borde construido, sin area abierta clara.","apto_visual":false},"geometry":{"type":"Point","coordinates":[-78.662303216,-1.677471938]}},{"type":"Feature","properties":{"target_platform":"PLATAFORMA J","selected_rank":2,"source_id":882,"codigo":"e80ad610","nombre":"Parque Bonilla Abarca","elemento":"Parque con gimnasio al aire libre","tipologia":"Zonal","estado":"Regular","gestion":"Público","source_lon":-78.6585409,"source_lat":-1.6735206,"tipo_propuesta":"Candidato a gimnasio al aire libre","prioridad_gimnasio":"Alta","criterio":"Validacion satelital: APTO. Cancha/parque con espacio disponible. Criterio previo: Preseleccion desde equipamientos recreativos publicos, no desde parques estrategicos. Validar en imagen satelital Google Maps y campo que exista area libre para instalar equipos.","validacion_satelital":"apto","validacion_fuente":"Revision visual con imagen satelital Google Maps","validacion_fecha":"2026-08-27","criterio_visual":"Cancha/parque con espacio disponible.","apto_visual":true},"geometry":{"type":"Point","coordinates":[-78.6585409,-1.6735206]}},{"type":"Feature","properties":{"target_platform":"PLATAFORMA Ñ","selected_rank":1,"source_id":916,"codigo":"f4126cfe","nombre":"Parque los shyris","elemento":"Parque con gimnasio al aire libre","tipologia":"Zonal","estado":"Bueno","gestion":"Público","source_lon":-78.658752871,"source_lat":-1.681148465,"tipo_propuesta":"Candidato a gimnasio al aire libre","prioridad_gimnasio":"Alta","criterio":"Validacion satelital: DESCARTADO. Punto en borde vial/construido. Criterio previo: Preseleccion desde equipamientos recreativos publicos, no desde parques estrategicos. Validar en imagen satelital Google Maps y campo que exista area libre para instalar equipos.","validacion_satelital":"descartado","validacion_fuente":"Revision visual con imagen satelital Google Maps","validacion_fecha":"2026-08-27","criterio_visual":"Punto en borde vial/construido.","apto_visual":false},"geometry":{"type":"Point","coordinates":[-78.658752871,-1.681148465]}},{"type":"Feature","properties":{"target_platform":"PLATAFORMA Ñ","selected_rank":2,"source_id":972,"codigo":"4a4cd349","nombre":"Parque barrio Primera Constituyente","elemento":"Parque con gimnasio al aire libre","tipologia":"Zonal","estado":"Bueno","gestion":"Público","source_lon":-78.6465107,"source_lat":-1.6851177,"tipo_propuesta":"Candidato a gimnasio al aire libre","prioridad_gimnasio":"Alta","criterio":"Validacion satelital: APTO. Parque/plaza con area libre visible. Criterio previo: Preseleccion desde equipamientos recreativos publicos, no desde parques estrategicos. Validar en imagen satelital Google Maps y campo que exista area libre para instalar equipos.","validacion_satelital":"apto","validacion_fuente":"Revision visual con imagen satelital Google Maps","validacion_fecha":"2026-08-27","criterio_visual":"Parque/plaza con area libre visible.","apto_visual":true},"geometry":{"type":"Point","coordinates":[-78.6465107,-1.6851177]}}]}