{
  "type": "FeatureCollection",
  "features": [
    {
      "type": "Feature",
      "geometry": {
        "type": "MultiLineString",
        "coordinates": [
          [
            [
              -78.65244559854396,
              -1.6726361922718342
            ],
            [
              -78.65193591399992,
              -1.6730821849999498
            ],
            [
              -78.65139458699991,
              -1.673551745999922
            ],
            [
              -78.6508018799999,
              -1.674045151999901
            ],
            [
              -78.65023486299992,
              -1.6745238839999437
            ],
            [
              -78.64999484099991,
              -1.674735635999927
            ],
            [
              -78.64961738399995,
              -1.6750869909999466
            ],
            [
              -78.64905971299993,
              -1.6755215189999184
            ],
            [
              -78.64575002599992,
              -1.6784615369999187
            ],
            [
              -78.64559092099995,
              -1.6782478109999523
            ],
            [
              -78.64446789699991,
              -1.6769051629999574
            ],
            [
              -78.64430816999993,
              -1.6767166589999012
            ]
          ],
          [
            [
              -78.64430816999993,
              -1.6767166589999012
            ],
            [
              -78.64545544799995,
              -1.675737550999942
            ],
            [
              -78.64446118799992,
              -1.6746215279999277
            ],
            [
              -78.64498266599992,
              -1.6741162119999464
            ],
            [
              -78.6451971859999,
              -1.6739060409999482
            ],
            [
              -78.64555215299993,
              -1.6736131279999442
            ],
            [
              -78.64588695999993,
              -1.67329540199995
            ],
            [
              -78.64620467999993,
              -1.6730098669999611
            ],
            [
              -78.64668607599992,
              -1.6726575909999672
            ],
            [
              -78.64727132799993,
              -1.6721685399999175
            ],
            [
              -78.64785348399994,
              -1.6716609189999139
            ],
            [
              -78.64841639483161,
              -1.6711716390977325
            ]
          ],
          [
            [
              -78.64430816999993,
              -1.6767166589999012
            ],
            [
              -78.64151278086149,
              -1.6734176608628142
            ]
          ],
          [
            [
              -78.64062561528368,
              -1.6799026634322416
            ],
            [
              -78.6407592349999,
              -1.67978439899992
            ],
            [
              -78.6418136179999,
              -1.67887362399994
            ],
            [
              -78.64248247799992,
              -1.6783195749999271
            ],
            [
              -78.64309250299993,
              -1.6777779069999554
            ],
            [
              -78.64372110699992,
              -1.6772176679999193
            ],
            [
              -78.64430816999993,
              -1.6767166589999012
            ]
          ]
        ]
      },
      "properties": {
        "source_id": 1,
        "codigo": "1",
        "route_id": "1",
        "nombre": "Línea 1 SANTA ANA - BELLAVISTA",
        "linea": "Línea 1 SANTA ANA - BELLAVISTA",
        "snippet": "Normal",
        "long_recor_km_attr": 21.170837,
        "longitud_original_m": 21180.18,
        "longitud_recortada_m": 3173.35,
        "segmentos_recortados": 4,
        "buffer_side_m": 200,
        "buffer_total_m": 400,
        "source_type": "transporte_intracantonal_recortado",
        "clip_reference": "contorno_cartografico_limite_plataforma_n_400m"
      }
    },
    {
      "type": "Feature",
      "geometry": {
        "type": "MultiLineString",
        "coordinates": [
          [
            [
              -78.63876788167906,
              -1.6766161726804631
            ],
            [
              -78.64587934411777,
              -1.6704272338543613
            ]
          ],
          [
            [
              -78.64354472275926,
              -1.685737049793953
            ],
            [
              -78.6430980799999,
              -1.6806587959999244
            ],
            [
              -78.64304147799993,
              -1.680464911999932
            ],
            [
              -78.64291205699993,
              -1.6804887359999083
            ],
            [
              -78.64279400099991,
              -1.6805785109999143
            ],
            [
              -78.6423650449999,
              -1.680573757999921
            ],
            [
              -78.6420382199999,
              -1.680241183999951
            ],
            [
              -78.64063715097565,
              -1.6785945492759222
            ]
          ],
          [
            [
              -78.64056106670078,
              -1.678637851891671
            ],
            [
              -78.64058259799992,
              -1.6786499299999573
            ],
            [
              -78.64103384799995,
              -1.6791764199999215
            ],
            [
              -78.64175827999992,
              -1.6800357849999141
            ],
            [
              -78.64230716899993,
              -1.6807180249999198
            ],
            [
              -78.64253615399991,
              -1.68076755899995
            ],
            [
              -78.64277673499993,
              -1.6806646979999293
            ],
            [
              -78.64287991499992,
              -1.6806459219999437
            ],
            [
              -78.64300982899994,
              -1.6816086349999135
            ],
            [
              -78.64334052705956,
              -1.6849546301141862
            ]
          ]
        ]
      },
      "properties": {
        "source_id": 10,
        "codigo": "10",
        "route_id": "10",
        "nombre": "Línea 10 SAN ANTONIO - MALLAS DEL CUARTEL",
        "linea": "Línea 10 SAN ANTONIO - MALLAS DEL CUARTEL",
        "snippet": "Normal",
        "long_recor_km_attr": 26.804151,
        "longitud_original_m": 26816.07,
        "longitud_recortada_m": 2851.15,
        "segmentos_recortados": 3,
        "buffer_side_m": 200,
        "buffer_total_m": 400,
        "source_type": "transporte_intracantonal_recortado",
        "clip_reference": "contorno_cartografico_limite_plataforma_n_400m"
      }
    },
    {
      "type": "Feature",
      "geometry": {
        "type": "MultiLineString",
        "coordinates": [
          [
            [
              -78.66155544014052,
              -1.673892916858374
            ],
            [
              -78.66080342799995,
              -1.6747260819999552
            ],
            [
              -78.65988327199995,
              -1.6757364289999215
            ],
            [
              -78.65956579499993,
              -1.6760776869999159
            ],
            [
              -78.65944917746569,
              -1.676214554178213
            ]
          ],
          [
            [
              -78.65618977349385,
              -1.680025702413641
            ],
            [
              -78.65599972096989,
              -1.680243658634612
            ]
          ],
          [
            [
              -78.64903258848776,
              -1.6855483951617931
            ],
            [
              -78.64888431912443,
              -1.685555944680424
            ]
          ]
        ]
      },
      "properties": {
        "source_id": 11,
        "codigo": "11A",
        "route_id": "11A",
        "nombre": "Línea 11A MACAJI",
        "linea": "Línea 11A MACAJI",
        "snippet": "Normal",
        "long_recor_km_attr": 26.063288,
        "longitud_original_m": 26074.72,
        "longitud_recortada_m": 396.38,
        "segmentos_recortados": 3,
        "buffer_side_m": 200,
        "buffer_total_m": 400,
        "source_type": "transporte_intracantonal_recortado",
        "clip_reference": "contorno_cartografico_limite_plataforma_n_400m"
      }
    },
    {
      "type": "Feature",
      "geometry": {
        "type": "MultiLineString",
        "coordinates": [
          [
            [
              -78.66155544014052,
              -1.673892916858374
            ],
            [
              -78.66080342799995,
              -1.6747260819999552
            ],
            [
              -78.65988327199995,
              -1.6757364289999215
            ],
            [
              -78.65956579499993,
              -1.6760776869999159
            ],
            [
              -78.65944917746569,
              -1.676214554178213
            ]
          ],
          [
            [
              -78.65618977349385,
              -1.680025702413641
            ],
            [
              -78.65599972096989,
              -1.680243658634612
            ]
          ],
          [
            [
              -78.64903258848776,
              -1.6855483951617931
            ],
            [
              -78.64888431912443,
              -1.685555944680424
            ]
          ]
        ]
      },
      "properties": {
        "source_id": 12,
        "codigo": "11B",
        "route_id": "11B",
        "nombre": "Línea 11B COMIL",
        "linea": "Línea 11B COMIL",
        "snippet": "Normal",
        "long_recor_km_attr": 22.617597,
        "longitud_original_m": 22627.6,
        "longitud_recortada_m": 396.38,
        "segmentos_recortados": 3,
        "buffer_side_m": 200,
        "buffer_total_m": 400,
        "source_type": "transporte_intracantonal_recortado",
        "clip_reference": "contorno_cartografico_limite_plataforma_n_400m"
      }
    },
    {
      "type": "Feature",
      "geometry": {
        "type": "MultiLineString",
        "coordinates": [
          [
            [
              -78.6595448050834,
              -1.6762819534682576
            ],
            [
              -78.66011448099994,
              -1.67568951299995
            ],
            [
              -78.66093596299993,
              -1.6747978699998984
            ],
            [
              -78.66129095199994,
              -1.6743452229999385
            ],
            [
              -78.66150258099992,
              -1.6741450589999478
            ],
            [
              -78.66163986469785,
              -1.6739725089985178
            ]
          ],
          [
            [
              -78.66155942388802,
              -1.673911014517255
            ],
            [
              -78.66117717399993,
              -1.674327595999949
            ],
            [
              -78.66046719499991,
              -1.6751157449999095
            ],
            [
              -78.65992105799995,
              -1.675719650999945
            ],
            [
              -78.6595029209999,
              -1.6761717279999253
            ],
            [
              -78.65946678811675,
              -1.6762145892990712
            ]
          ],
          [
            [
              -78.65883894785017,
              -1.6765815170208542
            ],
            [
              -78.65881124399993,
              -1.6765724629999526
            ],
            [
              -78.65829669699991,
              -1.675954757999931
            ],
            [
              -78.65788674999993,
              -1.675462480999954
            ],
            [
              -78.65730983799995,
              -1.6747694369999493
            ],
            [
              -78.65664004421158,
              -1.6739999068503741
            ]
          ],
          [
            [
              -78.65606418327417,
              -1.6744694037984602
            ],
            [
              -78.65806067499994,
              -1.6766529899999276
            ],
            [
              -78.6583366619999,
              -1.676395297999925
            ],
            [
              -78.65846696699992,
              -1.6762422399999153
            ],
            [
              -78.65880250141534,
              -1.6766512533173321
            ]
          ],
          [
            [
              -78.65540826051635,
              -1.6749796922796285
            ],
            [
              -78.65539709099994,
              -1.674989276999949
            ],
            [
              -78.65538750510086,
              -1.6749773716267815
            ]
          ]
        ]
      },
      "properties": {
        "source_id": 13,
        "codigo": "12  RN",
        "route_id": "12  RN",
        "nombre": "Línea 12A BATAN - SAN GERARDO",
        "linea": "Línea 12A BATAN - SAN GERARDO",
        "snippet": "Ruta Nocturna",
        "long_recor_km_attr": 21.866816,
        "longitud_original_m": 21876.62,
        "longitud_recortada_m": 1522.64,
        "segmentos_recortados": 5,
        "buffer_side_m": 200,
        "buffer_total_m": 400,
        "source_type": "transporte_intracantonal_recortado",
        "clip_reference": "contorno_cartografico_limite_plataforma_n_400m"
      }
    },
    {
      "type": "Feature",
      "geometry": {
        "type": "MultiLineString",
        "coordinates": [
          [
            [
              -78.65290679700928,
              -1.6731823067142308
            ],
            [
              -78.64908256799993,
              -1.6765790269999532
            ],
            [
              -78.6485840938432,
              -1.6759940226673045
            ]
          ],
          [
            [
              -78.6485840938432,
              -1.6759940226673045
            ],
            [
              -78.65244978493935,
              -1.6726410991063627
            ]
          ],
          [
            [
              -78.6485840938432,
              -1.6759940226673045
            ],
            [
              -78.64808946399997,
              -1.675413529999964
            ],
            [
              -78.64529465083541,
              -1.6778827940566703
            ]
          ],
          [
            [
              -78.64529465083541,
              -1.6778827940566703
            ],
            [
              -78.64577921499995,
              -1.6784268239999285
            ],
            [
              -78.6485840938432,
              -1.6759940226673045
            ]
          ],
          [
            [
              -78.64285023699995,
              -1.680573404999958
            ],
            [
              -78.64236711199993,
              -1.6806110919999406
            ],
            [
              -78.64219517899994,
              -1.6804190159999086
            ],
            [
              -78.64177040599992,
              -1.6798427849999416
            ],
            [
              -78.64268982899995,
              -1.679093634999958
            ],
            [
              -78.64361981899992,
              -1.6783278319999289
            ],
            [
              -78.64361116899994,
              -1.67831800099993
            ],
            [
              -78.64399853299994,
              -1.6780244879999409
            ],
            [
              -78.6447736749999,
              -1.6772978839999257
            ],
            [
              -78.64529465083541,
              -1.6778827940566703
            ]
          ],
          [
            [
              -78.64529465083541,
              -1.6778827940566703
            ],
            [
              -78.6452505179999,
              -1.6779217859999527
            ],
            [
              -78.64472772099992,
              -1.678347689999945
            ],
            [
              -78.64423573899995,
              -1.6787560189999364
            ],
            [
              -78.64410323599992,
              -1.6788771909999076
            ],
            [
              -78.64287303799995,
              -1.680002190999922
            ],
            [
              -78.64285925799993,
              -1.6800537939999431
            ],
            [
              -78.6428894519999,
              -1.6801248069999142
            ],
            [
              -78.64286991499995,
              -1.6802526319998998
            ],
            [
              -78.64288057099992,
              -1.6804603469999535
            ],
            [
              -78.64284682499994,
              -1.6805650919999398
            ],
            [
              -78.64285023699995,
              -1.680573404999958
            ]
          ],
          [
            [
              -78.64045422261745,
              -1.686048083592483
            ],
            [
              -78.64324699999992,
              -1.6836438819999486
            ],
            [
              -78.6432397609999,
              -1.6835335759999412
            ],
            [
              -78.64310625799993,
              -1.6814992279999539
            ],
            [
              -78.64304355799995,
              -1.6805438159999457
            ],
            [
              -78.64303350999995,
              -1.6805112769999384
            ],
            [
              -78.64300427199993,
              -1.6804796709999423
            ],
            [
              -78.64294721599992,
              -1.6804739939999467
            ],
            [
              -78.64290828499992,
              -1.680495463999926
            ],
            [
              -78.64288614799995,
              -1.6805132389999415
            ],
            [
              -78.64287602799993,
              -1.6805713939999074
            ],
            [
              -78.64285023699995,
              -1.680573404999958
            ]
          ],
          [
            [
              -78.64285023699995,
              -1.680573404999958
            ],
            [
              -78.64286730799995,
              -1.6806149969999111
            ],
            [
              -78.64293184799993,
              -1.6807793009999152
            ],
            [
              -78.64298536199993,
              -1.6813551179999429
            ],
            [
              -78.64306350999993,
              -1.682322678999918
            ],
            [
              -78.64315409199992,
              -1.6833097669999149
            ],
            [
              -78.64317362899993,
              -1.683689688999954
            ],
            [
              -78.64314566299993,
              -1.6836938819999432
            ],
            [
              -78.64313810699991,
              -1.6836950149999592
            ],
            [
              -78.64309192799993,
              -1.683680812999912
            ],
            [
              -78.64231334611122,
              -1.6843668998416441
            ]
          ],
          [
            [
              -78.64122624386091,
              -1.6853248525393096
            ],
            [
              -78.64065523304438,
              -1.6858280251656153
            ]
          ]
        ]
      },
      "properties": {
        "source_id": 15,
        "codigo": "13",
        "route_id": "13",
        "nombre": "Línea 13 SIXTO - 24 MAYO",
        "linea": "Línea 13 SIXTO - 24 MAYO",
        "snippet": "Normal",
        "long_recor_km_attr": 23.818191,
        "longitud_original_m": 23828.51,
        "longitud_recortada_m": 4664.82,
        "segmentos_recortados": 9,
        "buffer_side_m": 200,
        "buffer_total_m": 400,
        "source_type": "transporte_intracantonal_recortado",
        "clip_reference": "contorno_cartografico_limite_plataforma_n_400m"
      }
    },
    {
      "type": "Feature",
      "geometry": {
        "type": "MultiLineString",
        "coordinates": [
          [
            [
              -78.65288604661494,
              -1.6731558022428565
            ],
            [
              -78.65250984099993,
              -1.673507547999913
            ],
            [
              -78.65220029099993,
              -1.673786530999956
            ],
            [
              -78.6518158909999,
              -1.6741213109999042
            ],
            [
              -78.65181553899993,
              -1.6741216179999538
            ],
            [
              -78.65123611999991,
              -1.6746247489999249
            ],
            [
              -78.65071343799991,
              -1.675093946999935
            ],
            [
              -78.65039250299992,
              -1.6753655599999349
            ],
            [
              -78.65019120999995,
              -1.6755359189999197
            ],
            [
              -78.6501590389999,
              -1.6755631459999432
            ],
            [
              -78.64974546099995,
              -1.6759397729999328
            ],
            [
              -78.64941941899991,
              -1.6762415809999356
            ],
            [
              -78.64904643599994,
              -1.6765687519999262
            ],
            [
              -78.64877748299995,
              -1.676241580999939
            ],
            [
              -78.64860948423585,
              -1.6760316715164967
            ]
          ],
          [
            [
              -78.64860948423585,
              -1.6760316715164967
            ],
            [
              -78.65250813212678,
              -1.6727094872938593
            ]
          ],
          [
            [
              -78.64948145689226,
              -1.6828331473642069
            ],
            [
              -78.64875211099992,
              -1.6838153139999616
            ],
            [
              -78.64848513499993,
              -1.6841879109999276
            ],
            [
              -78.64818636399991,
              -1.6846071079999034
            ],
            [
              -78.64794017699995,
              -1.6849540669999197
            ],
            [
              -78.64764652304036,
              -1.685472764733483
            ]
          ],
          [
            [
              -78.64860948423585,
              -1.6760316715164967
            ],
            [
              -78.6485542019999,
              -1.6759625979999526
            ],
            [
              -78.64837024799994,
              -1.6757533609999147
            ],
            [
              -78.64808353399991,
              -1.675394487999939
            ],
            [
              -78.64806830999993,
              -1.6754109729999382
            ],
            [
              -78.64740861399993,
              -1.6759892289999236
            ],
            [
              -78.64584564199993,
              -1.677368924999934
            ],
            [
              -78.64551959999994,
              -1.677635225999947
            ],
            [
              -78.64530323899993,
              -1.677811580999959
            ],
            [
              -78.64559221999991,
              -1.6781657679999293
            ],
            [
              -78.64579771844163,
              -1.6784276608750954
            ]
          ],
          [
            [
              -78.64579771844163,
              -1.6784276608750954
            ],
            [
              -78.64860948423585,
              -1.6760316715164967
            ]
          ],
          [
            [
              -78.64579771844163,
              -1.6784276608750954
            ],
            [
              -78.64582202199995,
              -1.6784586339999275
            ],
            [
              -78.64629418599992,
              -1.6790203939999095
            ],
            [
              -78.64634529299991,
              -1.6790735029999204
            ],
            [
              -78.64660538999993,
              -1.6793437889999172
            ],
            [
              -78.64673907783327,
              -1.6794827141509128
            ]
          ],
          [
            [
              -78.64580504169801,
              -1.685628087959937
            ],
            [
              -78.64512917399992,
              -1.6851125789999128
            ],
            [
              -78.64364485699991,
              -1.6839788989999496
            ],
            [
              -78.64354082799991,
              -1.683914225999964
            ],
            [
              -78.6432896359999,
              -1.6838115099999487
            ],
            [
              -78.64327187499993,
              -1.6837671259998999
            ],
            [
              -78.6432312789999,
              -1.6832928579999626
            ],
            [
              -78.64319829399994,
              -1.6828236609999272
            ],
            [
              -78.6431399359999,
              -1.6823392469999545
            ],
            [
              -78.64312471199992,
              -1.6819892519999318
            ],
            [
              -78.64302575799991,
              -1.6806957899999657
            ],
            [
              -78.6430308329999,
              -1.6805968779999543
            ],
            [
              -78.64303086099994,
              -1.6805556599999236
            ],
            [
              -78.64299215399991,
              -1.6805148109999053
            ],
            [
              -78.6429584139999,
              -1.6805084219999422
            ],
            [
              -78.64291705199992,
              -1.680521803999907
            ],
            [
              -78.64290548399993,
              -1.680551008999935
            ],
            [
              -78.64279169299994,
              -1.680565174999912
            ],
            [
              -78.64239080099992,
              -1.6806361889999244
            ],
            [
              -78.64212184799993,
              -1.680357206999921
            ],
            [
              -78.64176662699992,
              -1.6798854729999504
            ],
            [
              -78.64274291099991,
              -1.679061259999917
            ],
            [
              -78.6435705749999,
              -1.6783642769999554
            ],
            [
              -78.64478490599993,
              -1.6773157349999281
            ],
            [
              -78.6457500809999,
              -1.6784682539999363
            ],
            [
              -78.64579771844163,
              -1.6784276608750954
            ]
          ]
        ]
      },
      "properties": {
        "source_id": 16,
        "codigo": "14 RN",
        "route_id": "14 RN",
        "nombre": "Línea 14 LIBERTAD - 24 MAYO",
        "linea": "Línea 14 LIBERTAD - 24 MAYO",
        "snippet": "Ruta Nocturna",
        "long_recor_km_attr": 30.705624,
        "longitud_original_m": 30719.05,
        "longitud_recortada_m": 4234.19,
        "segmentos_recortados": 7,
        "buffer_side_m": 200,
        "buffer_total_m": 400,
        "source_type": "transporte_intracantonal_recortado",
        "clip_reference": "contorno_cartografico_limite_plataforma_n_400m"
      }
    },
    {
      "type": "Feature",
      "geometry": {
        "type": "LineString",
        "coordinates": [
          [
            -78.64838171835525,
            -1.6711596821499493
          ],
          [
            -78.64734261199993,
            -1.6720972309999522
          ],
          [
            -78.64637077599991,
            -1.6710117469999146
          ],
          [
            -78.64590156640601,
            -1.6704237308692973
          ]
        ]
      },
      "properties": {
        "source_id": 17,
        "codigo": "15",
        "route_id": "15",
        "nombre": "Línea 15 ESPOCH - UNACH",
        "linea": "Línea 15 ESPOCH - UNACH",
        "snippet": "Normal",
        "long_recor_km_attr": 19.649437,
        "longitud_original_m": 19657.95,
        "longitud_recortada_m": 400.42,
        "segmentos_recortados": 1,
        "buffer_side_m": 200,
        "buffer_total_m": 400,
        "source_type": "transporte_intracantonal_recortado",
        "clip_reference": "contorno_cartografico_limite_plataforma_n_400m"
      }
    },
    {
      "type": "Feature",
      "geometry": {
        "type": "MultiLineString",
        "coordinates": [
          [
            [
              -78.65189888160228,
              -1.6822005165012022
            ],
            [
              -78.65287044899992,
              -1.6811172109999648
            ],
            [
              -78.65280448199991,
              -1.681043636999962
            ],
            [
              -78.65249067071603,
              -1.6806958507435423
            ]
          ],
          [
            [
              -78.65140134120144,
              -1.6792401813620028
            ],
            [
              -78.65178448799992,
              -1.6788954979999204
            ],
            [
              -78.6530937309999,
              -1.6778607259999427
            ],
            [
              -78.65353182899992,
              -1.6774321329999093
            ],
            [
              -78.6546466559999,
              -1.676513177999939
            ],
            [
              -78.65097666841211,
              -1.6719803841289849
            ]
          ],
          [
            [
              -78.6509360869736,
              -1.6719302620919985
            ],
            [
              -78.65047476340914,
              -1.6713604824861295
            ]
          ],
          [
            [
              -78.6502477321706,
              -1.6710800767710412
            ],
            [
              -78.65001902099199,
              -1.6707975961743828
            ]
          ],
          [
            [
              -78.64947782152372,
              -1.6828327402359482
            ],
            [
              -78.6494806259999,
              -1.6828367539999283
            ],
            [
              -78.64948438149122,
              -1.6828334231025877
            ]
          ],
          [
            [
              -78.64839063814885,
              -1.6711643629144668
            ],
            [
              -78.64449929699992,
              -1.6745668109999268
            ],
            [
              -78.6468976619999,
              -1.677470150999913
            ],
            [
              -78.64759275299991,
              -1.6783040179999542
            ],
            [
              -78.647810955964,
              -1.6785657852258729
            ]
          ]
        ]
      },
      "properties": {
        "source_id": 18,
        "codigo": "16",
        "route_id": "16",
        "nombre": "Línea 16 CALPI - LA PAZ",
        "linea": "Línea 16 CALPI - LA PAZ",
        "snippet": "Normal",
        "long_recor_km_attr": 28.603431,
        "longitud_original_m": 28615.41,
        "longitud_recortada_m": 2614.59,
        "segmentos_recortados": 6,
        "buffer_side_m": 200,
        "buffer_total_m": 400,
        "source_type": "transporte_intracantonal_recortado",
        "clip_reference": "contorno_cartografico_limite_plataforma_n_400m"
      }
    },
    {
      "type": "Feature",
      "geometry": {
        "type": "MultiLineString",
        "coordinates": [
          [
            [
              -78.64692169298073,
              -1.6704962872421363
            ],
            [
              -78.65114764599991,
              -1.675625647999938
            ],
            [
              -78.65337578981408,
              -1.67372548238976
            ]
          ],
          [
            [
              -78.65288992692635,
              -1.673162621823111
            ],
            [
              -78.65128882999994,
              -1.674584383999957
            ],
            [
              -78.6511867509999,
              -1.6744495329999085
            ],
            [
              -78.6484741413751,
              -1.6711591121007272
            ]
          ]
        ]
      },
      "properties": {
        "source_id": 19,
        "codigo": "17",
        "route_id": "17",
        "nombre": "Línea 17 PREMATUROS -MERCADOS - LAGUNA DE PADUA",
        "linea": "Línea 17 PREMATUROS -MERCADOS - LAGUNA DE PADUA",
        "snippet": "Normal",
        "long_recor_km_attr": 26.406891,
        "longitud_original_m": 26418.52,
        "longitud_recortada_m": 1791.63,
        "segmentos_recortados": 2,
        "buffer_side_m": 200,
        "buffer_total_m": 400,
        "source_type": "transporte_intracantonal_recortado",
        "clip_reference": "contorno_cartografico_limite_plataforma_n_400m"
      }
    },
    {
      "type": "Feature",
      "geometry": {
        "type": "MultiLineString",
        "coordinates": [
          [
            [
              -78.65245360729715,
              -1.672645579255822
            ],
            [
              -78.6521174959999,
              -1.6729428359999434
            ],
            [
              -78.65197269999993,
              -1.6730819419999545
            ],
            [
              -78.65189952899993,
              -1.6731395289999154
            ],
            [
              -78.65137623299995,
              -1.673572117999927
            ],
            [
              -78.65077768999993,
              -1.674061625999911
            ],
            [
              -78.65023015899993,
              -1.6745409359999115
            ],
            [
              -78.6496758259999,
              -1.6750474399999522
            ],
            [
              -78.6479976469999,
              -1.676534840999923
            ],
            [
              -78.64698685899992,
              -1.6773620779999303
            ],
            [
              -78.64665925299994,
              -1.677654610999927
            ],
            [
              -78.64575468999993,
              -1.6784264009999048
            ],
            [
              -78.64429839499991,
              -1.6767229999999194
            ]
          ],
          [
            [
              -78.64429839499991,
              -1.6767229999999194
            ],
            [
              -78.64546362399994,
              -1.6756939479999486
            ],
            [
              -78.64447598399994,
              -1.6746191209999197
            ],
            [
              -78.64838190673339,
              -1.6711597967231404
            ]
          ],
          [
            [
              -78.64429839499991,
              -1.6767229999999194
            ],
            [
              -78.64333671199995,
              -1.67559813699996
            ],
            [
              -78.64150412927069,
              -1.6734240157674043
            ]
          ],
          [
            [
              -78.6406382341107,
              -1.6799119311980966
            ],
            [
              -78.64187525699992,
              -1.6788508069999553
            ],
            [
              -78.64258513199991,
              -1.6782360369999256
            ],
            [
              -78.64429839499991,
              -1.6767229999999194
            ]
          ]
        ]
      },
      "properties": {
        "source_id": 2,
        "codigo": "2 RN",
        "route_id": "2 RN",
        "nombre": "Línea 2 LA LOLITA - MAYORISTA",
        "linea": "Línea 2 LA LOLITA - MAYORISTA",
        "snippet": "Ruta Nocturna",
        "long_recor_km_attr": 21.676929,
        "longitud_original_m": 21686.48,
        "longitud_recortada_m": 3163.44,
        "segmentos_recortados": 4,
        "buffer_side_m": 200,
        "buffer_total_m": 400,
        "source_type": "transporte_intracantonal_recortado",
        "clip_reference": "contorno_cartografico_limite_plataforma_n_400m"
      }
    },
    {
      "type": "Feature",
      "geometry": {
        "type": "MultiLineString",
        "coordinates": [
          [
            [
              -78.65289053254135,
              -1.6731634988300397
            ],
            [
              -78.65134364699992,
              -1.6745549729999445
            ],
            [
              -78.65072125799992,
              -1.6750730399999152
            ],
            [
              -78.65010923999995,
              -1.6755824759999258
            ],
            [
              -78.64905198799994,
              -1.6765821759999453
            ],
            [
              -78.6485927789999,
              -1.6760283169999186
            ]
          ],
          [
            [
              -78.6485927789999,
              -1.6760283169999186
            ],
            [
              -78.64923793399993,
              -1.6754590269999377
            ],
            [
              -78.65041910899993,
              -1.6743547039999331
            ],
            [
              -78.65089841299994,
              -1.6739864129999047
            ],
            [
              -78.65181268599991,
              -1.6731622339999683
            ],
            [
              -78.65193650956147,
              -1.6730576051196955
            ]
          ],
          [
            [
              -78.6485927789999,
              -1.6760283169999186
            ],
            [
              -78.6480730859999,
              -1.6754015069999497
            ],
            [
              -78.64685694999991,
              -1.6764748429999292
            ],
            [
              -78.6464261619999,
              -1.6768458669999322
            ],
            [
              -78.64528619410622,
              -1.6778276825065124
            ]
          ],
          [
            [
              -78.64528619410622,
              -1.6778276825065124
            ],
            [
              -78.6453955529999,
              -1.6779363789999673
            ],
            [
              -78.64577740399994,
              -1.6784171589999428
            ],
            [
              -78.6485927789999,
              -1.6760283169999186
            ]
          ],
          [
            [
              -78.64177483799995,
              -1.6799059399999174
            ],
            [
              -78.6447384359999,
              -1.6772959599999246
            ],
            [
              -78.64495078599992,
              -1.6774943059999203
            ],
            [
              -78.64528619410622,
              -1.6778276825065124
            ]
          ],
          [
            [
              -78.64528619410622,
              -1.6778276825065124
            ],
            [
              -78.64526873199992,
              -1.6778427219999215
            ],
            [
              -78.64523876599992,
              -1.6778527059999488
            ],
            [
              -78.6450414869999,
              -1.678039915999924
            ],
            [
              -78.64477564599991,
              -1.6782766019999225
            ],
            [
              -78.64480325999995,
              -1.6782520149999358
            ],
            [
              -78.6445844989999,
              -1.6784467849999476
            ],
            [
              -78.64367801599991,
              -1.6792355609999352
            ],
            [
              -78.64313531899995,
              -1.679714203999943
            ],
            [
              -78.6428166359999,
              -1.6800140779999382
            ],
            [
              -78.64234647199993,
              -1.6804681159999229
            ],
            [
              -78.64227458999994,
              -1.6804212199999073
            ],
            [
              -78.64217470199992,
              -1.6803663059999352
            ],
            [
              -78.64188752399991,
              -1.6800492979999102
            ],
            [
              -78.64177483799995,
              -1.6799059399999174
            ]
          ],
          [
            [
              -78.64177483799995,
              -1.6799059399999174
            ],
            [
              -78.6416128329999,
              -1.6796998399999505
            ],
            [
              -78.64131316899996,
              -1.6793628629999355
            ],
            [
              -78.6410769179999,
              -1.6790621239999342
            ],
            [
              -78.64074579999993,
              -1.6786485539999418
            ],
            [
              -78.64063620540522,
              -1.6785960654310195
            ]
          ],
          [
            [
              -78.64066835131207,
              -1.6799924642648916
            ],
            [
              -78.64128819699994,
              -1.679442738999904
            ],
            [
              -78.64158493199994,
              -1.6798591309999498
            ],
            [
              -78.64167736999991,
              -1.6799917779999238
            ],
            [
              -78.64177483799995,
              -1.6799059399999174
            ]
          ]
        ]
      },
      "properties": {
        "source_id": 3,
        "codigo": "3 RN",
        "route_id": "3 RN",
        "nombre": "Línea 3 SANTA ANA- TROJE",
        "linea": "Línea 3 SANTA ANA- TROJE",
        "snippet": "Ruta Nocturna",
        "long_recor_km_attr": 29.037839,
        "longitud_original_m": 29050.69,
        "longitud_recortada_m": 3578.13,
        "segmentos_recortados": 8,
        "buffer_side_m": 200,
        "buffer_total_m": 400,
        "source_type": "transporte_intracantonal_recortado",
        "clip_reference": "contorno_cartografico_limite_plataforma_n_400m"
      }
    },
    {
      "type": "Feature",
      "geometry": {
        "type": "MultiLineString",
        "coordinates": [
          [
            [
              -78.64066648956714,
              -1.6799580539976415
            ],
            [
              -78.64125631799993,
              -1.6794283959999317
            ],
            [
              -78.64162600899994,
              -1.6798922899999333
            ],
            [
              -78.64187658899993,
              -1.6801860259999482
            ],
            [
              -78.64198100499993,
              -1.680310409999944
            ],
            [
              -78.64207602899995,
              -1.6804426709999276
            ],
            [
              -78.64226809999991,
              -1.6806095129999183
            ],
            [
              -78.6424467569999,
              -1.6807556119999214
            ],
            [
              -78.64278193899992,
              -1.680654448999922
            ],
            [
              -78.64282080099991,
              -1.6806578479999548
            ],
            [
              -78.64287958699992,
              -1.6806820069999222
            ],
            [
              -78.64296336799993,
              -1.6807019379999073
            ],
            [
              -78.64301017499992,
              -1.6806922869999392
            ],
            [
              -78.64304356499991,
              -1.6806524679999455
            ],
            [
              -78.64307062199993,
              -1.6806122829999623
            ],
            [
              -78.64311250599991,
              -1.6805811519999505
            ],
            [
              -78.64320893099995,
              -1.6805482679999415
            ],
            [
              -78.64333256099991,
              -1.6805135139999194
            ],
            [
              -78.64366660399992,
              -1.6803876849999064
            ],
            [
              -78.6439163249999,
              -1.680245856999926
            ],
            [
              -78.64407491799994,
              -1.680109896999906
            ],
            [
              -78.6442445639999,
              -1.6799755879999279
            ],
            [
              -78.64457931099992,
              -1.6796308349999605
            ],
            [
              -78.64515502699993,
              -1.6789126399999084
            ],
            [
              -78.64937282599993,
              -1.6752147359999237
            ],
            [
              -78.65118887499995,
              -1.6737111939999108
            ],
            [
              -78.65194281037112,
              -1.6730559030179155
            ]
          ],
          [
            [
              -78.6483783480619,
              -1.671157632308851
            ],
            [
              -78.6478446079999,
              -1.6716290479999407
            ],
            [
              -78.6461872399999,
              -1.673065971999959
            ],
            [
              -78.64523385099994,
              -1.671980407999909
            ],
            [
              -78.64349835099995,
              -1.6734633189999564
            ],
            [
              -78.6429487449999,
              -1.6739092929999528
            ],
            [
              -78.64205881655559,
              -1.6728690179745391
            ]
          ]
        ]
      },
      "properties": {
        "source_id": 4,
        "codigo": "4 RN",
        "route_id": "4 RN",
        "nombre": "Línea 4 LICAN - PARQUE INDUSTRIAL",
        "linea": "Línea 4 LICAN - PARQUE INDUSTRIAL",
        "snippet": "Ruta Nocturna",
        "long_recor_km_attr": 21.316923,
        "longitud_original_m": 21326.23,
        "longitud_recortada_m": 2630.82,
        "segmentos_recortados": 2,
        "buffer_side_m": 200,
        "buffer_total_m": 400,
        "source_type": "transporte_intracantonal_recortado",
        "clip_reference": "contorno_cartografico_limite_plataforma_n_400m"
      }
    },
    {
      "type": "Feature",
      "geometry": {
        "type": "MultiLineString",
        "coordinates": [
          [
            [
              -78.64066917311217,
              -1.6799792916319614
            ],
            [
              -78.6412548539999,
              -1.6794537289999323
            ],
            [
              -78.64128637499995,
              -1.6794912789999403
            ],
            [
              -78.64200030799994,
              -1.680332212999922
            ],
            [
              -78.64219505099993,
              -1.6805927959999316
            ],
            [
              -78.64237613799992,
              -1.6807608529999198
            ],
            [
              -78.64247339999991,
              -1.6807432629999501
            ],
            [
              -78.64268201199991,
              -1.6806962689999592
            ],
            [
              -78.64276673599994,
              -1.6806804989999453
            ],
            [
              -78.64282504899995,
              -1.6806796469999146
            ],
            [
              -78.64289771599994,
              -1.6807302249999292
            ],
            [
              -78.6429805219999,
              -1.6807497639999283
            ],
            [
              -78.64307995099995,
              -1.6807137979999476
            ],
            [
              -78.6430907429999,
              -1.6806256289999093
            ],
            [
              -78.64321527999994,
              -1.6805689379999047
            ],
            [
              -78.64359477499994,
              -1.6804586029999138
            ],
            [
              -78.64394875399996,
              -1.6802972909999339
            ],
            [
              -78.64425361199994,
              -1.6800602599999468
            ],
            [
              -78.64464662399992,
              -1.6795763769999303
            ],
            [
              -78.6452251039999,
              -1.6789281729999177
            ],
            [
              -78.64574434199994,
              -1.6784975299999652
            ],
            [
              -78.64582922599993,
              -1.6783464729999182
            ],
            [
              -78.6470197459999,
              -1.6773770039999356
            ],
            [
              -78.64828955299994,
              -1.6762329589999452
            ],
            [
              -78.6490923639999,
              -1.6755116169999296
            ],
            [
              -78.64998046499994,
              -1.6747297619999149
            ],
            [
              -78.65008522799991,
              -1.6746422629999596
            ],
            [
              -78.65073571499994,
              -1.6740852799999282
            ],
            [
              -78.65116923499994,
              -1.6737056709999352
            ],
            [
              -78.65177498699991,
              -1.6731976019999575
            ],
            [
              -78.65193015900552,
              -1.6730589019348
            ]
          ],
          [
            [
              -78.64840694489158,
              -1.6711699113929215
            ],
            [
              -78.64830719999992,
              -1.671259048999955
            ],
            [
              -78.64618018699991,
              -1.6730910559999235
            ],
            [
              -78.64518909199995,
              -1.6719866769999456
            ],
            [
              -78.64375143599995,
              -1.673200497999922
            ],
            [
              -78.64289043999992,
              -1.6738906569999592
            ],
            [
              -78.64216150199991,
              -1.6730223129999409
            ],
            [
              -78.6420529942195,
              -1.672893832034195
            ]
          ]
        ]
      },
      "properties": {
        "source_id": 5,
        "codigo": "5",
        "route_id": "5",
        "nombre": "Línea 5 CORONA REAL - BELLAVISTA",
        "linea": "Línea 5 CORONA REAL - BELLAVISTA",
        "snippet": "Normal",
        "long_recor_km_attr": 30.690715,
        "longitud_original_m": 30703.76,
        "longitud_recortada_m": 2638.86,
        "segmentos_recortados": 2,
        "buffer_side_m": 200,
        "buffer_total_m": 400,
        "source_type": "transporte_intracantonal_recortado",
        "clip_reference": "contorno_cartografico_limite_plataforma_n_400m"
      }
    },
    {
      "type": "Feature",
      "geometry": {
        "type": "MultiLineString",
        "coordinates": [
          [
            [
              -78.65220109252346,
              -1.6728414735895527
            ],
            [
              -78.65221737299993,
              -1.6728285539999248
            ],
            [
              -78.65235808727451,
              -1.672705430635987
            ]
          ],
          [
            [
              -78.64066667240651,
              -1.6800014177896656
            ],
            [
              -78.64126275799993,
              -1.6794871209999158
            ],
            [
              -78.64213477399994,
              -1.6805233749999475
            ],
            [
              -78.6423811709999,
              -1.6807406339999622
            ],
            [
              -78.6425247979999,
              -1.6807401469999443
            ],
            [
              -78.64280201199995,
              -1.6806988269999592
            ],
            [
              -78.64288702899995,
              -1.6807054639999177
            ],
            [
              -78.64295465899994,
              -1.6807299339999402
            ],
            [
              -78.64304609399994,
              -1.6807093049999355
            ],
            [
              -78.64306602399995,
              -1.6805741129999172
            ],
            [
              -78.64310673799991,
              -1.680552177999909
            ],
            [
              -78.64345617099991,
              -1.680483468999902
            ],
            [
              -78.64384976299993,
              -1.6803167209999437
            ],
            [
              -78.6440897729999,
              -1.6801586389999585
            ],
            [
              -78.64435539399994,
              -1.6799086269999213
            ],
            [
              -78.64483689499991,
              -1.679328804999961
            ],
            [
              -78.64488721299995,
              -1.6792689239999314
            ],
            [
              -78.64581555299992,
              -1.6783879869999516
            ],
            [
              -78.64634449999994,
              -1.677912344999924
            ],
            [
              -78.64686588899993,
              -1.677526785999924
            ],
            [
              -78.64724537799992,
              -1.6771971059999389
            ],
            [
              -78.64797074099994,
              -1.6765323539999668
            ],
            [
              -78.64919780499991,
              -1.6754486259999342
            ],
            [
              -78.64964914799992,
              -1.6750286229999534
            ],
            [
              -78.64999600699991,
              -1.674767773999917
            ],
            [
              -78.6502620469999,
              -1.6745208999999432
            ],
            [
              -78.65065376899992,
              -1.6741640099999147
            ],
            [
              -78.65133457199994,
              -1.6735689959999183
            ],
            [
              -78.65167809999991,
              -1.673256500999918
            ],
            [
              -78.65192631493433,
              -1.6730595269331383
            ]
          ],
          [
            [
              -78.64841017849216,
              -1.6711706304305276
            ],
            [
              -78.64793707299992,
              -1.6715854879999508
            ],
            [
              -78.64721727399991,
              -1.6722532019999228
            ],
            [
              -78.6461920889999,
              -1.6731290649999608
            ],
            [
              -78.64528352299993,
              -1.6719745259999306
            ],
            [
              -78.64467204599993,
              -1.6725084229999505
            ],
            [
              -78.64382085099993,
              -1.6732307089999356
            ],
            [
              -78.6429165959999,
              -1.6739721399999397
            ],
            [
              -78.64204573099305,
              -1.6729084836591417
            ]
          ]
        ]
      },
      "properties": {
        "source_id": 6,
        "codigo": "6 RN",
        "route_id": "6 RN",
        "nombre": "Línea 6 MIRAFLORES - MAYORISTA",
        "linea": "Línea 6 MIRAFLORES - MAYORISTA",
        "snippet": "Ruta Nocturna",
        "long_recor_km_attr": 24.323656,
        "longitud_original_m": 24334.25,
        "longitud_recortada_m": 2674.93,
        "segmentos_recortados": 3,
        "buffer_side_m": 200,
        "buffer_total_m": 400,
        "source_type": "transporte_intracantonal_recortado",
        "clip_reference": "contorno_cartografico_limite_plataforma_n_400m"
      }
    },
    {
      "type": "Feature",
      "geometry": {
        "type": "MultiLineString",
        "coordinates": [
          [
            [
              -78.65444162803168,
              -1.6738315779593054
            ],
            [
              -78.6515385159999,
              -1.6763720909999633
            ],
            [
              -78.6500249529999,
              -1.6776429919999618
            ],
            [
              -78.64808134999993,
              -1.6754097599999287
            ],
            [
              -78.64721183799992,
              -1.6761799739999144
            ],
            [
              -78.64269802399991,
              -1.6800760419999337
            ],
            [
              -78.6426031119999,
              -1.6801777959999538
            ],
            [
              -78.64233871699992,
              -1.6803984129999139
            ],
            [
              -78.64226349199993,
              -1.680397394999951
            ],
            [
              -78.6417831999999,
              -1.679908847999907
            ],
            [
              -78.64141846499992,
              -1.6794136699999234
            ],
            [
              -78.64127926399993,
              -1.679371317999942
            ],
            [
              -78.6411273519999,
              -1.6794709789999123
            ],
            [
              -78.64084758299994,
              -1.6796648019999416
            ],
            [
              -78.64060809047707,
              -1.6798945683407027
            ]
          ],
          [
            [
              -78.64142423353063,
              -1.6782736397977727
            ],
            [
              -78.64233032599992,
              -1.6774107919999277
            ],
            [
              -78.64264385399991,
              -1.6771032019999625
            ],
            [
              -78.64364830499994,
              -1.676255877999949
            ],
            [
              -78.6443508399999,
              -1.6756523049999217
            ],
            [
              -78.64496047799992,
              -1.675112570999944
            ],
            [
              -78.64552726799991,
              -1.674657446999963
            ],
            [
              -78.64612313299995,
              -1.6740921499999182
            ],
            [
              -78.6477931419999,
              -1.6727242939999234
            ],
            [
              -78.64681195599991,
              -1.6715508699999158
            ],
            [
              -78.64743677299992,
              -1.671079222999928
            ],
            [
              -78.6483245259999,
              -1.6721682109999227
            ],
            [
              -78.64996891735001,
              -1.6707548171518307
            ]
          ]
        ]
      },
      "properties": {
        "source_id": 7,
        "codigo": "7",
        "route_id": "7",
        "nombre": "Línea 7 INMACULADA - TAMBO",
        "linea": "Línea 7 INMACULADA - TAMBO",
        "snippet": "Ruta Nocturna",
        "long_recor_km_attr": 32.283598,
        "longitud_original_m": 32156.34,
        "longitud_recortada_m": 3675.89,
        "segmentos_recortados": 2,
        "buffer_side_m": 200,
        "buffer_total_m": 400,
        "source_type": "transporte_intracantonal_recortado",
        "clip_reference": "contorno_cartografico_limite_plataforma_n_400m"
      }
    },
    {
      "type": "Feature",
      "geometry": {
        "type": "MultiLineString",
        "coordinates": [
          [
            [
              -78.66541306455963,
              -1.682930702634251
            ],
            [
              -78.66559520619562,
              -1.6829886730847123
            ]
          ],
          [
            [
              -78.66489794976928,
              -1.6828777773538677
            ],
            [
              -78.6649440648173,
              -1.6828784359067928
            ]
          ],
          [
            [
              -78.6619949043525,
              -1.680694563234908
            ],
            [
              -78.66196146599992,
              -1.6806271489999105
            ],
            [
              -78.66180304399995,
              -1.6802954619999402
            ],
            [
              -78.66149048199992,
              -1.679724102999954
            ],
            [
              -78.66122715799992,
              -1.6792468999999446
            ],
            [
              -78.6610087919999,
              -1.678838174999956
            ],
            [
              -78.66089532799992,
              -1.6786498619999368
            ],
            [
              -78.66074760999993,
              -1.6784123309999432
            ],
            [
              -78.66069913244993,
              -1.6783421843458273
            ]
          ],
          [
            [
              -78.66060424027658,
              -1.6784123537146771
            ],
            [
              -78.66067138499994,
              -1.6784940599999414
            ],
            [
              -78.66080419899993,
              -1.6786942839999575
            ],
            [
              -78.66116344999995,
              -1.6793580679999351
            ],
            [
              -78.6617404289999,
              -1.6804484159999316
            ],
            [
              -78.66190211370095,
              -1.6807549909570338
            ]
          ],
          [
            [
              -78.65881944866817,
              -1.6766013127500607
            ],
            [
              -78.65880372599992,
              -1.676597675999918
            ],
            [
              -78.6587459239999,
              -1.6765356179999467
            ],
            [
              -78.65857251599994,
              -1.676304505999944
            ],
            [
              -78.65836913599993,
              -1.6760541349999623
            ],
            [
              -78.65821927699996,
              -1.6758658209999517
            ],
            [
              -78.65807155899995,
              -1.6756946279999092
            ],
            [
              -78.65785961599994,
              -1.6754356969999549
            ],
            [
              -78.65755133499994,
              -1.6750697689999505
            ],
            [
              -78.65722806799994,
              -1.674678162999957
            ],
            [
              -78.65664654674083,
              -1.6739970153221289
            ]
          ],
          [
            [
              -78.65601857411673,
              -1.674497974477417
            ],
            [
              -78.65634114199992,
              -1.6748495869999254
            ],
            [
              -78.65645998499991,
              -1.674979805999951
            ],
            [
              -78.65649155599993,
              -1.6749580419999621
            ],
            [
              -78.65686659199991,
              -1.674643559999938
            ],
            [
              -78.65702825499994,
              -1.674506993999956
            ],
            [
              -78.65703424199995,
              -1.6745156989999246
            ],
            [
              -78.6577560099999,
              -1.6753590339999411
            ],
            [
              -78.65832645699993,
              -1.6760424069999587
            ],
            [
              -78.65865304899995,
              -1.6764678829999269
            ],
            [
              -78.65880246645341,
              -1.6766519509566826
            ]
          ],
          [
            [
              -78.65341120013073,
              -1.6737282702812903
            ],
            [
              -78.65341996099994,
              -1.6737381989999491
            ],
            [
              -78.65344264617259,
              -1.6737183243925178
            ]
          ],
          [
            [
              -78.65289848937411,
              -1.6731739664036047
            ],
            [
              -78.6523191199999,
              -1.6736766769999445
            ],
            [
              -78.6516875719999,
              -1.6742266379999444
            ],
            [
              -78.65125723199992,
              -1.6745740459999159
            ],
            [
              -78.65002373399994,
              -1.673153204999947
            ],
            [
              -78.64988395499995,
              -1.6730021359999196
            ],
            [
              -78.6493989679999,
              -1.6723519949999237
            ],
            [
              -78.64923142299995,
              -1.6721570259999146
            ],
            [
              -78.64908426699992,
              -1.671933770999948
            ],
            [
              -78.64895128899991,
              -1.671772925999962
            ],
            [
              -78.64891946847366,
              -1.6717333757019028
            ]
          ],
          [
            [
              -78.64891946847366,
              -1.6717333757019028
            ],
            [
              -78.64893860699993,
              -1.6717112069999323
            ],
            [
              -78.64965980199992,
              -1.6710482289999435
            ],
            [
              -78.64999503583623,
              -1.6707850372879154
            ]
          ],
          [
            [
              -78.64891946847366,
              -1.6717333757019028
            ],
            [
              -78.6488949859999,
              -1.671702945999917
            ],
            [
              -78.64884486699992,
              -1.6716559669999338
            ],
            [
              -78.64871341199995,
              -1.671510214999948
            ],
            [
              -78.64842538999994,
              -1.6711824759999547
            ],
            [
              -78.64841659635741,
              -1.6711716717974356
            ]
          ],
          [
            [
              -78.64693847938487,
              -1.6704899282205794
            ],
            [
              -78.64712775299995,
              -1.670701266999911
            ],
            [
              -78.64740774699993,
              -1.6711068639999103
            ],
            [
              -78.64769825099995,
              -1.6714114239999296
            ],
            [
              -78.64838091699994,
              -1.672230079999899
            ],
            [
              -78.64884987599993,
              -1.6717950889999453
            ],
            [
              -78.64891931799991,
              -1.6717335499999344
            ],
            [
              -78.64891946847366,
              -1.6717333757019028
            ]
          ]
        ]
      },
      "properties": {
        "source_id": 8,
        "codigo": "8 RN",
        "route_id": "8 RN",
        "nombre": "Línea 8 LAS ABRAS - YARUQUIES",
        "linea": "Línea 8 LAS ABRAS - YARUQUIES",
        "snippet": "Ruta Nocturna",
        "long_recor_km_attr": 18.862334,
        "longitud_original_m": 18870.71,
        "longitud_recortada_m": 2689.29,
        "segmentos_recortados": 11,
        "buffer_side_m": 200,
        "buffer_total_m": 400,
        "source_type": "transporte_intracantonal_recortado",
        "clip_reference": "contorno_cartografico_limite_plataforma_n_400m"
      }
    },
    {
      "type": "Feature",
      "geometry": {
        "type": "MultiLineString",
        "coordinates": [
          [
            [
              -78.64586069538171,
              -1.6704258238036578
            ],
            [
              -78.64527793799994,
              -1.6709691749999227
            ],
            [
              -78.64431978922933,
              -1.6698142264069624
            ]
          ],
          [
            [
              -78.64538791413572,
              -1.6699224608673162
            ],
            [
              -78.6453894089999,
              -1.6699244989999273
            ],
            [
              -78.64540323337417,
              -1.6699122152219905
            ]
          ]
        ]
      },
      "properties": {
        "source_id": 9,
        "codigo": "9",
        "route_id": "9",
        "nombre": "Línea 9 SAN MARTIN - SAN JOSE",
        "linea": "Línea 9 SAN MARTIN - SAN JOSE",
        "snippet": "Normal",
        "long_recor_km_attr": 27.468829,
        "longitud_original_m": 27480.73,
        "longitud_recortada_m": 257.21,
        "segmentos_recortados": 2,
        "buffer_side_m": 200,
        "buffer_total_m": 400,
        "source_type": "transporte_intracantonal_recortado",
        "clip_reference": "contorno_cartografico_limite_plataforma_n_400m"
      }
    }
  ]
}