{"type": "FeatureCollection", "features": [{"type": "Feature", "properties": {"nombre": "Isocrona 15 minutos desde equipamientos colindantes a PLATAFORMA Ñ", "target_platform": "PLATAFORMA Ñ", "neighbor_platforms": "PLATAFORMA K, PLATAFORMA Q, PLATAFORMA O, PLATAFORMA P, PLATAFORMA N, PLATAFORMA J", "distance_m": 1250, "mode": "walking", "equipamientos_origen": 285, "nodos_alcanzables": 9683}, "geometry": {"type": "Polygon", "coordinates": [[[-78.68978368407404, -1.6867351002503088], [-78.66787540833636, -1.6518284269930439], [-78.6303855895887, -1.6550602889778832], [-78.61746066735998, -1.6826884811651275], [-78.62612279971151, -1.6974582017006778], [-78.64183852784855, -1.7020566995672899], [-78.68978368407404, -1.6867351002503088]], [[-78.6206903505731, -1.6794060599797385], [-78.62515190377466, -1.6816581826904358], [-78.62066643828565, -1.6818759787676831], [-78.6206903505731, -1.6794060599797385]], [[-78.62499481690044, -1.6822440792958218], [-78.62204372270219, -1.687145878348141], [-78.62134841392242, -1.6825021916310203], [-78.62499481690044, -1.6822440792958218]], [[-78.62220730632946, -1.6878744539827606], [-78.62338993851077, -1.6895783867675815], [-78.62260744570602, -1.6898421125705758], [-78.62220730632946, -1.6878744539827606]], [[-78.62415827443981, -1.691177345259188], [-78.62265293624297, -1.6905095475359968], [-78.62353869294155, -1.690130763721786], [-78.62415827443981, -1.691177345259188]], [[-78.62305204858957, -1.6757688882486024], [-78.62465388732052, -1.6760579867082686], [-78.62322874447958, -1.6764290611550567], [-78.62305204858957, -1.6757688882486024]], [[-78.62432998441507, -1.6786564766110283], [-78.62342316250053, -1.6780182781034931], [-78.62446231497665, -1.678191801944948], [-78.62432998441507, -1.6786564766110283]], [[-78.62421756866273, -1.6863000769115368], [-78.62581912695418, -1.6871967761981905], [-78.62475604143097, -1.687727557902073], [-78.62421756866273, -1.6863000769115368]], [[-78.6250529832038, -1.6896097555862442], [-78.62478101079842, -1.690998230013978], [-78.62420176566206, -1.6899559171296419], [-78.6250529832038, -1.6896097555862442]], [[-78.62595498988509, -1.6786700096864], [-78.62429789388425, -1.677211122757646], [-78.62494252672545, -1.6765439156692152], [-78.62595498988509, -1.6786700096864]], [[-78.62456517590802, -1.6886429195516313], [-78.62456655949944, -1.6891880207904668], [-78.62430855854555, -1.6888448732330916], [-78.62456517590802, -1.6886429195516313]], [[-78.62661687589681, -1.6733586936541016], [-78.62557814741596, -1.6762811256805248], [-78.6252636936103, -1.6711615026024107], [-78.62661687589681, -1.6733586936541016]], [[-78.62615474071146, -1.6673869203848048], [-78.6254628592446, -1.6705369930767695], [-78.62564799882374, -1.6671920522795598], [-78.62615474071146, -1.6673869203848048]], [[-78.62674562942564, -1.6872529874002848], [-78.62589902977885, -1.6886405333579795], [-78.62549756569544, -1.6881567327599936], [-78.62674562942564, -1.6872529874002848]], [[-78.62570003096468, -1.6820664335209157], [-78.6263549385293, -1.684644695743379], [-78.62599102809577, -1.6848857813336648], [-78.62570003096468, -1.6820664335209157]], [[-78.62703949664608, -1.6764087122249998], [-78.62598685875184, -1.6775658088380527], [-78.62678916681986, -1.6761611027680818], [-78.62703949664608, -1.6764087122249998]], [[-78.62649228197775, -1.6682899348411084], [-78.62733384814827, -1.6678098098778986], [-78.62695754263643, -1.6690515962297445], [-78.62649228197775, -1.6682899348411084]], [[-78.62677926275316, -1.6709789936210686], [-78.62855670504744, -1.6697988157104506], [-78.62787896435117, -1.6718789910670406], [-78.62677926275316, -1.6709789936210686]], [[-78.62762990781415, -1.6794023601252357], [-78.62696887870976, -1.6794022592703104], [-78.62720388815795, -1.6790365149716342], [-78.62762990781415, -1.6794023601252357]], [[-78.62714190837625, -1.6844124408208345], [-78.627339283719, -1.6839632559044109], [-78.62741112626877, -1.6843721633406818], [-78.62714190837625, -1.6844124408208345]], [[-78.6291043024658, -1.6909623917421421], [-78.62849444264705, -1.693254813655128], [-78.62705175911708, -1.6913545272598087], [-78.6291043024658, -1.6909623917421421]], [[-78.62761779576483, -1.694345549272594], [-78.62744743757752, -1.6951529815918733], [-78.62710091037263, -1.6949519289924286], [-78.62761779576483, -1.694345549272594]], [[-78.62898915102666, -1.661770469405694], [-78.6282772329976, -1.6625934826412487], [-78.62759111925502, -1.6617073894172867], [-78.62898915102666, -1.661770469405694]], [[-78.62783903358961, -1.6831331167172778], [-78.62771225529973, -1.6825758121745347], [-78.62833525151952, -1.6826965808062129], [-78.62783903358961, -1.6831331167172778]], [[-78.62808321872186, -1.6674409790687186], [-78.62789169985919, -1.6690437513107161], [-78.62766362700458, -1.6689267521557518], [-78.62808321872186, -1.6674409790687186]], [[-78.62810796414179, -1.6880662577764982], [-78.62810477651037, -1.6888993776289951], [-78.62774439294701, -1.6882528325109416], [-78.62810796414179, -1.6880662577764982]], [[-78.62857429495847, -1.6765187301519922], [-78.62789396704206, -1.6774094746578323], [-78.62815823629971, -1.6764214279012317], [-78.62857429495847, -1.6765187301519922]], [[-78.62861399811356, -1.6833129673644023], [-78.62806606228203, -1.6840258526740828], [-78.62785872545741, -1.6838256784218992], [-78.62861399811356, -1.6833129673644023]], [[-78.62851455070256, -1.6862431311400374], [-78.62846134366922, -1.6871358540664156], [-78.6280165880799, -1.6865745877746678], [-78.62851455070256, -1.6862431311400374]], [[-78.62841159044477, -1.6668137990927192], [-78.62872632303616, -1.666468071720387], [-78.62871832162591, -1.6668217922956325], [-78.62841159044477, -1.6668137990927192]], [[-78.62846551299499, -1.6818528122571177], [-78.62979890583453, -1.6833181235213948], [-78.6295784661293, -1.683518946311621], [-78.62846551299499, -1.6818528122571177]], [[-78.62952665115718, -1.6710949080580761], [-78.62853962429593, -1.6723642217254293], [-78.62885764388392, -1.6708797825246646], [-78.62952665115718, -1.6710949080580761]], [[-78.62884581629709, -1.6752565673451871], [-78.62931168303228, -1.6765682129725787], [-78.6285962604604, -1.675278394283079], [-78.62884581629709, -1.6752565673451871]], [[-78.6305297924095, -1.688448229600564], [-78.62983607378814, -1.690646789061237], [-78.62868980509298, -1.6904561373197486], [-78.6305297924095, -1.688448229600564]], [[-78.6290572014583, -1.6801622733348454], [-78.62925830772826, -1.6806812813438474], [-78.62882321414047, -1.6805083930748297], [-78.6290572014583, -1.6801622733348454]], [[-78.62894774720738, -1.6789680532312912], [-78.62959996207913, -1.6788758098491097], [-78.62909313601192, -1.6792424294257027], [-78.62894774720738, -1.6789680532312912]], [[-78.63083094458128, -1.6678487770359054], [-78.63112192348161, -1.6706731166414743], [-78.62902589994601, -1.6702854045160251], [-78.63083094458128, -1.6678487770359054]], [[-78.62959103272044, -1.6642600523012967], [-78.63069756707483, -1.6672197657598389], [-78.62966250464947, -1.6669183240452086], [-78.62959103272044, -1.6642600523012967]], [[-78.62966055360894, -1.6736660630786042], [-78.62970864877056, -1.6743895814463434], [-78.62937898016297, -1.6742205191572075], [-78.62966055360894, -1.6736660630786042]], [[-78.62958517503708, -1.6871338569737302], [-78.63030869249171, -1.6872301185539706], [-78.62972329597797, -1.6875034412773873], [-78.62958517503708, -1.6871338569737302]], [[-78.63071489308038, -1.6612536486124074], [-78.63068018940903, -1.6637031046824133], [-78.62970947498117, -1.6636340839683137], [-78.63071489308038, -1.6612536486124074]], [[-78.63118923771343, -1.6585269058104555], [-78.63013162930575, -1.6600303316853748], [-78.63026539781326, -1.6584751426625952], [-78.63118923771343, -1.6585269058104555]], [[-78.63043901116654, -1.6878474036609337], [-78.63042337692578, -1.6884135250063506], [-78.6301653987325, -1.687969966243234], [-78.63043901116654, -1.6878474036609337]], [[-78.6307541672618, -1.671276976302862], [-78.63028472831324, -1.6716190293383029], [-78.63029027944548, -1.6710594451794907], [-78.6307541672618, -1.671276976302862]], [[-78.63077597529457, -1.6789286794624145], [-78.63022994225427, -1.6788172697378323], [-78.63037185458747, -1.6779612706038094], [-78.63077597529457, -1.6789286794624145]], [[-78.63206524011466, -1.6792902778447583], [-78.63064843870211, -1.6804238056263072], [-78.63027712465602, -1.6801415556589308], [-78.63206524011466, -1.6792902778447583]], [[-78.63033007323477, -1.6812781466472342], [-78.63079492419807, -1.6814029504149135], [-78.63048199747581, -1.6816614318059353], [-78.63033007323477, -1.6812781466472342]], [[-78.6304942188791, -1.6822758485700502], [-78.63197125653234, -1.6829242723766762], [-78.63041080546222, -1.6831454325988249], [-78.6304942188791, -1.6822758485700502]], [[-78.63052272835135, -1.6838150696766243], [-78.63126359497626, -1.6843986080173816], [-78.63046989387122, -1.6844767542633665], [-78.63052272835135, -1.6838150696766243]], [[-78.63095371415977, -1.6774424692810317], [-78.6320468657207, -1.6786878873754505], [-78.63137381959487, -1.678911872981026], [-78.63095371415977, -1.6774424692810317]], [[-78.63107355611359, -1.6744184516114498], [-78.63136264930604, -1.674193880880825], [-78.63133611938301, -1.6744649899451045], [-78.63107355611359, -1.6744184516114498]], [[-78.63158553305485, -1.6709743016971947], [-78.6319242793318, -1.6716913820559252], [-78.6311665808907, -1.6719913203762664], [-78.63158553305485, -1.6709743016971947]], [[-78.63239926716284, -1.6806284431231684], [-78.63153778412637, -1.6814972630308116], [-78.63127552823757, -1.6810250021406858], [-78.63239926716284, -1.6806284431231684]], [[-78.63187228465671, -1.662645884503246], [-78.63166565518108, -1.663172983555009], [-78.6314637332179, -1.6628835602470018], [-78.63187228465671, -1.662645884503246]], [[-78.63256154923442, -1.6657351447140099], [-78.63261245606483, -1.6673381204035866], [-78.63156101787155, -1.6671372287757906], [-78.63256154923442, -1.6657351447140099]], [[-78.6321807233113, -1.6562305351623547], [-78.63215855121933, -1.6570984076799748], [-78.63185058908219, -1.657036610996715], [-78.6321807233113, -1.6562305351623547]], [[-78.63208504099362, -1.658533372997779], [-78.63209688565892, -1.658016284187519], [-78.6323612117066, -1.65831035447336], [-78.63208504099362, -1.658533372997779]], [[-78.6324567922939, -1.671974742187298], [-78.63285013384528, -1.6726510872978728], [-78.6321529091433, -1.672394824469056], [-78.6324567922939, -1.671974742187298]], [[-78.63245421964034, -1.6590048919395117], [-78.63282478761165, -1.6594818357306098], [-78.63224948056663, -1.6596493664516587], [-78.63245421964034, -1.6590048919395117]], [[-78.63276677746089, -1.683251835845777], [-78.63255067166193, -1.6840224104788692], [-78.63217122642257, -1.683541446555177], [-78.63276677746089, -1.683251835845777]], [[-78.63232422286157, -1.6696244154442874], [-78.63253385111591, -1.6692037901425927], [-78.63263494707127, -1.6694907481137944], [-78.63232422286157, -1.6696244154442874]], [[-78.63365482002423, -1.669389834396746], [-78.63398282301748, -1.6723428609122644], [-78.6322507950437, -1.670632702566967], [-78.63365482002423, -1.669389834396746]], [[-78.63236579311972, -1.6615476852341498], [-78.63322480861615, -1.660857349221832], [-78.63282159014427, -1.661845160260281], [-78.63236579311972, -1.6615476852341498]], [[-78.63333064721661, -1.6754882853627555], [-78.63589846620913, -1.6777681725900242], [-78.63256987844788, -1.6785241246369336], [-78.63333064721661, -1.6754882853627555]], [[-78.63258001100816, -1.66429826836839], [-78.63280616575152, -1.6646981704075274], [-78.63253795582231, -1.6647352884260516], [-78.63258001100816, -1.66429826836839]], [[-78.63278185709827, -1.662574106000131], [-78.63286604755405, -1.6632833034388441], [-78.63255676256532, -1.6627017477715524], [-78.63278185709827, -1.662574106000131]], [[-78.63277067359894, -1.6552612068268286], [-78.63286704763439, -1.6558196087441763], [-78.63257430855327, -1.6556911250906718], [-78.63277067359894, -1.6552612068268286]], [[-78.63260768673246, -1.6574208182678238], [-78.63391012855627, -1.6559729881260687], [-78.63275284900824, -1.6577154186863903], [-78.63260768673246, -1.6574208182678238]], [[-78.63280677826344, -1.6791215659964835], [-78.63413259247771, -1.6794843105880937], [-78.63288558467717, -1.6797439109837495], [-78.63280677826344, -1.6791215659964835]], [[-78.6329676370159, -1.673122802794548], [-78.63301915882155, -1.6727247372096377], [-78.63319278840217, -1.672948036454579], [-78.6329676370159, -1.673122802794548]], [[-78.63302317860214, -1.6941137374243176], [-78.6331453262934, -1.6944781359882597], [-78.63290787371312, -1.6943479721515053], [-78.63302317860214, -1.6941137374243176]], [[-78.6333017185509, -1.6684923845670985], [-78.63315464098224, -1.669034767241838], [-78.63295277217235, -1.6688352672027746], [-78.6333017185509, -1.6684923845670985]], [[-78.63343874920359, -1.6649821431207463], [-78.63330500109141, -1.6655652564532506], [-78.63306187398209, -1.6651722364175774], [-78.63343874920359, -1.6649821431207463]], [[-78.6334500985415, -1.6679852632538812], [-78.63319397884048, -1.6682896874339743], [-78.63314943287006, -1.6680098439759437], [-78.6334500985415, -1.6679852632538812]], [[-78.63397690113334, -1.6872073436886375], [-78.63404761581528, -1.6881309700878906], [-78.63353300664339, -1.6878188204654632], [-78.63397690113334, -1.6872073436886375]], [[-78.63434455777971, -1.6850320858482122], [-78.63407687357073, -1.6857394418931222], [-78.6337943788227, -1.6853679129258574], [-78.63434455777971, -1.6850320858482122]], [[-78.63420814722637, -1.6599716612611657], [-78.63452884922344, -1.6610457711027502], [-78.63388696812724, -1.6606441801821987], [-78.63420814722637, -1.6599716612611657]], [[-78.63408328284876, -1.6636818242111984], [-78.63488573865477, -1.66357937719527], [-78.6342987141226, -1.664142218017849], [-78.63408328284876, -1.6636818242111984]], [[-78.63454238035155, -1.6750237042082492], [-78.63423929311638, -1.674769077685662], [-78.63468818844748, -1.6746444910051521], [-78.63454238035155, -1.6750237042082492]], [[-78.63422316023116, -1.6565367159565227], [-78.6351346708755, -1.6558524988534702], [-78.63436406220148, -1.656749471573301], [-78.63422316023116, -1.6565367159565227]], [[-78.63451263884173, -1.6849403783237153], [-78.63480478466417, -1.6846449766658949], [-78.63478211026666, -1.6849380021781064], [-78.63451263884173, -1.6849403783237153]], [[-78.63471320118846, -1.6621822809391191], [-78.63494643423067, -1.6624649291654992], [-78.63468983282434, -1.6624515536102915], [-78.63471320118846, -1.6621822809391191]], [[-78.63464631463253, -1.678759013935255], [-78.63514792370769, -1.6787397868508984], [-78.63491833800029, -1.6790014268658209], [-78.63464631463253, -1.678759013935255]], [[-78.63538015990356, -1.6610898546110922], [-78.6350608965998, -1.6616003098870404], [-78.6351249118258, -1.661113080955043], [-78.63538015990356, -1.6610898546110922]], [[-78.63578565982054, -1.655890362499933], [-78.63587397751928, -1.6568773806133494], [-78.63527727470147, -1.6567183030315185], [-78.63578565982054, -1.655890362499933]], [[-78.63584647054276, -1.6783594630964709], [-78.6357226515233, -1.6790584419236303], [-78.63537029065851, -1.6785090553050375], [-78.63584647054276, -1.6783594630964709]], [[-78.63591313443902, -1.660451328071482], [-78.63626151708436, -1.661308840788175], [-78.63571607841679, -1.6606108499995413], [-78.63591313443902, -1.660451328071482]], [[-78.63722634485106, -1.659857461064784], [-78.6364872410987, -1.6598989940162976], [-78.63678654881214, -1.6595044391203675], [-78.63722634485106, -1.659857461064784]], [[-78.63730694100015, -1.670902014767575], [-78.63721974509215, -1.672042560940175], [-78.63666535283994, -1.6713377417853126], [-78.63730694100015, -1.670902014767575]], [[-78.63743590501844, -1.6677959431498945], [-78.63732276698762, -1.668517784703464], [-78.63672979617247, -1.6679443723216865], [-78.63743590501844, -1.6677959431498945]], [[-78.63729880197488, -1.6799165383655457], [-78.63701576503544, -1.6802246489309571], [-78.63698579442779, -1.67992802206542], [-78.63729880197488, -1.6799165383655457]], [[-78.63724035240013, -1.6591243303778676], [-78.63781134104892, -1.658794422949585], [-78.63758602464587, -1.6593062092273254], [-78.63724035240013, -1.6591243303778676]], [[-78.63753479183174, -1.6941283858023715], [-78.63819860665065, -1.6949368281446229], [-78.63733850163112, -1.695090140719004], [-78.63753479183174, -1.6941283858023715]], [[-78.63734901161344, -1.696645535448747], [-78.63799126801797, -1.6962028436319352], [-78.63758190474401, -1.6968253549753773], [-78.63734901161344, -1.696645535448747]], [[-78.63793194097498, -1.6929094920804464], [-78.63759376332592, -1.693089950933665], [-78.63765888486077, -1.6928199528059609], [-78.63793194097498, -1.6929094920804464]], [[-78.6378893327019, -1.678552786307333], [-78.63799460115543, -1.6780501110371795], [-78.63825912772461, -1.6784116675656444], [-78.6378893327019, -1.678552786307333]], [[-78.63973574429389, -1.6952015301702397], [-78.63921683347401, -1.698301887959354], [-78.63794732571782, -1.6974076057719854], [-78.63973574429389, -1.6952015301702397]], [[-78.63809327265245, -1.6572326595533893], [-78.63870683732472, -1.6576592779499548], [-78.63815339816554, -1.6581220634825682], [-78.63809327265245, -1.6572326595533893]], [[-78.63842793040813, -1.6939087780050242], [-78.63866505853447, -1.6942963982741461], [-78.63826956014925, -1.694201154517667], [-78.63842793040813, -1.6939087780050242]], [[-78.63867278870605, -1.679703189263828], [-78.6387108516421, -1.680253150470314], [-78.6384251859239, -1.679850982810409], [-78.63867278870605, -1.679703189263828]], [[-78.63975241851008, -1.6925294201591137], [-78.63964060823056, -1.6942100824454875], [-78.63885270924742, -1.6927964807155589], [-78.63975241851008, -1.6925294201591137]], [[-78.63960771268042, -1.6874866525415202], [-78.63909761423938, -1.6875707913261166], [-78.63940276546576, -1.687279386253314], [-78.63960771268042, -1.6874866525415202]], [[-78.63941420488565, -1.6631465954502513], [-78.63939055428202, -1.6635912577934453], [-78.63918601899441, -1.6632957618493116], [-78.63941420488565, -1.6631465954502513]], [[-78.63957952731012, -1.6789153112926818], [-78.639311653434, -1.6791893932718793], [-78.63930896080456, -1.6789154372736992], [-78.63957952731012, -1.6789153112926818]], [[-78.64238908995436, -1.6898908076863195], [-78.64214263929124, -1.6920448652231135], [-78.63961577921107, -1.6915441819220693], [-78.64238908995436, -1.6898908076863195]], [[-78.64052742864087, -1.6811725849528676], [-78.63990346230183, -1.6819155847359815], [-78.6397076233031, -1.6812330130445883], [-78.64052742864087, -1.6811725849528676]], [[-78.6402794562435, -1.6879286721712266], [-78.64095692010302, -1.689817578696879], [-78.63989865193098, -1.6882125457263464], [-78.6402794562435, -1.6879286721712266]], [[-78.64069836165405, -1.6941606640196107], [-78.6412912120275, -1.6956316602580501], [-78.640183703438, -1.6946700464207207], [-78.64069836165405, -1.6941606640196107]], [[-78.64080011597478, -1.6806397572162535], [-78.64165779441471, -1.6805856401711763], [-78.64058453382704, -1.681162393846838], [-78.64080011597478, -1.6806397572162535]], [[-78.64117152181437, -1.6836839540478485], [-78.64118875825066, -1.6848753883115288], [-78.64056812823227, -1.6841298782819931], [-78.64117152181437, -1.6836839540478485]], [[-78.64131215230192, -1.6556049707370462], [-78.64090774427345, -1.6556610348850247], [-78.6411005854393, -1.6554183611348348], [-78.64131215230192, -1.6556049707370462]], [[-78.64184666921791, -1.6868863699596823], [-78.64148279935786, -1.6879390335238158], [-78.64096900701084, -1.6875281474125903], [-78.64184666921791, -1.6868863699596823]], [[-78.6411433214965, -1.6577898604418837], [-78.64168570195032, -1.6577789373039427], [-78.64134354886006, -1.6581148480680634], [-78.6411433214965, -1.6577898604418837]], [[-78.64332499076178, -1.693877687836299], [-78.64173929232345, -1.6938017723943304], [-78.64206907833109, -1.692748684942132], [-78.64332499076178, -1.693877687836299]], [[-78.64205440568965, -1.6957455855904284], [-78.6421464889502, -1.6962633359976822], [-78.64181279438209, -1.6959484933713571], [-78.64205440568965, -1.6957455855904284]], [[-78.64218390340596, -1.6579061773531851], [-78.64248736119089, -1.6584156815690825], [-78.64196797181296, -1.6587454780290063], [-78.64218390340596, -1.6579061773531851]], [[-78.6442476467957, -1.6616003483863926], [-78.64287508539046, -1.6617024788787436], [-78.6432544569553, -1.6609882578783906], [-78.6442476467957, -1.6616003483863926]], [[-78.64375181968288, -1.696336445342581], [-78.6433444461265, -1.6967677886292991], [-78.64337594456538, -1.696296241060063], [-78.64375181968288, -1.696336445342581]], [[-78.6445732994213, -1.6800888710494273], [-78.64449293288811, -1.6822035828011161], [-78.64349519074278, -1.6822108710629449], [-78.6445732994213, -1.6800888710494273]], [[-78.6444531799435, -1.694409839508168], [-78.64434215523741, -1.696159081284508], [-78.64385746403306, -1.6943217087786748], [-78.6444531799435, -1.694409839508168]], [[-78.64433077249709, -1.686720370277713], [-78.6441731269825, -1.6887802774837182], [-78.64393912221098, -1.686745324171227], [-78.64433077249709, -1.686720370277713]], [[-78.64437931287851, -1.6918844802190378], [-78.64475147801234, -1.691789307828675], [-78.64462484189603, -1.6920142736348598], [-78.64437931287851, -1.6918844802190378]], [[-78.64499035474246, -1.6652981383132106], [-78.64564542451862, -1.6665406087260977], [-78.64451307128024, -1.665734529536229], [-78.64499035474246, -1.6652981383132106]], [[-78.64489911429884, -1.6905320178443166], [-78.64601540583206, -1.6913665655941086], [-78.64573705305932, -1.691622262975288], [-78.64489911429884, -1.6905320178443166]], [[-78.64515052074775, -1.694418295332582], [-78.64526963136305, -1.6953088953283988], [-78.64491462516307, -1.6949477882429356], [-78.64515052074775, -1.694418295332582]], [[-78.64519803730444, -1.6962324360405256], [-78.64524328652088, -1.696722617976513], [-78.64494415171023, -1.6965126573057812], [-78.64519803730444, -1.6962324360405256]], [[-78.64562751314108, -1.6827632274446995], [-78.64724824481982, -1.6853637758886302], [-78.6450972942846, -1.6833773626991473], [-78.64562751314108, -1.6827632274446995]], [[-78.64553831293388, -1.693435576183741], [-78.6452237906544, -1.6938608283597523], [-78.64528290214112, -1.6934017269518369], [-78.64553831293388, -1.693435576183741]], [[-78.64538702083865, -1.6922119563090883], [-78.6456598045615, -1.6926303467692234], [-78.64533542751865, -1.692587715346923], [-78.64538702083865, -1.6922119563090883]], [[-78.64744225610175, -1.6673759144598388], [-78.647817112754, -1.6674562720203934], [-78.64759433051506, -1.6676027743292028], [-78.64744225610175, -1.6673759144598388]], [[-78.64915785394686, -1.667753836044656], [-78.6491624758701, -1.6682187835957973], [-78.64893359681169, -1.6679586968183686], [-78.64915785394686, -1.667753836044656]], [[-78.65287885736778, -1.6857981238951887], [-78.65048037686535, -1.6881406168007307], [-78.64992703553288, -1.6859867301498277], [-78.65287885736778, -1.6857981238951887]], [[-78.65092301186296, -1.6792652209549777], [-78.65137206318313, -1.681207533873517], [-78.65021677215994, -1.6797785519373392], [-78.65092301186296, -1.6792652209549777]], [[-78.6505290910447, -1.683417728542235], [-78.65065672811603, -1.6839690023753113], [-78.65026685801786, -1.6836039276112398], [-78.6505290910447, -1.683417728542235]], [[-78.652657682531, -1.6896826293921319], [-78.6526454957723, -1.6906554217428227], [-78.65200793135506, -1.6900824474290694], [-78.652657682531, -1.6896826293921319]], [[-78.6522785059995, -1.6679660228693787], [-78.65247700172283, -1.668310355293643], [-78.65218731569884, -1.6682330370685228], [-78.6522785059995, -1.6679660228693787]], [[-78.65280692344682, -1.6788488563542432], [-78.6526736220272, -1.679284505773042], [-78.65244920530218, -1.6789613998540216], [-78.65280692344682, -1.6788488563542432]], [[-78.65572140988864, -1.656794264051169], [-78.65467637395955, -1.6625249888562166], [-78.65290458467574, -1.661272304968005], [-78.65572140988864, -1.656794264051169]], [[-78.65336716153195, -1.6893563295722427], [-78.65360611284011, -1.6890565002439106], [-78.65363667532974, -1.6893321600503024], [-78.65336716153195, -1.6893563295722427]], [[-78.65396454397793, -1.6839994839489727], [-78.65346494514003, -1.6840975747329534], [-78.65374835521578, -1.6837849456460752], [-78.65396454397793, -1.6839994839489727]], [[-78.65380908110964, -1.6627760394166875], [-78.65392975606251, -1.6635032129475793], [-78.65350587357572, -1.6632120911783328], [-78.65380908110964, -1.6627760394166875]], [[-78.65457002579485, -1.6863649880787224], [-78.65507186262124, -1.6872838340816676], [-78.65375249500619, -1.6879027122373054], [-78.65457002579485, -1.6863649880787224]], [[-78.65514782270076, -1.6879274925999075], [-78.65475132843117, -1.6891661568290468], [-78.65418009433826, -1.6884995872716915], [-78.65514782270076, -1.6879274925999075]], [[-78.6547513992988, -1.6713375449498937], [-78.65485128149152, -1.6709072923474844], [-78.65500961769816, -1.6711761205075066], [-78.6547513992988, -1.6713375449498937]], [[-78.65572854286945, -1.6818540925714867], [-78.6549108902449, -1.6823730920301119], [-78.65550173347414, -1.6816639974254186], [-78.65572854286945, -1.6818540925714867]], [[-78.65598499303356, -1.6851821625451175], [-78.65589621635606, -1.6858218662675373], [-78.65564632324042, -1.685772718063714], [-78.65598499303356, -1.6851821625451175]], [[-78.65663429561141, -1.6838981783747058], [-78.65684147305613, -1.6845918003516582], [-78.65627368551165, -1.6844716720696749], [-78.65663429561141, -1.6838981783747058]], [[-78.6568623697821, -1.6758231658458795], [-78.65787052996372, -1.6775626259388532], [-78.65661351163118, -1.675854770466723], [-78.6568623697821, -1.6758231658458795]], [[-78.65714102912224, -1.667553405017495], [-78.65700567480619, -1.6671125426340547], [-78.65729141844997, -1.667293626960716], [-78.65714102912224, -1.667553405017495]], [[-78.65787714496143, -1.6812621143511466], [-78.65732116075439, -1.6816207818624882], [-78.65704824793588, -1.6807892329368912], [-78.65787714496143, -1.6812621143511466]], [[-78.65703484213817, -1.6851190140522265], [-78.65859507061953, -1.6845791884671988], [-78.65719563155804, -1.6856154117914963], [-78.65703484213817, -1.6851190140522265]], [[-78.65844838971299, -1.679791456075365], [-78.65832736888211, -1.6810904203183055], [-78.65753719839998, -1.6802356464497543], [-78.65844838971299, -1.679791456075365]], [[-78.65811330359186, -1.6831436836285079], [-78.65850699446628, -1.6834658778949305], [-78.65777065495057, -1.6837250888506898], [-78.65811330359186, -1.6831436836285079]], [[-78.65913386982571, -1.6771858998760991], [-78.65893921330279, -1.679397259413916], [-78.65792975996, -1.678625337773073], [-78.65913386982571, -1.6771858998760991]], [[-78.65844984569001, -1.687445064215133], [-78.65881748638424, -1.6875847581149745], [-78.65856622740561, -1.6877040851883949], [-78.65844984569001, -1.687445064215133]], [[-78.65924089751894, -1.6634828865108435], [-78.65865480368218, -1.6636121470739136], [-78.65908076392303, -1.6632827209220933], [-78.65924089751894, -1.6634828865108435]], [[-78.66020849509675, -1.6856148677554579], [-78.66113890837802, -1.687464605918245], [-78.65913298147736, -1.6868552589383456], [-78.66020849509675, -1.6856148677554579]], [[-78.65983958586675, -1.6685354301896032], [-78.65981129903311, -1.6690427499670548], [-78.6595304230051, -1.6688079766857447], [-78.65983958586675, -1.6685354301896032]], [[-78.66060149291528, -1.6649863534480223], [-78.66009202641237, -1.6670199976037592], [-78.6595844413062, -1.6657329395640144], [-78.66060149291528, -1.6649863534480223]], [[-78.65999085603639, -1.6690558947009206], [-78.66027247590458, -1.6696124966642671], [-78.65984354369878, -1.669632661733736], [-78.65999085603639, -1.6690558947009206]], [[-78.66042078838758, -1.684402361952168], [-78.6617388105537, -1.6853476101576612], [-78.6600345494669, -1.6848827277174823], [-78.66042078838758, -1.684402361952168]], [[-78.66111091054535, -1.6724220232616183], [-78.66209942743514, -1.6726025895673116], [-78.66146434736244, -1.6733260175918585], [-78.66111091054535, -1.6724220232616183]], [[-78.66212060650567, -1.6830608355971108], [-78.66216587097749, -1.6836804329082877], [-78.66170942990684, -1.6834365816264822], [-78.66212060650567, -1.6830608355971108]], [[-78.662069368521, -1.6794401087486528], [-78.66183721411777, -1.6798365302772982], [-78.6617725696432, -1.6794525086623946], [-78.662069368521, -1.6794401087486528]], [[-78.66481452372531, -1.6865402585642078], [-78.66183095852125, -1.6875312570089325], [-78.66209599645032, -1.6861236894982607], [-78.66481452372531, -1.6865402585642078]], [[-78.66202175038717, -1.6752363371544137], [-78.66265472264611, -1.6749362037905837], [-78.66248285450641, -1.675301871685798], [-78.66202175038717, -1.6752363371544137]], [[-78.66209364837775, -1.6773184503412468], [-78.66248930595692, -1.6775348070711522], [-78.6621486094716, -1.677633365434348], [-78.66209364837775, -1.6773184503412468]], [[-78.66260289941195, -1.684787853433448], [-78.6641919929448, -1.6859810965853463], [-78.66231622466302, -1.685385633931388], [-78.66260289941195, -1.684787853433448]], [[-78.66246102089062, -1.655105284828226], [-78.66321310907495, -1.65543026806569], [-78.66284257955705, -1.6556593866822238], [-78.66246102089062, -1.655105284828226]], [[-78.66668235982962, -1.6661731429810234], [-78.66378376543234, -1.668353090563353], [-78.66275813538611, -1.6676406380448254], [-78.66668235982962, -1.6661731429810234]], [[-78.66280203204215, -1.680005582680834], [-78.66414629173163, -1.6816656001587291], [-78.66325158721625, -1.6820574701510524], [-78.66280203204215, -1.680005582680834]], [[-78.66323256071516, -1.665672261854589], [-78.66331719940376, -1.6662724962303466], [-78.66285309606636, -1.6659027203950578], [-78.66323256071516, -1.665672261854589]], [[-78.66373751100606, -1.6584479945270205], [-78.66308621815797, -1.6600518016811605], [-78.66349271478823, -1.658337912110045], [-78.66373751100606, -1.6584479945270205]], [[-78.66395847167391, -1.6555564957745104], [-78.6638819227811, -1.6565983134029194], [-78.66333378446284, -1.6561825880447107], [-78.66395847167391, -1.6555564957745104]], [[-78.66531704510778, -1.6781172627582344], [-78.6641305557759, -1.678537942440548], [-78.66381572487501, -1.6778262715327432], [-78.66531704510778, -1.6781172627582344]], [[-78.6640822280453, -1.6641192395525022], [-78.66408515993552, -1.6646550441617718], [-78.66384776777755, -1.6642428472688051], [-78.6640822280453, -1.6641192395525022]], [[-78.66482930573372, -1.6753028316267944], [-78.66615025880465, -1.6778537604221135], [-78.66384528675074, -1.6770285956924074], [-78.66482930573372, -1.6753028316267944]], [[-78.6728675933856, -1.6757096508275704], [-78.67416015604432, -1.6867026910493843], [-78.66429516263956, -1.6824181611559779], [-78.67319784114899, -1.6790964534190604], [-78.6728675933856, -1.6757096508275704]], [[-78.66694725243374, -1.6715153382039007], [-78.66685535221633, -1.6750098159849731], [-78.66455366654779, -1.6744574226151347], [-78.66694725243374, -1.6715153382039007]], [[-78.66467088933658, -1.6596489548396562], [-78.66535182252983, -1.6595942545891431], [-78.66483881055971, -1.6599961372570244], [-78.66467088933658, -1.6596489548396562]], [[-78.66629583636329, -1.671377557912369], [-78.6649972728371, -1.6708024542044217], [-78.66534083979911, -1.6703466290696105], [-78.66629583636329, -1.671377557912369]], [[-78.66565975104382, -1.6843692539387698], [-78.66621702926292, -1.6851147877744932], [-78.66519128994737, -1.6849835752524824], [-78.66565975104382, -1.6843692539387698]], [[-78.66650181056482, -1.6865176687255694], [-78.66932468943689, -1.6882071260078553], [-78.66527872014682, -1.687693216311861], [-78.66650181056482, -1.6865176687255694]], [[-78.6704520075789, -1.6887376847612672], [-78.66995581754249, -1.6893106015965753], [-78.66555675154389, -1.6894706697448656], [-78.6704520075789, -1.6887376847612672]], [[-78.66591950945082, -1.655089339951535], [-78.66624508869168, -1.6555767134332684], [-78.66563716446339, -1.6555377010610988], [-78.66591950945082, -1.655089339951535]], [[-78.6658499320151, -1.6627767479359932], [-78.6662344683934, -1.6630562094855204], [-78.665952029268, -1.6631251012690982], [-78.6658499320151, -1.6627767479359932]], [[-78.66618385030031, -1.679604827021825], [-78.66657075923357, -1.6801148843326459], [-78.66600413511497, -1.6798336555518172], [-78.66618385030031, -1.679604827021825]], [[-78.66824899102477, -1.6678358754975646], [-78.66788943892911, -1.6710943068390547], [-78.66606399553804, -1.6701841569266733], [-78.66824899102477, -1.6678358754975646]], [[-78.66626344753077, -1.6835428431433963], [-78.66665508008757, -1.6839912973315379], [-78.66614844155546, -1.6838305632795423], [-78.66626344753077, -1.6835428431433963]], [[-78.66692655914709, -1.6780058796565918], [-78.66795567431129, -1.679692716615558], [-78.66626744348855, -1.6789084616108323], [-78.66692655914709, -1.6780058796565918]], [[-78.67364688645534, -1.6893545451254859], [-78.67124855554478, -1.6900451439506372], [-78.67229444878568, -1.6883926791165358], [-78.66698651313366, -1.6841666356029306], [-78.67364688645534, -1.6893545451254859]], [[-78.66861484757297, -1.6737280978061753], [-78.66876300013242, -1.6780424243706238], [-78.66689990776284, -1.6773711092537824], [-78.66861484757297, -1.6737280978061753]], [[-78.67015552817477, -1.6906997904752943], [-78.66862681942655, -1.691852427362442], [-78.66768602989738, -1.6906359743800436], [-78.67015552817477, -1.6906997904752943]], [[-78.67114987300796, -1.6756286134831309], [-78.67010163153492, -1.6786911071830306], [-78.66943423582299, -1.6783561840440269], [-78.67114987300796, -1.6756286134831309]], [[-78.67058251006628, -1.6584241170772502], [-78.67058905231877, -1.6590504239018613], [-78.67025296873209, -1.6587782761314849], [-78.67058251006628, -1.6584241170772502]], [[-78.6705066511592, -1.6638471442061296], [-78.67053919971282, -1.664248813454162], [-78.67026873386875, -1.6640726992891102], [-78.6705066511592, -1.6638471442061296]], [[-78.67145893000246, -1.6621773462157272], [-78.67215785575468, -1.6620006505994698], [-78.67155633570468, -1.6624770536682814], [-78.67145893000246, -1.6621773462157272]], [[-78.67190638076426, -1.6635366896037687], [-78.6722717778911, -1.6641182236184542], [-78.67192906117783, -1.6640988674743475], [-78.67190638076426, -1.6635366896037687]], [[-78.67241834212838, -1.6736541961659108], [-78.67288367157036, -1.6733496204361404], [-78.6727080347236, -1.6737841215686378], [-78.67241834212838, -1.6736541961659108]], [[-78.67307546982092, -1.6909388160180094], [-78.67281545441747, -1.691264904344276], [-78.67275166078704, -1.6909626287911574], [-78.67307546982092, -1.6909388160180094]], [[-78.6739525434134, -1.6737065984878032], [-78.67293228603862, -1.675022248627305], [-78.67347784902624, -1.6735300850683645], [-78.6739525434134, -1.6737065984878032]], [[-78.67726880233825, -1.677167053366574], [-78.67763653260927, -1.678838460501031], [-78.67549359430653, -1.6773266024595663], [-78.67726880233825, -1.677167053366574]], [[-78.67561645890048, -1.6850139053491409], [-78.67680493889455, -1.684899496472049], [-78.67616702548646, -1.6854833029974547], [-78.67561645890048, -1.6850139053491409]], [[-78.67767371204248, -1.6816142864733188], [-78.67811293945064, -1.6832720523190134], [-78.67748504953283, -1.685123114805608], [-78.67767371204248, -1.6816142864733188]], [[-78.67810399452159, -1.6793666447030426], [-78.67846786941297, -1.6811651582448253], [-78.67702486191607, -1.6806016582820724], [-78.67810399452159, -1.6793666447030426]], [[-78.67917661591034, -1.6808526760831972], [-78.6802295877812, -1.682119778754192], [-78.67957415763533, -1.682701377207249], [-78.67917661591034, -1.6808526760831972]], [[-78.68031939135398, -1.6842339239178266], [-78.68058026091066, -1.6850280741224468], [-78.679813340328, -1.6846160465032491], [-78.68031939135398, -1.6842339239178266]], [[-78.68016676973508, -1.678610864965659], [-78.68033048603705, -1.678211961887395], [-78.68044226572748, -1.6784970290318475], [-78.68016676973508, -1.678610864965659]], [[-78.68112213552239, -1.6815783036238792], [-78.68213722096431, -1.6825630199242847], [-78.6808738263916, -1.6821690769905302], [-78.68112213552239, -1.6815783036238792]], [[-78.6822181712279, -1.6835857753494823], [-78.68180292916377, -1.6848958185226082], [-78.68093753728745, -1.6838544040154846], [-78.6822181712279, -1.6835857753494823]], [[-78.6843746503081, -1.6813655953945448], [-78.68406665949392, -1.682683961435743], [-78.68292753110654, -1.682161229191206], [-78.6843746503081, -1.6813655953945448]], [[-78.68436829295901, -1.6835679021771872], [-78.68339117365863, -1.6846966101338845], [-78.6830443401067, -1.6840510213503934], [-78.68436829295901, -1.6835679021771872]], [[-78.683556717456, -1.680477271416737], [-78.68356272483163, -1.6811681549297302], [-78.6832355088205, -1.6810442389017939], [-78.683556717456, -1.680477271416737]], [[-78.68562395731249, -1.680253700648657], [-78.68518571008839, -1.6807418520927804], [-78.68512677924805, -1.6802974723173278], [-78.68562395731249, -1.680253700648657]], [[-78.68634195675362, -1.6840682503896964], [-78.6863335923242, -1.6848765730839523], [-78.68563030380633, -1.683919871596243], [-78.68634195675362, -1.6840682503896964]]]}}]}