{"type":"FeatureCollection","features":[{"type":"Feature","properties":{"target_platform":"PLATAFORMA F","origin_platform":"PLATAFORMA F","selected_rank":1,"source_id":177,"nombre":"Parque 11 de Agosto","elemento":"Canchas deportivas múltiples.","tipologia":"Zonal","categoria":"ZONAL","estado":"Malo","gestion":"Público","source_lon":-78.669246281,"source_lat":-1.6521524680000081,"tipo_propuesta":"Area de descanso y sombra","modulo_referencia":"6 m x 3 m","largo_m":6,"ancho_m":3,"area_minima_m2":18,"uso":"Bancas, sombra y estancia peatonal","criterio":"Sitio seleccionado dentro del par de parques por plataforma; verificar implantacion final en imagen satelital y visita de campo para no invadir canchas, vias ni circulaciones."},"geometry":{"type":"Point","coordinates":[-78.669246281,-1.6521524680000081]}},{"type":"Feature","properties":{"target_platform":"PLATAFORMA F","origin_platform":"PLATAFORMA F","selected_rank":2,"source_id":176,"nombre":"Parque Maestros 13 de Abril","elemento":"Parque con gimnasio al aire libre","tipologia":"Zonal","categoria":"ZONAL","estado":"Malo","gestion":"Público","source_lon":-78.672096762,"source_lat":-1.6565607679999959,"tipo_propuesta":"Area de descanso y sombra","modulo_referencia":"6 m x 3 m","largo_m":6,"ancho_m":3,"area_minima_m2":18,"uso":"Bancas, sombra y estancia peatonal","criterio":"Sitio seleccionado dentro del par de parques por plataforma; verificar implantacion final en imagen satelital y visita de campo para no invadir canchas, vias ni circulaciones."},"geometry":{"type":"Point","coordinates":[-78.672096762,-1.6565607679999959]}},{"type":"Feature","properties":{"target_platform":"PLATAFORMA C","origin_platform":"PLATAFORMA C","selected_rank":1,"source_id":118,"nombre":"parque en la calle azúay entre aztecas y aymaras","elemento":"Parques infantiles con jardines sin canchas","tipologia":"Barrial","categoria":"BARRIAL","estado":"","gestion":"","source_lon":-78.68745618241569,"source_lat":-1.6458462090566004,"tipo_propuesta":"Area de descanso y sombra","modulo_referencia":"6 m x 3 m","largo_m":6,"ancho_m":3,"area_minima_m2":18,"uso":"Bancas, sombra y estancia peatonal","criterio":"Sitio seleccionado dentro del par de parques por plataforma; verificar implantacion final en imagen satelital y visita de campo para no invadir canchas, vias ni circulaciones."},"geometry":{"type":"Point","coordinates":[-78.68745618241569,-1.6458462090566004]}},{"type":"Feature","properties":{"target_platform":"PLATAFORMA C","origin_platform":"PLATAFORMA C","selected_rank":2,"source_id":123,"nombre":"Sin nombre calles carchi y los rios","elemento":"Parques infantiles con jardines sin canchas","tipologia":"Barrial","categoria":"BARRIAL","estado":"Malo","gestion":"Público","source_lon":-78.6792238,"source_lat":-1.6420652000000018,"tipo_propuesta":"Area de descanso y sombra","modulo_referencia":"6 m x 3 m","largo_m":6,"ancho_m":3,"area_minima_m2":18,"uso":"Bancas, sombra y estancia peatonal","criterio":"Sitio seleccionado dentro del par de parques por plataforma; verificar implantacion final en imagen satelital y visita de campo para no invadir canchas, vias ni circulaciones."},"geometry":{"type":"Point","coordinates":[-78.6792238,-1.6420652000000018]}},{"type":"Feature","properties":{"target_platform":"PLATAFORMA H","origin_platform":"PLATAFORMA H","selected_rank":1,"source_id":154,"nombre":"PARQUE SULTANA DE LOS ANDES","elemento":"Parques infantiles con jardines sin canchas","tipologia":"Barrial","categoria":"BARRIAL","estado":"","gestion":"","source_lon":-78.672995,"source_lat":-1.662254000000002,"tipo_propuesta":"Area de descanso y sombra","modulo_referencia":"6 m x 3 m","largo_m":6,"ancho_m":3,"area_minima_m2":18,"uso":"Bancas, sombra y estancia peatonal","criterio":"Sitio seleccionado dentro del par de parques por plataforma; verificar implantacion final en imagen satelital y visita de campo para no invadir canchas, vias ni circulaciones."},"geometry":{"type":"Point","coordinates":[-78.672995,-1.662254000000002]}},{"type":"Feature","properties":{"target_platform":"PLATAFORMA H","origin_platform":"PLATAFORMA H","selected_rank":2,"source_id":151,"nombre":"PARQUE CDL. CEMENTO CHIMBORAZO","elemento":"Parque con gimnasio al aire libre","tipologia":"Zonal","categoria":"ZONAL","estado":"Malo","gestion":"Público","source_lon":-78.667007791,"source_lat":-1.6538882599999931,"tipo_propuesta":"Area de descanso y sombra","modulo_referencia":"6 m x 3 m","largo_m":6,"ancho_m":3,"area_minima_m2":18,"uso":"Bancas, sombra y estancia peatonal","criterio":"Sitio seleccionado dentro del par de parques por plataforma; verificar implantacion final en imagen satelital y visita de campo para no invadir canchas, vias ni circulaciones."},"geometry":{"type":"Point","coordinates":[-78.667007791,-1.6538882599999931]}},{"type":"Feature","properties":{"target_platform":"PLATAFORMA A","origin_platform":"PLATAFORMA A","selected_rank":1,"source_id":161,"nombre":"Calles Javier Espinoza y alausi ( barrio 21 de abril )","elemento":"Parques temáticos","tipologia":"Cantonal","categoria":"CANTONAL","estado":"Bueno","gestion":"Público","source_lon":-78.6872882,"source_lat":-1.6340054450000026,"tipo_propuesta":"Area de descanso y sombra","modulo_referencia":"6 m x 3 m","largo_m":6,"ancho_m":3,"area_minima_m2":18,"uso":"Bancas, sombra y estancia peatonal","criterio":"Sitio seleccionado dentro del par de parques por plataforma; verificar implantacion final en imagen satelital y visita de campo para no invadir canchas, vias ni circulaciones."},"geometry":{"type":"Point","coordinates":[-78.6872882,-1.6340054450000026]}},{"type":"Feature","properties":{"target_platform":"PLATAFORMA A","origin_platform":"PLATAFORMA C","selected_rank":2,"source_id":124,"nombre":"Final calle cenepa","elemento":"Parques infantiles con jardines sin canchas","tipologia":"Barrial","categoria":"BARRIAL","estado":"Malo","gestion":"Público","source_lon":-78.686486341,"source_lat":-1.6422385119999963,"tipo_propuesta":"Area de descanso y sombra","modulo_referencia":"6 m x 3 m","largo_m":6,"ancho_m":3,"area_minima_m2":18,"uso":"Bancas, sombra y estancia peatonal","criterio":"Sitio seleccionado dentro del par de parques por plataforma; verificar implantacion final en imagen satelital y visita de campo para no invadir canchas, vias ni circulaciones."},"geometry":{"type":"Point","coordinates":[-78.686486341,-1.6422385119999963]}},{"type":"Feature","properties":{"target_platform":"PLATAFORMA B","origin_platform":"PLATAFORMA B","selected_rank":1,"source_id":147,"nombre":"Parque Calle Rio Bulubulu","elemento":"Canchas deportivas múltiples.","tipologia":"Zonal","categoria":"ZONAL","estado":"Regular","gestion":"Público","source_lon":-78.675958522,"source_lat":-1.636589501999999,"tipo_propuesta":"Area de descanso y sombra","modulo_referencia":"6 m x 3 m","largo_m":6,"ancho_m":3,"area_minima_m2":18,"uso":"Bancas, sombra y estancia peatonal","criterio":"Sitio seleccionado dentro del par de parques por plataforma; verificar implantacion final en imagen satelital y visita de campo para no invadir canchas, vias ni circulaciones."},"geometry":{"type":"Point","coordinates":[-78.675958522,-1.636589501999999]}},{"type":"Feature","properties":{"target_platform":"PLATAFORMA B","origin_platform":"PLATAFORMA B","selected_rank":2,"source_id":64,"nombre":"Ninguno","elemento":"Parques infantiles con jardines sin canchas","tipologia":"Barrial","categoria":"BARRIAL","estado":"","gestion":"","source_lon":-78.66833333333334,"source_lat":-1.639875000000002,"tipo_propuesta":"Area de descanso y sombra","modulo_referencia":"6 m x 3 m","largo_m":6,"ancho_m":3,"area_minima_m2":18,"uso":"Bancas, sombra y estancia peatonal","criterio":"Sitio seleccionado dentro del par de parques por plataforma; verificar implantacion final en imagen satelital y visita de campo para no invadir canchas, vias ni circulaciones."},"geometry":{"type":"Point","coordinates":[-78.66833333333334,-1.639875000000002]}},{"type":"Feature","properties":{"target_platform":"PLATAFORMA K","origin_platform":"PLATAFORMA K","selected_rank":1,"source_id":3,"nombre":"Barrio Bolivar Chiriboga","elemento":"Parques infantiles con jardines sin canchas","tipologia":"Barrial","categoria":"BARRIAL","estado":"Bueno","gestion":"Público","source_lon":-78.64976750662187,"source_lat":-1.6742760838678075,"tipo_propuesta":"Area de descanso y sombra","modulo_referencia":"6 m x 3 m","largo_m":6,"ancho_m":3,"area_minima_m2":18,"uso":"Bancas, sombra y estancia peatonal","criterio":"Sitio seleccionado dentro del par de parques por plataforma; verificar implantacion final en imagen satelital y visita de campo para no invadir canchas, vias ni circulaciones."},"geometry":{"type":"Point","coordinates":[-78.64976750662187,-1.6742760838678075]}},{"type":"Feature","properties":{"target_platform":"PLATAFORMA K","origin_platform":"PLATAFORMA K","selected_rank":2,"source_id":72,"nombre":"Parque 21 de Abril","elemento":"Parques infantiles con jardines sin canchas","tipologia":"Barrial","categoria":"BARRIAL","estado":"","gestion":"","source_lon":-78.65331252,"source_lat":-1.6661140420000047,"tipo_propuesta":"Area de descanso y sombra","modulo_referencia":"6 m x 3 m","largo_m":6,"ancho_m":3,"area_minima_m2":18,"uso":"Bancas, sombra y estancia peatonal","criterio":"Sitio seleccionado dentro del par de parques por plataforma; verificar implantacion final en imagen satelital y visita de campo para no invadir canchas, vias ni circulaciones."},"geometry":{"type":"Point","coordinates":[-78.65331252,-1.6661140420000047]}},{"type":"Feature","properties":{"target_platform":"PLATAFORMA I","origin_platform":"PLATAFORMA I","selected_rank":1,"source_id":84,"nombre":"Parque los pinos","elemento":"Parque con gimnasio al aire libre","tipologia":"Zonal","categoria":"ZONAL","estado":"Regular","gestion":"Público","source_lon":-78.6529642,"source_lat":-1.6631786999999918,"tipo_propuesta":"Area de descanso y sombra","modulo_referencia":"6 m x 3 m","largo_m":6,"ancho_m":3,"area_minima_m2":18,"uso":"Bancas, sombra y estancia peatonal","criterio":"Sitio seleccionado dentro del par de parques por plataforma; verificar implantacion final en imagen satelital y visita de campo para no invadir canchas, vias ni circulaciones."},"geometry":{"type":"Point","coordinates":[-78.6529642,-1.6631786999999918]}},{"type":"Feature","properties":{"target_platform":"PLATAFORMA I","origin_platform":"PLATAFORMA I","selected_rank":2,"source_id":29,"nombre":"Parque de la Georgina 2, a oado de los condominio faroles.","elemento":"Canchas deportivas múltiples.","tipologia":"Zonal","categoria":"ZONAL","estado":"","gestion":"","source_lon":-78.66153166666666,"source_lat":-1.6581450000000064,"tipo_propuesta":"Area de descanso y sombra","modulo_referencia":"6 m x 3 m","largo_m":6,"ancho_m":3,"area_minima_m2":18,"uso":"Bancas, sombra y estancia peatonal","criterio":"Sitio seleccionado dentro del par de parques por plataforma; verificar implantacion final en imagen satelital y visita de campo para no invadir canchas, vias ni circulaciones."},"geometry":{"type":"Point","coordinates":[-78.66153166666666,-1.6581450000000064]}},{"type":"Feature","properties":{"target_platform":"PLATAFORMA D","origin_platform":"PLATAFORMA D","selected_rank":1,"source_id":43,"nombre":"Parque","elemento":"Parques infantiles con jardines sin canchas","tipologia":"Barrial","categoria":"BARRIAL","estado":"Regular","gestion":"Público","source_lon":-78.688486126,"source_lat":-1.6548739269999986,"tipo_propuesta":"Area de descanso y sombra","modulo_referencia":"6 m x 3 m","largo_m":6,"ancho_m":3,"area_minima_m2":18,"uso":"Bancas, sombra y estancia peatonal","criterio":"Sitio seleccionado dentro del par de parques por plataforma; verificar implantacion final en imagen satelital y visita de campo para no invadir canchas, vias ni circulaciones."},"geometry":{"type":"Point","coordinates":[-78.688486126,-1.6548739269999986]}},{"type":"Feature","properties":{"target_platform":"PLATAFORMA D","origin_platform":"PLATAFORMA D","selected_rank":2,"source_id":74,"nombre":"Parque Juan Molntalvo","elemento":"Canchas deportivas múltiples.","tipologia":"Zonal","categoria":"ZONAL","estado":"","gestion":"","source_lon":-78.682456875,"source_lat":-1.6626321789999936,"tipo_propuesta":"Area de descanso y sombra","modulo_referencia":"6 m x 3 m","largo_m":6,"ancho_m":3,"area_minima_m2":18,"uso":"Bancas, sombra y estancia peatonal","criterio":"Sitio seleccionado dentro del par de parques por plataforma; verificar implantacion final en imagen satelital y visita de campo para no invadir canchas, vias ni circulaciones."},"geometry":{"type":"Point","coordinates":[-78.682456875,-1.6626321789999936]}},{"type":"Feature","properties":{"target_platform":"PLATAFORMA G","origin_platform":"PLATAFORMA G","selected_rank":1,"source_id":19,"nombre":"Parque con dos canchas","elemento":"Canchas deportivas múltiples.","tipologia":"Zonal","categoria":"ZONAL","estado":"","gestion":"","source_lon":-78.66907487143628,"source_lat":-1.6465746996338486,"tipo_propuesta":"Area de descanso y sombra","modulo_referencia":"6 m x 3 m","largo_m":6,"ancho_m":3,"area_minima_m2":18,"uso":"Bancas, sombra y estancia peatonal","criterio":"Sitio seleccionado dentro del par de parques por plataforma; verificar implantacion final en imagen satelital y visita de campo para no invadir canchas, vias ni circulaciones."},"geometry":{"type":"Point","coordinates":[-78.66907487143628,-1.6465746996338486]}},{"type":"Feature","properties":{"target_platform":"PLATAFORMA G","origin_platform":"PLATAFORMA G","selected_rank":2,"source_id":27,"nombre":"Parque Saboya área de juegos","elemento":"Parques infantiles con jardines sin canchas","tipologia":"Barrial","categoria":"BARRIAL","estado":"","gestion":"","source_lon":-78.66172615400001,"source_lat":-1.652711858000004,"tipo_propuesta":"Area de descanso y sombra","modulo_referencia":"6 m x 3 m","largo_m":6,"ancho_m":3,"area_minima_m2":18,"uso":"Bancas, sombra y estancia peatonal","criterio":"Sitio seleccionado dentro del par de parques por plataforma; verificar implantacion final en imagen satelital y visita de campo para no invadir canchas, vias ni circulaciones."},"geometry":{"type":"Point","coordinates":[-78.66172615400001,-1.652711858000004]}},{"type":"Feature","properties":{"target_platform":"PLATAFORMA E","origin_platform":"PLATAFORMA H","selected_rank":1,"source_id":155,"nombre":"GRUTA DE LOURDES","elemento":"Parques infantiles con jardines sin canchas","tipologia":"Barrial","categoria":"BARRIAL","estado":"","gestion":"","source_lon":-78.671939712,"source_lat":-1.6648546810000007,"tipo_propuesta":"Area de descanso y sombra","modulo_referencia":"6 m x 3 m","largo_m":6,"ancho_m":3,"area_minima_m2":18,"uso":"Bancas, sombra y estancia peatonal","criterio":"Sitio seleccionado dentro del par de parques por plataforma; verificar implantacion final en imagen satelital y visita de campo para no invadir canchas, vias ni circulaciones."},"geometry":{"type":"Point","coordinates":[-78.671939712,-1.6648546810000007]}},{"type":"Feature","properties":{"target_platform":"PLATAFORMA E","origin_platform":"PLATAFORMA C","selected_rank":2,"source_id":145,"nombre":"Mantenimiento ,alumbrado publico ,falta de bomba de agu","elemento":"Parques infantiles con jardines sin canchas","tipologia":"Barrial","categoria":"BARRIAL","estado":"Regular","gestion":"Público","source_lon":-78.683966565264,"source_lat":-1.6462952185640072,"tipo_propuesta":"Area de descanso y sombra","modulo_referencia":"6 m x 3 m","largo_m":6,"ancho_m":3,"area_minima_m2":18,"uso":"Bancas, sombra y estancia peatonal","criterio":"Sitio seleccionado dentro del par de parques por plataforma; verificar implantacion final en imagen satelital y visita de campo para no invadir canchas, vias ni circulaciones."},"geometry":{"type":"Point","coordinates":[-78.683966565264,-1.6462952185640072]}},{"type":"Feature","properties":{"target_platform":"PLATAFORMA Q","origin_platform":"PLATAFORMA Q","selected_rank":1,"source_id":8,"nombre":"Barrio Pucura","elemento":"Parques infantiles con jardines sin canchas","tipologia":"Barrial","categoria":"BARRIAL","estado":"Bueno","gestion":"Público","source_lon":-78.63578238306152,"source_lat":-1.6814170525290402,"tipo_propuesta":"Area de descanso y sombra","modulo_referencia":"6 m x 3 m","largo_m":6,"ancho_m":3,"area_minima_m2":18,"uso":"Bancas, sombra y estancia peatonal","criterio":"Sitio seleccionado dentro del par de parques por plataforma; verificar implantacion final en imagen satelital y visita de campo para no invadir canchas, vias ni circulaciones."},"geometry":{"type":"Point","coordinates":[-78.63578238306152,-1.6814170525290402]}},{"type":"Feature","properties":{"target_platform":"PLATAFORMA Q","origin_platform":"PLATAFORMA Q","selected_rank":2,"source_id":14,"nombre":"Sin nombre","elemento":"Parques infantiles con jardines sin canchas","tipologia":"Barrial","categoria":"BARRIAL","estado":"Regular","gestion":"Público","source_lon":-78.6264049,"source_lat":-1.6830618999999922,"tipo_propuesta":"Area de descanso y sombra","modulo_referencia":"6 m x 3 m","largo_m":6,"ancho_m":3,"area_minima_m2":18,"uso":"Bancas, sombra y estancia peatonal","criterio":"Sitio seleccionado dentro del par de parques por plataforma; verificar implantacion final en imagen satelital y visita de campo para no invadir canchas, vias ni circulaciones."},"geometry":{"type":"Point","coordinates":[-78.6264049,-1.6830618999999922]}},{"type":"Feature","properties":{"target_platform":"PLATAFORMA L","origin_platform":"PLATAFORMA L","selected_rank":1,"source_id":80,"nombre":"Parque San Antonio","elemento":"Canchas deportivas múltiples.","tipologia":"Zonal","categoria":"ZONAL","estado":"","gestion":"","source_lon":-78.647569511,"source_lat":-1.6556137399999982,"tipo_propuesta":"Area de descanso y sombra","modulo_referencia":"6 m x 3 m","largo_m":6,"ancho_m":3,"area_minima_m2":18,"uso":"Bancas, sombra y estancia peatonal","criterio":"Sitio seleccionado dentro del par de parques por plataforma; verificar implantacion final en imagen satelital y visita de campo para no invadir canchas, vias ni circulaciones."},"geometry":{"type":"Point","coordinates":[-78.647569511,-1.6556137399999982]}},{"type":"Feature","properties":{"target_platform":"PLATAFORMA L","origin_platform":"PLATAFORMA L","selected_rank":2,"source_id":97,"nombre":"Parque sin nombre","elemento":"Canchas deportivas múltiples.","tipologia":"Zonal","categoria":"ZONAL","estado":"","gestion":"","source_lon":-78.648645456,"source_lat":-1.6615024220000074,"tipo_propuesta":"Area de descanso y sombra","modulo_referencia":"6 m x 3 m","largo_m":6,"ancho_m":3,"area_minima_m2":18,"uso":"Bancas, sombra y estancia peatonal","criterio":"Sitio seleccionado dentro del par de parques por plataforma; verificar implantacion final en imagen satelital y visita de campo para no invadir canchas, vias ni circulaciones."},"geometry":{"type":"Point","coordinates":[-78.648645456,-1.6615024220000074]}},{"type":"Feature","properties":{"target_platform":"PLATAFORMA M","origin_platform":"PLATAFORMA M","selected_rank":1,"source_id":171,"nombre":"Parque 21 de abril","elemento":"Canchas deportivas múltiples.","tipologia":"Zonal","categoria":"ZONAL","estado":"Malo","gestion":"Público","source_lon":-78.640399484,"source_lat":-1.657111963999996,"tipo_propuesta":"Area de descanso y sombra","modulo_referencia":"6 m x 3 m","largo_m":6,"ancho_m":3,"area_minima_m2":18,"uso":"Bancas, sombra y estancia peatonal","criterio":"Sitio seleccionado dentro del par de parques por plataforma; verificar implantacion final en imagen satelital y visita de campo para no invadir canchas, vias ni circulaciones."},"geometry":{"type":"Point","coordinates":[-78.640399484,-1.657111963999996]}},{"type":"Feature","properties":{"target_platform":"PLATAFORMA M","origin_platform":"PLATAFORMA M","selected_rank":2,"source_id":169,"nombre":"Cancha el esfuerzo 1","elemento":"Parque con gimnasio al aire libre","tipologia":"Zonal","categoria":"ZONAL","estado":"","gestion":"","source_lon":-78.6435315,"source_lat":-1.6631441999999985,"tipo_propuesta":"Area de descanso y sombra","modulo_referencia":"6 m x 3 m","largo_m":6,"ancho_m":3,"area_minima_m2":18,"uso":"Bancas, sombra y estancia peatonal","criterio":"Sitio seleccionado dentro del par de parques por plataforma; verificar implantacion final en imagen satelital y visita de campo para no invadir canchas, vias ni circulaciones."},"geometry":{"type":"Point","coordinates":[-78.6435315,-1.6631441999999985]}},{"type":"Feature","properties":{"target_platform":"PLATAFORMA O","origin_platform":"PLATAFORMA O","selected_rank":1,"source_id":114,"nombre":"Parque Juan de Velasco","elemento":"Parques infantiles con jardines sin canchas","tipologia":"Barrial","categoria":"BARRIAL","estado":"Malo","gestion":"Público","source_lon":-78.63902666666667,"source_lat":-1.6668133333333361,"tipo_propuesta":"Area de descanso y sombra","modulo_referencia":"6 m x 3 m","largo_m":6,"ancho_m":3,"area_minima_m2":18,"uso":"Bancas, sombra y estancia peatonal","criterio":"Sitio seleccionado dentro del par de parques por plataforma; verificar implantacion final en imagen satelital y visita de campo para no invadir canchas, vias ni circulaciones."},"geometry":{"type":"Point","coordinates":[-78.63902666666667,-1.6668133333333361]}},{"type":"Feature","properties":{"target_platform":"PLATAFORMA O","origin_platform":"PLATAFORMA O","selected_rank":2,"source_id":99,"nombre":"Parque de la Madre","elemento":"Parques infantiles con jardines sin canchas","tipologia":"Barrial","categoria":"BARRIAL","estado":"","gestion":"","source_lon":-78.63843011,"source_lat":-1.674429479999995,"tipo_propuesta":"Area de descanso y sombra","modulo_referencia":"6 m x 3 m","largo_m":6,"ancho_m":3,"area_minima_m2":18,"uso":"Bancas, sombra y estancia peatonal","criterio":"Sitio seleccionado dentro del par de parques por plataforma; verificar implantacion final en imagen satelital y visita de campo para no invadir canchas, vias ni circulaciones."},"geometry":{"type":"Point","coordinates":[-78.63843011,-1.674429479999995]}},{"type":"Feature","properties":{"target_platform":"PLATAFORMA P","origin_platform":"PLATAFORMA P","selected_rank":1,"source_id":47,"nombre":"AREA VERDE CALLE GUAYAQUIL","elemento":"Parques infantiles con jardines sin canchas","tipologia":"Barrial","categoria":"BARRIAL","estado":"Bueno","gestion":"Público","source_lon":-78.6376414,"source_lat":-1.6865508000000011,"tipo_propuesta":"Area de descanso y sombra","modulo_referencia":"6 m x 3 m","largo_m":6,"ancho_m":3,"area_minima_m2":18,"uso":"Bancas, sombra y estancia peatonal","criterio":"Sitio seleccionado dentro del par de parques por plataforma; verificar implantacion final en imagen satelital y visita de campo para no invadir canchas, vias ni circulaciones."},"geometry":{"type":"Point","coordinates":[-78.6376414,-1.6865508000000011]}},{"type":"Feature","properties":{"target_platform":"PLATAFORMA P","origin_platform":"PLATAFORMA P","selected_rank":2,"source_id":59,"nombre":"AREA VERDE CALLE ITALIA","elemento":"Parques infantiles con jardines sin canchas","tipologia":"Barrial","categoria":"BARRIAL","estado":"","gestion":"","source_lon":-78.646495,"source_lat":-1.6887766999999994,"tipo_propuesta":"Area de descanso y sombra","modulo_referencia":"6 m x 3 m","largo_m":6,"ancho_m":3,"area_minima_m2":18,"uso":"Bancas, sombra y estancia peatonal","criterio":"Sitio seleccionado dentro del par de parques por plataforma; verificar implantacion final en imagen satelital y visita de campo para no invadir canchas, vias ni circulaciones."},"geometry":{"type":"Point","coordinates":[-78.646495,-1.6887766999999994]}},{"type":"Feature","properties":{"target_platform":"PLATAFORMA Ñ","origin_platform":"PLATAFORMA Ñ","selected_rank":1,"source_id":187,"nombre":"Parque","elemento":"Parque con gimnasio al aire libre","tipologia":"Zonal","categoria":"ZONAL","estado":"Regular","gestion":"Público","source_lon":-78.650565714,"source_lat":-1.6812963100000042,"tipo_propuesta":"Area de descanso y sombra","modulo_referencia":"6 m x 3 m","largo_m":6,"ancho_m":3,"area_minima_m2":18,"uso":"Bancas, sombra y estancia peatonal","criterio":"Sitio seleccionado dentro del par de parques por plataforma; verificar implantacion final en imagen satelital y visita de campo para no invadir canchas, vias ni circulaciones."},"geometry":{"type":"Point","coordinates":[-78.650565714,-1.6812963100000042]}},{"type":"Feature","properties":{"target_platform":"PLATAFORMA Ñ","origin_platform":"PLATAFORMA Ñ","selected_rank":2,"source_id":186,"nombre":"Parque liberación popular","elemento":"Canchas deportivas múltiples.","tipologia":"Zonal","categoria":"ZONAL","estado":"","gestion":"","source_lon":-78.658992,"source_lat":-1.679771832999996,"tipo_propuesta":"Area de descanso y sombra","modulo_referencia":"6 m x 3 m","largo_m":6,"ancho_m":3,"area_minima_m2":18,"uso":"Bancas, sombra y estancia peatonal","criterio":"Sitio seleccionado dentro del par de parques por plataforma; verificar implantacion final en imagen satelital y visita de campo para no invadir canchas, vias ni circulaciones."},"geometry":{"type":"Point","coordinates":[-78.658992,-1.679771832999996]}},{"type":"Feature","properties":{"target_platform":"PLATAFORMA N","origin_platform":"PLATAFORMA N","selected_rank":1,"source_id":136,"nombre":"Parque Yaruquies","elemento":"Parques infantiles con jardines sin canchas","tipologia":"Barrial","categoria":"BARRIAL","estado":"Malo","gestion":"Público","source_lon":-78.67588250000001,"source_lat":-1.6895224000000044,"tipo_propuesta":"Area de descanso y sombra","modulo_referencia":"6 m x 3 m","largo_m":6,"ancho_m":3,"area_minima_m2":18,"uso":"Bancas, sombra y estancia peatonal","criterio":"Sitio seleccionado dentro del par de parques por plataforma; verificar implantacion final en imagen satelital y visita de campo para no invadir canchas, vias ni circulaciones."},"geometry":{"type":"Point","coordinates":[-78.67588250000001,-1.6895224000000044]}},{"type":"Feature","properties":{"target_platform":"PLATAFORMA N","origin_platform":"PLATAFORMA N","selected_rank":2,"source_id":135,"nombre":"SN","elemento":"Parques infantiles con jardines sin canchas","tipologia":"Barrial","categoria":"BARRIAL","estado":"Malo","gestion":"Público","source_lon":-78.6663527,"source_lat":-1.684112099999996,"tipo_propuesta":"Area de descanso y sombra","modulo_referencia":"6 m x 3 m","largo_m":6,"ancho_m":3,"area_minima_m2":18,"uso":"Bancas, sombra y estancia peatonal","criterio":"Sitio seleccionado dentro del par de parques por plataforma; verificar implantacion final en imagen satelital y visita de campo para no invadir canchas, vias ni circulaciones."},"geometry":{"type":"Point","coordinates":[-78.6663527,-1.684112099999996]}},{"type":"Feature","properties":{"target_platform":"PLATAFORMA J","origin_platform":"PLATAFORMA J","selected_rank":1,"source_id":178,"nombre":"Parque ubicado entre la Juan Montalvo y 12 de octubre","elemento":"Canchas deportivas múltiples.","tipologia":"Zonal","categoria":"ZONAL","estado":"Bueno","gestion":"Público","source_lon":-78.6589249,"source_lat":-1.6758213999999971,"tipo_propuesta":"Area de descanso y sombra","modulo_referencia":"6 m x 3 m","largo_m":6,"ancho_m":3,"area_minima_m2":18,"uso":"Bancas, sombra y estancia peatonal","criterio":"Sitio seleccionado dentro del par de parques por plataforma; verificar implantacion final en imagen satelital y visita de campo para no invadir canchas, vias ni circulaciones."},"geometry":{"type":"Point","coordinates":[-78.6589249,-1.6758213999999971]}},{"type":"Feature","properties":{"target_platform":"PLATAFORMA J","origin_platform":"PLATAFORMA J","selected_rank":2,"source_id":182,"nombre":"Parque la Delicia/ sector Redondel del libro","elemento":"Canchas deportivas múltiples.","tipologia":"Zonal","categoria":"ZONAL","estado":"Malo","gestion":"Público","source_lon":-78.665088122,"source_lat":-1.6655031489999936,"tipo_propuesta":"Area de descanso y sombra","modulo_referencia":"6 m x 3 m","largo_m":6,"ancho_m":3,"area_minima_m2":18,"uso":"Bancas, sombra y estancia peatonal","criterio":"Sitio seleccionado dentro del par de parques por plataforma; verificar implantacion final en imagen satelital y visita de campo para no invadir canchas, vias ni circulaciones."},"geometry":{"type":"Point","coordinates":[-78.665088122,-1.6655031489999936]}}]}