{
  "type": "FeatureCollection",
  "features": [
    {
      "type": "Feature",
      "properties": {
        "source_id": 1,
        "objectid": 4,
        "codigo": "060104003001032",
        "equipamien": "Educación",
        "nombre": "UE San Vicente de Paúl",
        "categoria": "ZONAL",
        "isocrona_distance_m": 1000,
        "genera_isocrona": true,
        "shape_area": 10482.375753349856,
        "shape_leng": 441.3670292184171
      },
      "geometry": {
        "type": "Polygon",
        "coordinates": [
          [
            [
              -78.65068748696176,
              -1.6751625304092352
            ],
            [
              -78.65033762962582,
              -1.675473290643303
            ],
            [
              -78.65033319459013,
              -1.6754696441415697
            ],
            [
              -78.65026947302074,
              -1.6755261387769576
            ],
            [
              -78.65020892101568,
              -1.6755808112348467
            ],
            [
              -78.65064582289644,
              -1.6761000088815992
            ],
            [
              -78.65086385776485,
              -1.6763613040190766
            ],
            [
              -78.65090546313178,
              -1.6764036414886725
            ],
            [
              -78.65093222078741,
              -1.676435977699774
            ],
            [
              -78.65092854595551,
              -1.6764404098949652
            ],
            [
              -78.65108321192189,
              -1.6766191305059073
            ],
            [
              -78.65130577647824,
              -1.6764206239679382
            ],
            [
              -78.65141529837119,
              -1.6763207484235676
            ],
            [
              -78.65141665583104,
              -1.676322144872502
            ],
            [
              -78.65149085336846,
              -1.6762543985931215
            ],
            [
              -78.65154761127961,
              -1.6762040379027898
            ],
            [
              -78.65138059877562,
              -1.6760044010521298
            ],
            [
              -78.65137625540716,
              -1.675999208887752
            ],
            [
              -78.65137102939231,
              -1.6759921905631197
            ],
            [
              -78.65116893619896,
              -1.6757454123919333
            ],
            [
              -78.65116775844818,
              -1.6757439745784097
            ],
            [
              -78.65110606612778,
              -1.6756693189223466
            ],
            [
              -78.65068748696176,
              -1.6751625304092352
            ]
          ]
        ]
      }
    },
    {
      "type": "Feature",
      "properties": {
        "source_id": 2,
        "objectid": 7,
        "codigo": "060102001001017",
        "equipamien": "Educación",
        "nombre": "UE San Felipe Neri",
        "categoria": "ZONAL",
        "isocrona_distance_m": 1000,
        "genera_isocrona": true,
        "shape_area": 11111.788717097954,
        "shape_leng": 449.23351286006033
      },
      "geometry": {
        "type": "Polygon",
        "coordinates": [
          [
            [
              -78.6450734880923,
              -1.6741239058075608
            ],
            [
              -78.64547412386173,
              -1.674574016939725
            ],
            [
              -78.64549493135245,
              -1.674579012952869
            ],
            [
              -78.64549784020903,
              -1.674576602907612
            ],
            [
              -78.64555373344493,
              -1.674530269523188
            ],
            [
              -78.64556455421958,
              -1.6745212972834316
            ],
            [
              -78.64564654085306,
              -1.6744533330359483
            ],
            [
              -78.6457367199421,
              -1.674378576410677
            ],
            [
              -78.64640345179573,
              -1.6737887985342241
            ],
            [
              -78.64651595545072,
              -1.6736965383261175
            ],
            [
              -78.64651706703397,
              -1.6736954549208976
            ],
            [
              -78.6465181059634,
              -1.6736942810322653
            ],
            [
              -78.64651899588303,
              -1.6736930174719047
            ],
            [
              -78.64651981214378,
              -1.6736917529186268
            ],
            [
              -78.6465205549613,
              -1.6736903065813138
            ],
            [
              -78.64652114865905,
              -1.6736888627757658
            ],
            [
              -78.64652159503903,
              -1.6736874169843339
            ],
            [
              -78.64652189240925,
              -1.6736858815211932
            ],
            [
              -78.64652211701996,
              -1.6736843441622513
            ],
            [
              -78.64652211975029,
              -1.673682808343194
            ],
            [
              -78.64652210572483,
              -1.673682517252199
            ],
            [
              -78.64652204612578,
              -1.6736812724319035
            ],
            [
              -78.64652190063897,
              -1.6736797355298505
            ],
            [
              -78.64652153237567,
              -1.673678198358692
            ],
            [
              -78.64652108854798,
              -1.6736767514919189
            ],
            [
              -78.64652049829866,
              -1.6736753044482744
            ],
            [
              -78.64651983349,
              -1.6736738582185215
            ],
            [
              -78.64651894658856,
              -1.6736725916078616
            ],
            [
              -78.64651805878883,
              -1.673671324996135
            ],
            [
              -78.64612567893121,
              -1.6731923045964576
            ],
            [
              -78.64612456914696,
              -1.6731911272087792
            ],
            [
              -78.64612338649108,
              -1.6731900419366166
            ],
            [
              -78.64612212737369,
              -1.6731890460638035
            ],
            [
              -78.6461207953879,
              -1.6731881395946622
            ],
            [
              -78.64611938862612,
              -1.6731874156343907
            ],
            [
              -78.64611790809765,
              -1.6731867810767054
            ],
            [
              -78.64611635369472,
              -1.6731863263171138
            ],
            [
              -78.64611479738416,
              -1.6731859646627358
            ],
            [
              -78.64611324265668,
              -1.6731857819936338
            ],
            [
              -78.64611161326319,
              -1.6731856896299853
            ],
            [
              -78.64611005731399,
              -1.6731857781463166
            ],
            [
              -78.64610842659309,
              -1.6731860455556995
            ],
            [
              -78.64610687211594,
              -1.6731864061646708
            ],
            [
              -78.64610538928758,
              -1.6731869467475131
            ],
            [
              -78.64610390635032,
              -1.6731875786298138
            ],
            [
              -78.64610250056049,
              -1.6731882991930196
            ],
            [
              -78.64610116462072,
              -1.6731892015358163
            ],
            [
              -78.64609990492899,
              -1.673190193462386
            ],
            [
              -78.6450750000192,
              -1.6740982407171787
            ],
            [
              -78.64507381466903,
              -1.67409941352255
            ],
            [
              -78.645072774841,
              -1.6741005874077937
            ],
            [
              -78.64507188491973,
              -1.6741018518698594
            ],
            [
              -78.64507106855044,
              -1.6741032068164172
            ],
            [
              -78.64507039939411,
              -1.674104651432553
            ],
            [
              -78.6450698056932,
              -1.674106097043886
            ],
            [
              -78.64506935920524,
              -1.6741076323248143
            ],
            [
              -78.6450690618326,
              -1.674109168689979
            ],
            [
              -78.64506891077248,
              -1.6741107965315771
            ],
            [
              -78.64506890983712,
              -1.6741123323511864
            ],
            [
              -78.64506898245266,
              -1.674113959559242
            ],
            [
              -78.64506927615585,
              -1.674115496639031
            ],
            [
              -78.64506964441833,
              -1.6741170329050101
            ],
            [
              -78.64507016089888,
              -1.6741185693501892
            ],
            [
              -78.64507082570441,
              -1.6741200164830847
            ],
            [
              -78.64507156517605,
              -1.674121373310669
            ],
            [
              -78.64507245207649,
              -1.6741226390169948
            ],
            [
              -78.6450734880923,
              -1.6741239058075608
            ]
          ]
        ]
      }
    },
    {
      "type": "Feature",
      "properties": {
        "source_id": 3,
        "objectid": 15,
        "codigo": "060104001001030",
        "equipamien": "Educación",
        "nombre": "UE Magdalena Davalos",
        "categoria": "ZONAL",
        "isocrona_distance_m": 1000,
        "genera_isocrona": true,
        "shape_area": 2548.0345012232924,
        "shape_leng": 238.3772111417885
      },
      "geometry": {
        "type": "Polygon",
        "coordinates": [
          [
            [
              -78.64631363344573,
              -1.675578880974463
            ],
            [
              -78.64640820947115,
              -1.6754991470649598
            ],
            [
              -78.64639658493729,
              -1.675485362132766
            ],
            [
              -78.6464723290197,
              -1.6754215033207367
            ],
            [
              -78.64654807399782,
              -1.6753576435958697
            ],
            [
              -78.64653063764219,
              -1.6753369661991189
            ],
            [
              -78.64648995311505,
              -1.675288717133901
            ],
            [
              -78.6464667049427,
              -1.6752611463696494
            ],
            [
              -78.64643200488251,
              -1.6752196444436958
            ],
            [
              -78.6465077498417,
              -1.6751557856150585
            ],
            [
              -78.64651530547526,
              -1.6751647466326536
            ],
            [
              -78.64663925111287,
              -1.6750602499341851
            ],
            [
              -78.6466433191176,
              -1.6750650747492413
            ],
            [
              -78.64668446198021,
              -1.675030389044404
            ],
            [
              -78.64653277426787,
              -1.674850501799866
            ],
            [
              -78.64652546219179,
              -1.6748512224539982
            ],
            [
              -78.64650848243325,
              -1.6748528977513366
            ],
            [
              -78.64604458149783,
              -1.6752556822399238
            ],
            [
              -78.64631363344573,
              -1.675578880974463
            ]
          ]
        ]
      }
    },
    {
      "type": "Feature",
      "properties": {
        "source_id": 4,
        "objectid": 21,
        "codigo": "060104001001041",
        "equipamien": "Educación",
        "nombre": "UE Maria Auxiliadora",
        "categoria": "ZONAL",
        "isocrona_distance_m": 1000,
        "genera_isocrona": true,
        "shape_area": 5014.22250861634,
        "shape_leng": 280.71827118148116
      },
      "geometry": {
        "type": "Polygon",
        "coordinates": [
          [
            [
              -78.64870357610525,
              -1.6749479715575473
            ],
            [
              -78.64870914216172,
              -1.674954568134301
            ],
            [
              -78.64888984485104,
              -1.675168689092485
            ],
            [
              -78.6489635679975,
              -1.6752560462630788
            ],
            [
              -78.6490993287202,
              -1.6754169132343506
            ],
            [
              -78.64910186461967,
              -1.6754199174390663
            ],
            [
              -78.64911899153623,
              -1.6754048519658584
            ],
            [
              -78.64957565852843,
              -1.6750031898269433
            ],
            [
              -78.64957700402869,
              -1.6750018065867993
            ],
            [
              -78.64957812069223,
              -1.675000231431143
            ],
            [
              -78.6495789815271,
              -1.6749985004857202
            ],
            [
              -78.64957956492574,
              -1.6749966544025974
            ],
            [
              -78.64957985825382,
              -1.6749947419802733
            ],
            [
              -78.64957985337384,
              -1.6749928075029064
            ],
            [
              -78.64957955113132,
              -1.6749908952654835
            ],
            [
              -78.6495789586555,
              -1.6749890531864242
            ],
            [
              -78.64957808757032,
              -1.6749873264777015
            ],
            [
              -78.64919537775643,
              -1.6745328232588566
            ],
            [
              -78.64919256315616,
              -1.6745300103583816
            ],
            [
              -78.64918931495406,
              -1.6745277203263935
            ],
            [
              -78.64918572649083,
              -1.6745260219763731
            ],
            [
              -78.64918359463823,
              -1.6745254336377602
            ],
            [
              -78.64918190101213,
              -1.6745249642467253
            ],
            [
              -78.64917795346197,
              -1.674524578914728
            ],
            [
              -78.64917399791184,
              -1.674524876061659
            ],
            [
              -78.64917014935419,
              -1.6745258467867132
            ],
            [
              -78.64916652459966,
              -1.6745274641121808
            ],
            [
              -78.64916591686556,
              -1.6745278719676933
            ],
            [
              -78.64916322521258,
              -1.6745296802508556
            ],
            [
              -78.64916034918569,
              -1.6745324293320687
            ],
            [
              -78.64911944618316,
              -1.6745670964726054
            ],
            [
              -78.6491073168176,
              -1.674577376106639
            ],
            [
              -78.64903948264558,
              -1.674634868217647
            ],
            [
              -78.64885178092952,
              -1.6747939542680146
            ],
            [
              -78.64881170608541,
              -1.6748279200111893
            ],
            [
              -78.64875946680398,
              -1.6748721942625397
            ],
            [
              -78.64874734193242,
              -1.674882469374595
            ],
            [
              -78.64870535717554,
              -1.6749180536006183
            ],
            [
              -78.6487029945405,
              -1.674920411885659
            ],
            [
              -78.64870103931274,
              -1.6749231213984361
            ],
            [
              -78.648699546368,
              -1.6749261153123602
            ],
            [
              -78.64869855353271,
              -1.6749293114129407
            ],
            [
              -78.64869808515789,
              -1.6749326283733525
            ],
            [
              -78.64869815572189,
              -1.6749359776231945
            ],
            [
              -78.64869876353484,
              -1.6749392696685819
            ],
            [
              -78.64869989073117,
              -1.6749424204198324
            ],
            [
              -78.64870151046118,
              -1.674945346680402
            ],
            [
              -78.64870357610525,
              -1.6749479715575473
            ]
          ]
        ]
      }
    },
    {
      "type": "Feature",
      "properties": {
        "source_id": 5,
        "objectid": 81,
        "codigo": "060102001001012",
        "equipamien": "Educación",
        "nombre": "UE Santa Mariana de Jesús",
        "categoria": "ZONAL",
        "isocrona_distance_m": 1000,
        "genera_isocrona": true,
        "shape_area": 5029.852799418957,
        "shape_leng": 282.94621408336155
      },
      "geometry": {
        "type": "Polygon",
        "coordinates": [
          [
            [
              -78.64682239738741,
              -1.6724550534559535
            ],
            [
              -78.6469514327994,
              -1.6723472007966527
            ],
            [
              -78.64698984075513,
              -1.6723150970128158
            ],
            [
              -78.647206363631,
              -1.6721341148870332
            ],
            [
              -78.64700144253163,
              -1.6718858525788691
            ],
            [
              -78.64680422130338,
              -1.6716469185018539
            ],
            [
              -78.6468020764391,
              -1.6716451929726255
            ],
            [
              -78.64679966880526,
              -1.671643860347642
            ],
            [
              -78.64679748236026,
              -1.6716431065218693
            ],
            [
              -78.64679707111071,
              -1.6716429650084923
            ],
            [
              -78.64679435968439,
              -1.6716425287422139
            ],
            [
              -78.6467916126615,
              -1.6716425652024258
            ],
            [
              -78.64678891447927,
              -1.6716430762988974
            ],
            [
              -78.646786340619,
              -1.6716440413316782
            ],
            [
              -78.64678396925895,
              -1.6716454377961458
            ],
            [
              -78.64678372197464,
              -1.6716456508316526
            ],
            [
              -78.64678036698785,
              -1.6716485521015894
            ],
            [
              -78.64673713611717,
              -1.6716859436477276
            ],
            [
              -78.64671013615795,
              -1.6717092946286318
            ],
            [
              -78.6466894217414,
              -1.6717272095638616
            ],
            [
              -78.64665435398366,
              -1.6717575392983284
            ],
            [
              -78.64665310676526,
              -1.671758618925822
            ],
            [
              -78.64631483117952,
              -1.6720511884986724
            ],
            [
              -78.64653032840016,
              -1.6723169361238888
            ],
            [
              -78.64656362678018,
              -1.6723580051002909
            ],
            [
              -78.64660022782076,
              -1.6724031476775136
            ],
            [
              -78.6466182049846,
              -1.672425318123619
            ],
            [
              -78.64665615956677,
              -1.6724721256175212
            ],
            [
              -78.64671506478828,
              -1.6725447690795177
            ],
            [
              -78.64673137068348,
              -1.6725311390137745
            ],
            [
              -78.64682239738741,
              -1.6724550534559535
            ]
          ]
        ]
      }
    },
    {
      "type": "Feature",
      "properties": {
        "source_id": 6,
        "objectid": 96,
        "codigo": "060104001001040",
        "equipamien": "Educación",
        "nombre": "ILE San Francisco",
        "categoria": "ZONAL",
        "isocrona_distance_m": 1000,
        "genera_isocrona": true,
        "shape_area": 4942.42333539636,
        "shape_leng": 281.23998129242557
      },
      "geometry": {
        "type": "Polygon",
        "coordinates": [
          [
            [
              -78.64925523320714,
              -1.674430915445746
            ],
            [
              -78.64966028428238,
              -1.67491656891325
            ],
            [
              -78.65013652862983,
              -1.674505046968757
            ],
            [
              -78.64973119170863,
              -1.6740117484284258
            ],
            [
              -78.64925523320714,
              -1.674430915445746
            ]
          ]
        ]
      }
    },
    {
      "type": "Feature",
      "properties": {
        "source_id": 7,
        "objectid": 115,
        "codigo": "060101003003004",
        "equipamien": "Educación",
        "nombre": "Escuela Juan de Velazco",
        "categoria": "BARRIAL",
        "isocrona_distance_m": 400,
        "genera_isocrona": true,
        "shape_area": 2581.2591578076917,
        "shape_leng": 218.22805421123974
      },
      "geometry": {
        "type": "Polygon",
        "coordinates": [
          [
            [
              -78.6510224782306,
              -1.674860112741122
            ],
            [
              -78.65110705404294,
              -1.674954906359149
            ],
            [
              -78.65117821194838,
              -1.675034661793651
            ],
            [
              -78.6511291793265,
              -1.6750791154135984
            ],
            [
              -78.65116823184657,
              -1.6751228861592622
            ],
            [
              -78.65118575219343,
              -1.6751425232245194
            ],
            [
              -78.65121535825985,
              -1.6751757071496731
            ],
            [
              -78.65139317230826,
              -1.675375004382393
            ],
            [
              -78.65165214645211,
              -1.6751424920277098
            ],
            [
              -78.65125783477167,
              -1.6746708345219143
            ],
            [
              -78.65124400789264,
              -1.6746680616700937
            ],
            [
              -78.6510224782306,
              -1.674860112741122
            ]
          ]
        ]
      }
    },
    {
      "type": "Feature",
      "properties": {
        "source_id": 8,
        "objectid": 118,
        "codigo": "060101003003002",
        "equipamien": "Educación",
        "nombre": "UE 11 de Noviembre",
        "categoria": "ZONAL",
        "isocrona_distance_m": 1000,
        "genera_isocrona": true,
        "shape_area": 1692.1737348319418,
        "shape_leng": 211.3599359295229
      },
      "geometry": {
        "type": "Polygon",
        "coordinates": [
          [
            [
              -78.65212383524162,
              -1.6738969906129146
            ],
            [
              -78.65219392937017,
              -1.6739822878177464
            ],
            [
              -78.65225684572304,
              -1.6740588504476646
            ],
            [
              -78.65225741980198,
              -1.674059548997022
            ],
            [
              -78.65230227868614,
              -1.6741141371882444
            ],
            [
              -78.65233876139995,
              -1.674158533979522
            ],
            [
              -78.65246211123288,
              -1.6743086388535404
            ],
            [
              -78.65247686685711,
              -1.6743265948320298
            ],
            [
              -78.65253403719645,
              -1.6743945358133823
            ],
            [
              -78.65264184736617,
              -1.6743039216756284
            ],
            [
              -78.65259654560028,
              -1.674248581747837
            ],
            [
              -78.65255394199032,
              -1.674196540010785
            ],
            [
              -78.65252819199578,
              -1.6741650845948777
            ],
            [
              -78.65250024145888,
              -1.674130369557833
            ],
            [
              -78.65252036375982,
              -1.6741141550620695
            ],
            [
              -78.65256529298843,
              -1.6740779477351706
            ],
            [
              -78.65252998892205,
              -1.6740364920431416
            ],
            [
              -78.65249751323698,
              -1.6739983572963075
            ],
            [
              -78.65246503037511,
              -1.6739602153103623
            ],
            [
              -78.65237712514005,
              -1.6738474397406726
            ],
            [
              -78.65243767752543,
              -1.6737984140952678
            ],
            [
              -78.65235331153981,
              -1.6736969956405998
            ],
            [
              -78.65212747167648,
              -1.6738938645811718
            ],
            [
              -78.65212383524162,
              -1.6738969906129146
            ]
          ]
        ]
      }
    },
    {
      "type": "Feature",
      "properties": {
        "source_id": 9,
        "objectid": 146,
        "codigo": "060104003001033",
        "equipamien": "Educación",
        "nombre": "UE Simón Bolivar",
        "categoria": "ZONAL",
        "isocrona_distance_m": 1000,
        "genera_isocrona": true,
        "shape_area": 4433.9010965604675,
        "shape_leng": 265.8406927823761
      },
      "geometry": {
        "type": "Polygon",
        "coordinates": [
          [
            [
              -78.650154974731,
              -1.6766622607243662
            ],
            [
              -78.65030716122766,
              -1.6768439939334654
            ],
            [
              -78.65030904999435,
              -1.676842784006514
            ],
            [
              -78.65037022438062,
              -1.6769193003224891
            ],
            [
              -78.65052081151983,
              -1.6770991251879774
            ],
            [
              -78.65052312750494,
              -1.677098979737229
            ],
            [
              -78.6505255814612,
              -1.677098388801311
            ],
            [
              -78.65052789757922,
              -1.6770973791656727
            ],
            [
              -78.65053000485803,
              -1.6770959805752237
            ],
            [
              -78.65053184126009,
              -1.6770942390568921
            ],
            [
              -78.65074085994829,
              -1.676911231027749
            ],
            [
              -78.65075846716982,
              -1.6768964345970683
            ],
            [
              -78.65088855488378,
              -1.6767919186688764
            ],
            [
              -78.6509994256917,
              -1.6766998794542545
            ],
            [
              -78.6509485500568,
              -1.6766378199409842
            ],
            [
              -78.65063373699792,
              -1.676265895227292
            ],
            [
              -78.65063220636549,
              -1.676264333144966
            ],
            [
              -78.65063043824978,
              -1.6762630500992537
            ],
            [
              -78.65062848201609,
              -1.6762620805002197
            ],
            [
              -78.65062639332318,
              -1.6762614542457557
            ],
            [
              -78.65062423054093,
              -1.676261187677628
            ],
            [
              -78.65062205115488,
              -1.676261285385032
            ],
            [
              -78.65062040055368,
              -1.6762616449752878
            ],
            [
              -78.65017424627253,
              -1.6766348470451695
            ],
            [
              -78.65016009156373,
              -1.6766470930509763
            ],
            [
              -78.65015825949571,
              -1.6766489674562897
            ],
            [
              -78.65015675856996,
              -1.6766511179692078
            ],
            [
              -78.65015563196938,
              -1.6766534904043258
            ],
            [
              -78.65015491121522,
              -1.6766560170028362
            ],
            [
              -78.65015461525587,
              -1.67665862727882
            ],
            [
              -78.65015475225681,
              -1.6766612534452345
            ],
            [
              -78.650154974731,
              -1.6766622607243662
            ]
          ]
        ]
      }
    },
    {
      "type": "Feature",
      "properties": {
        "source_id": 10,
        "objectid": 236,
        "codigo": "060104001001026",
        "equipamien": "Educación",
        "nombre": "Universidad de la casa Velez",
        "categoria": "CANTONAL",
        "isocrona_distance_m": 0,
        "genera_isocrona": false,
        "shape_area": 2038.9545054630023,
        "shape_leng": 214.07341161069434
      },
      "geometry": {
        "type": "Polygon",
        "coordinates": [
          [
            [
              -78.6485199595378,
              -1.6735447193617776
            ],
            [
              -78.64864821957258,
              -1.6737009994516794
            ],
            [
              -78.64871739383027,
              -1.6737852875353336
            ],
            [
              -78.64872750745167,
              -1.6737847709260836
            ],
            [
              -78.64873851325927,
              -1.6737750594278367
            ],
            [
              -78.64891104606555,
              -1.6736228250405478
            ],
            [
              -78.64902546903058,
              -1.6735218635123603
            ],
            [
              -78.64891460340912,
              -1.6733867760131276
            ],
            [
              -78.6489110154374,
              -1.6733824046620236
            ],
            [
              -78.64908225057373,
              -1.6732313130370424
            ],
            [
              -78.64899116706792,
              -1.6731129120838648
            ],
            [
              -78.64886344772597,
              -1.6732250748176296
            ],
            [
              -78.64874157700325,
              -1.6733321001535213
            ],
            [
              -78.64867372606494,
              -1.673391685844684
            ],
            [
              -78.6486684538452,
              -1.6733963158838085
            ],
            [
              -78.64867703806382,
              -1.6734067750932016
            ],
            [
              -78.6485199595378,
              -1.6735447193617776
            ]
          ]
        ]
      }
    },
    {
      "type": "Feature",
      "properties": {
        "source_id": 11,
        "objectid": 397,
        "codigo": "060104007002001",
        "equipamien": "Educación",
        "nombre": "UE Edmundo Chiriboga",
        "categoria": "ZONAL",
        "isocrona_distance_m": 1000,
        "genera_isocrona": true,
        "shape_area": 46960.94847039632,
        "shape_leng": 918.4900569175878
      },
      "geometry": {
        "type": "Polygon",
        "coordinates": [
          [
            [
              -78.6578810578682,
              -1.678853074232429
            ],
            [
              -78.65793035118614,
              -1.6787883438576534
            ],
            [
              -78.65803604134587,
              -1.6788718493251
            ],
            [
              -78.65806617443148,
              -1.6788956581068766
            ],
            [
              -78.65801521253077,
              -1.6789660263074289
            ],
            [
              -78.65877993181658,
              -1.6796098777326374
            ],
            [
              -78.6591074625561,
              -1.6792929819435063
            ],
            [
              -78.65923617161476,
              -1.6791684514179115
            ],
            [
              -78.65933598396533,
              -1.6790718800200513
            ],
            [
              -78.65952293230369,
              -1.6791726714427315
            ],
            [
              -78.65960936757469,
              -1.6790945808239806
            ],
            [
              -78.6599182964135,
              -1.6788174248959176
            ],
            [
              -78.6599243808369,
              -1.6788119659478982
            ],
            [
              -78.65974266141306,
              -1.6786425057419876
            ],
            [
              -78.65984824678482,
              -1.6785341290848454
            ],
            [
              -78.65988124046767,
              -1.6785002638022388
            ],
            [
              -78.66001879778106,
              -1.678359070097378
            ],
            [
              -78.66006138360477,
              -1.6783108098588908
            ],
            [
              -78.6601174281597,
              -1.6782486700674637
            ],
            [
              -78.66016433209072,
              -1.6781966635630787
            ],
            [
              -78.6602251027246,
              -1.6781223467068251
            ],
            [
              -78.6602715128382,
              -1.6780655910658866
            ],
            [
              -78.66001509370903,
              -1.6777353882765353
            ],
            [
              -78.65979484120928,
              -1.677457356268098
            ],
            [
              -78.6597776963184,
              -1.6774383505501642
            ],
            [
              -78.65950093971574,
              -1.6771315659706625
            ],
            [
              -78.65932083933492,
              -1.6769180604419403
            ],
            [
              -78.6593012699283,
              -1.6768998129529076
            ],
            [
              -78.65929161432491,
              -1.6768927937942526
            ],
            [
              -78.65927964399721,
              -1.676884092282566
            ],
            [
              -78.6592562810601,
              -1.676871132038378
            ],
            [
              -78.65923577940117,
              -1.676863308855132
            ],
            [
              -78.65921429633916,
              -1.6768588924381402
            ],
            [
              -78.659192388688,
              -1.6768579955491327
            ],
            [
              -78.65917062144726,
              -1.6768606459869961
            ],
            [
              -78.65914955614252,
              -1.6768667712063494
            ],
            [
              -78.65912974002754,
              -1.6768762136720288
            ],
            [
              -78.6591116827294,
              -1.6768887299268855
            ],
            [
              -78.65910819004966,
              -1.676892572996649
            ],
            [
              -78.659045039374,
              -1.676962059775564
            ],
            [
              -78.65886928559965,
              -1.677164427563278
            ],
            [
              -78.65846325486507,
              -1.6776315467335614
            ],
            [
              -78.65838321055666,
              -1.6777252718596651
            ],
            [
              -78.65802029138435,
              -1.6781474604049818
            ],
            [
              -78.65782402107378,
              -1.6783671338639705
            ],
            [
              -78.65774169978387,
              -1.6784636340137458
            ],
            [
              -78.65771890228879,
              -1.6784903448763193
            ],
            [
              -78.65766669595462,
              -1.6785519241320999
            ],
            [
              -78.65766255525101,
              -1.6785568077760555
            ],
            [
              -78.65760697021754,
              -1.6786223079621467
            ],
            [
              -78.65766655241445,
              -1.6786724729636477
            ],
            [
              -78.6578810578682,
              -1.678853074232429
            ]
          ]
        ]
      }
    },
    {
      "type": "Feature",
      "properties": {
        "source_id": 12,
        "objectid": 586,
        "codigo": "060102002001050",
        "equipamien": "Educación",
        "nombre": "UE Juan Bernardo de León",
        "categoria": "ZONAL",
        "isocrona_distance_m": 1000,
        "genera_isocrona": true,
        "shape_area": 9245.54834880947,
        "shape_leng": 408.05697858996285
      },
      "geometry": {
        "type": "Polygon",
        "coordinates": [
          [
            [
              -78.6404485676184,
              -1.6768648160957949
            ],
            [
              -78.64049183907971,
              -1.676828180776314
            ],
            [
              -78.64053492440426,
              -1.676791703419454
            ],
            [
              -78.64062625558212,
              -1.6767143753054692
            ],
            [
              -78.64073254319926,
              -1.6766243855736196
            ],
            [
              -78.64080410718083,
              -1.6765637954497554
            ],
            [
              -78.64090630431063,
              -1.676477269191228
            ],
            [
              -78.6409827041981,
              -1.6764125845797009
            ],
            [
              -78.64023593953837,
              -1.6755216416826626
            ],
            [
              -78.64023486646944,
              -1.675520567389882
            ],
            [
              -78.64023362787614,
              -1.6755196926699076
            ],
            [
              -78.64023225965865,
              -1.6755190437808989
            ],
            [
              -78.64023080132215,
              -1.6755186370418897
            ],
            [
              -78.64022929507003,
              -1.6755184860633519
            ],
            [
              -78.64022778581241,
              -1.6755185945155424
            ],
            [
              -78.64022631756868,
              -1.6755189597399827
            ],
            [
              -78.64022493077593,
              -1.6755195700343233
            ],
            [
              -78.64022366767323,
              -1.6755204091786116
            ],
            [
              -78.63975522739089,
              -1.6759275723891114
            ],
            [
              -78.63975370832814,
              -1.6759291172086321
            ],
            [
              -78.63975246745449,
              -1.6759308964892259
            ],
            [
              -78.63975154165934,
              -1.6759328605583035
            ],
            [
              -78.63975095526472,
              -1.6759349524963454
            ],
            [
              -78.63975072540849,
              -1.6759371135672623
            ],
            [
              -78.63975086024782,
              -1.6759392832161553
            ],
            [
              -78.6397513535683,
              -1.6759413999667232
            ],
            [
              -78.63975219196816,
              -1.6759434032379303
            ],
            [
              -78.63975335305841,
              -1.6759452360536233
            ],
            [
              -78.6403588953406,
              -1.6766574607839586
            ],
            [
              -78.64041568718928,
              -1.6767713391337242
            ],
            [
              -78.64043631419773,
              -1.6768136971680616
            ],
            [
              -78.6404485676184,
              -1.6768648160957949
            ]
          ]
        ]
      }
    },
    {
      "type": "Feature",
      "properties": {
        "source_id": 13,
        "objectid": 596,
        "codigo": "060102002001051",
        "equipamien": "Educación",
        "nombre": "Centro de Educacion Inicial Alfredo Costales",
        "categoria": "BARRIAL",
        "isocrona_distance_m": 400,
        "genera_isocrona": true,
        "shape_area": 1969.0987150775313,
        "shape_leng": 177.09997036138287
      },
      "geometry": {
        "type": "Polygon",
        "coordinates": [
          [
            [
              -78.64087345955592,
              -1.6755534762191746
            ],
            [
              -78.64072189109956,
              -1.675374768117622
            ],
            [
              -78.6405904438206,
              -1.675219783362045
            ],
            [
              -78.64058143188318,
              -1.6752275283531606
            ],
            [
              -78.64032462034278,
              -1.675446797978958
            ],
            [
              -78.64032305830358,
              -1.6754482252341658
            ],
            [
              -78.64032174570734,
              -1.6754498878194644
            ],
            [
              -78.6403207176382,
              -1.675451743291623
            ],
            [
              -78.64031999930997,
              -1.675453740155919
            ],
            [
              -78.64031961234214,
              -1.6754558278172402
            ],
            [
              -78.6403195630888,
              -1.6754579511421592
            ],
            [
              -78.64031985700676,
              -1.6754600540922442
            ],
            [
              -78.64032048517916,
              -1.6754620815155863
            ],
            [
              -78.64032142790644,
              -1.6754639809590235
            ],
            [
              -78.64032266458746,
              -1.6754657026802189
            ],
            [
              -78.6403241620418,
              -1.6754671996333879
            ],
            [
              -78.64058257092078,
              -1.6757835176325775
            ],
            [
              -78.64058378120323,
              -1.6757847801141887
            ],
            [
              -78.64058517588504,
              -1.6757858340063054
            ],
            [
              -78.6405867190671,
              -1.675786652146811
            ],
            [
              -78.64058837124958,
              -1.6757872136969134
            ],
            [
              -78.64059009112849,
              -1.675787504143259
            ],
            [
              -78.64059183469628,
              -1.6757875162008775
            ],
            [
              -78.64059355883509,
              -1.6757872498174842
            ],
            [
              -78.64059521862288,
              -1.6757867112662679
            ],
            [
              -78.64059677272206,
              -1.6757859140564244
            ],
            [
              -78.64059818068367,
              -1.6757848798337367
            ],
            [
              -78.64059940834238,
              -1.6757836338674805
            ],
            [
              -78.64085888447605,
              -1.675565743271421
            ],
            [
              -78.64087345955592,
              -1.6755534762191746
            ]
          ]
        ]
      }
    },
    {
      "type": "Feature",
      "properties": {
        "source_id": 14,
        "objectid": 833,
        "codigo": "060102002001056",
        "equipamien": "Educación",
        "nombre": "UE Especial",
        "categoria": "ZONAL",
        "isocrona_distance_m": 1000,
        "genera_isocrona": true,
        "shape_area": 1329.764969169212,
        "shape_leng": 152.28618362575776
      },
      "geometry": {
        "type": "Polygon",
        "coordinates": [
          [
            [
              -78.6421369354725,
              -1.6746374762532288
            ],
            [
              -78.64218889162224,
              -1.674694664528343
            ],
            [
              -78.64221785931746,
              -1.6747265504192725
            ],
            [
              -78.64238937160144,
              -1.6749153346466132
            ],
            [
              -78.64243532878433,
              -1.67496592042273
            ],
            [
              -78.64249555702101,
              -1.674912180975105
            ],
            [
              -78.64253412859446,
              -1.6748777644340525
            ],
            [
              -78.64261317814854,
              -1.6748072315065747
            ],
            [
              -78.64232665454213,
              -1.674473723313566
            ],
            [
              -78.6421369354725,
              -1.6746374762532288
            ]
          ]
        ]
      }
    },
    {
      "type": "Feature",
      "properties": {
        "source_id": 15,
        "objectid": 1449,
        "codigo": "060104003001017",
        "equipamien": "Educación",
        "nombre": "UE Fé y Alegria",
        "categoria": "ZONAL",
        "isocrona_distance_m": 1000,
        "genera_isocrona": true,
        "shape_area": 3726.25162796192,
        "shape_leng": 252.9175412652708
      },
      "geometry": {
        "type": "Polygon",
        "coordinates": [
          [
            [
              -78.64367231187717,
              -1.680290439707711
            ],
            [
              -78.64321026615498,
              -1.6797314092530597
            ],
            [
              -78.64319483067432,
              -1.6797449724292135
            ],
            [
              -78.64299309447351,
              -1.6799015482049857
            ],
            [
              -78.64295312430602,
              -1.6799349848483336
            ],
            [
              -78.64292077489985,
              -1.6799559914287052
            ],
            [
              -78.64290363488776,
              -1.6799789310525364
            ],
            [
              -78.64289948763772,
              -1.6799900220545612
            ],
            [
              -78.6429288959048,
              -1.6800245508539062
            ],
            [
              -78.6429965250187,
              -1.6801143224231427
            ],
            [
              -78.64302498558486,
              -1.6801645834000998
            ],
            [
              -78.64305705840036,
              -1.6804513431085981
            ],
            [
              -78.6430581509682,
              -1.680451890424089
            ],
            [
              -78.6430605305895,
              -1.6804526065344332
            ],
            [
              -78.64306299604524,
              -1.68045290873794
            ],
            [
              -78.6430654772794,
              -1.680452787909987
            ],
            [
              -78.64306790152916,
              -1.6804522448661277
            ],
            [
              -78.64307020050147,
              -1.6804512985064521
            ],
            [
              -78.64328297511484,
              -1.6804310055312484
            ],
            [
              -78.64338330737345,
              -1.6804048412879313
            ],
            [
              -78.64348188176133,
              -1.6803726111733346
            ],
            [
              -78.64357833433036,
              -1.6803344295468678
            ],
            [
              -78.64367231187717,
              -1.680290439707711
            ]
          ]
        ]
      }
    },
    {
      "type": "Feature",
      "properties": {
        "source_id": 16,
        "objectid": 1540,
        "codigo": "060104007004033",
        "equipamien": "Educación",
        "nombre": "UNACH",
        "categoria": "CANTONAL",
        "isocrona_distance_m": 0,
        "genera_isocrona": false,
        "shape_area": 26405.70132812816,
        "shape_leng": 824.4804808017386
      },
      "geometry": {
        "type": "Polygon",
        "coordinates": [
          [
            [
              -78.6394524165365,
              -1.6815235447521935
            ],
            [
              -78.63949169549939,
              -1.6815711874457866
            ],
            [
              -78.63949187579298,
              -1.6815714064216387
            ],
            [
              -78.63954219395121,
              -1.6816324374294083
            ],
            [
              -78.63973200541513,
              -1.6818592693973768
            ],
            [
              -78.63982579528647,
              -1.6819713516135415
            ],
            [
              -78.63987090114969,
              -1.6820252549603267
            ],
            [
              -78.63995935206157,
              -1.682130957828436
            ],
            [
              -78.64007563344371,
              -1.6822699184544538
            ],
            [
              -78.64074823293652,
              -1.6816730815785967
            ],
            [
              -78.64088134941791,
              -1.6815548130510753
            ],
            [
              -78.64094629351843,
              -1.6814739114324835
            ],
            [
              -78.6409543875775,
              -1.681463828643776
            ],
            [
              -78.64096329580929,
              -1.6814527326100668
            ],
            [
              -78.64096313196617,
              -1.6814328364059705
            ],
            [
              -78.64098409967949,
              -1.6814113613898316
            ],
            [
              -78.64088810833515,
              -1.6813086622388036
            ],
            [
              -78.64095367744788,
              -1.6812017320425117
            ],
            [
              -78.64101162092511,
              -1.6812511294233559
            ],
            [
              -78.64103663405231,
              -1.6812188480452643
            ],
            [
              -78.64108602443112,
              -1.6811751287646184
            ],
            [
              -78.64113838323077,
              -1.681128781682082
            ],
            [
              -78.64119548736622,
              -1.6810782351752764
            ],
            [
              -78.6412325975905,
              -1.6810453854477276
            ],
            [
              -78.64128563441756,
              -1.6809984389508963
            ],
            [
              -78.6413447960297,
              -1.6809460707529555
            ],
            [
              -78.64140025273333,
              -1.68089698120249
            ],
            [
              -78.64149644092628,
              -1.6808118381735666
            ],
            [
              -78.641595533688,
              -1.6807241232955248
            ],
            [
              -78.64156435395897,
              -1.6806814341620488
            ],
            [
              -78.64167307372112,
              -1.6806056929837918
            ],
            [
              -78.641727991009,
              -1.6805674339134091
            ],
            [
              -78.6417998921626,
              -1.6805173419371102
            ],
            [
              -78.64187321380534,
              -1.6804662609460617
            ],
            [
              -78.64199965373942,
              -1.6803781742591022
            ],
            [
              -78.64165505250459,
              -1.679966900525706
            ],
            [
              -78.64116461116782,
              -1.6803817225525755
            ],
            [
              -78.64102587165605,
              -1.6802132938948684
            ],
            [
              -78.64050654439542,
              -1.6806598434472966
            ],
            [
              -78.64047681376738,
              -1.6806290331274503
            ],
            [
              -78.6403814693415,
              -1.6807192256571974
            ],
            [
              -78.64033900829635,
              -1.6807540801435612
            ],
            [
              -78.64029532332943,
              -1.6807885579978803
            ],
            [
              -78.64025192293542,
              -1.6808306682661631
            ],
            [
              -78.64025154256181,
              -1.6808309977461708
            ],
            [
              -78.64024839436966,
              -1.680833719333649
            ],
            [
              -78.64020162288186,
              -1.6808741667445923
            ],
            [
              -78.64020124160996,
              -1.6808744962234565
            ],
            [
              -78.64016583544839,
              -1.6809051161256852
            ],
            [
              -78.6401272954814,
              -1.6809384449746476
            ],
            [
              -78.6400677729498,
              -1.6809899204495167
            ],
            [
              -78.64001592891614,
              -1.6810347548825557
            ],
            [
              -78.63997342515172,
              -1.6810715121095554
            ],
            [
              -78.6399686394478,
              -1.681075665371543
            ],
            [
              -78.63992807607707,
              -1.6811108584066
            ],
            [
              -78.63988755227238,
              -1.6811460162327283
            ],
            [
              -78.63985290583386,
              -1.6811760756853413
            ],
            [
              -78.63983608033776,
              -1.6811906739273104
            ],
            [
              -78.63978480083661,
              -1.6812351646202095
            ],
            [
              -78.63973720727869,
              -1.6812764570915029
            ],
            [
              -78.639648999983,
              -1.6813529868060484
            ],
            [
              -78.63961069906608,
              -1.6813862173798366
            ],
            [
              -78.63956966358901,
              -1.681421820208688
            ],
            [
              -78.63952848962832,
              -1.6814575439955541
            ],
            [
              -78.6394524165365,
              -1.6815235447521935
            ]
          ]
        ]
      }
    },
    {
      "type": "Feature",
      "properties": {
        "source_id": 17,
        "objectid": 2582,
        "codigo": "060101007001031",
        "equipamien": "Educación",
        "nombre": "UE Edmundo Chiriboga",
        "categoria": "ZONAL",
        "isocrona_distance_m": 1000,
        "genera_isocrona": true,
        "shape_area": 9241.899130291786,
        "shape_leng": 383.9741686379016
      },
      "geometry": {
        "type": "Polygon",
        "coordinates": [
          [
            [
              -78.66170606478255,
              -1.677424150163549
            ],
            [
              -78.66226859849063,
              -1.6780521544048832
            ],
            [
              -78.66264422890706,
              -1.6777047940673608
            ],
            [
              -78.66292152239707,
              -1.677448370973582
            ],
            [
              -78.66266277570851,
              -1.6771582326597172
            ],
            [
              -78.66251754146153,
              -1.6769953783473102
            ],
            [
              -78.66236581663536,
              -1.6768252465535052
            ],
            [
              -78.66236342640411,
              -1.6768251126050662
            ],
            [
              -78.66236049212489,
              -1.6768254616249239
            ],
            [
              -78.66235766235062,
              -1.676826313376008
            ],
            [
              -78.66235502334526,
              -1.676827645362845
            ],
            [
              -78.66232543640893,
              -1.6768506464889847
            ],
            [
              -78.66225555755055,
              -1.676915465497087
            ],
            [
              -78.66218447273708,
              -1.676981399445258
            ],
            [
              -78.66216450927489,
              -1.6769999167062515
            ],
            [
              -78.66208218235862,
              -1.677076280652723
            ],
            [
              -78.662053884224,
              -1.6771025276511222
            ],
            [
              -78.66170606478255,
              -1.677424150163549
            ]
          ]
        ]
      }
    },
    {
      "type": "Feature",
      "properties": {
        "source_id": 18,
        "objectid": 2696,
        "codigo": "060101003003049",
        "equipamien": "Educación",
        "nombre": "Escuela Leonidas Garcia",
        "categoria": "BARRIAL",
        "isocrona_distance_m": 400,
        "genera_isocrona": true,
        "shape_area": 2953.573392164619,
        "shape_leng": 231.21293577368166
      },
      "geometry": {
        "type": "Polygon",
        "coordinates": [
          [
            [
              -78.65607169835579,
              -1.6768384859217718
            ],
            [
              -78.6562924891089,
              -1.6766535734087173
            ],
            [
              -78.6563488521894,
              -1.6767244749681978
            ],
            [
              -78.65635040870444,
              -1.6767231679055004
            ],
            [
              -78.65635562496252,
              -1.6767187881629941
            ],
            [
              -78.65658627241127,
              -1.67652511356996
            ],
            [
              -78.65631846102697,
              -1.6761860524424708
            ],
            [
              -78.6563173144947,
              -1.6761847945526462
            ],
            [
              -78.65631597457312,
              -1.676183750669046
            ],
            [
              -78.65631447895532,
              -1.6761829506679087
            ],
            [
              -78.65631287073603,
              -1.6761824144883033
            ],
            [
              -78.65631119480656,
              -1.676182162071514
            ],
            [
              -78.65630950056912,
              -1.6761821970929007
            ],
            [
              -78.65630783563358,
              -1.6761825196098037
            ],
            [
              -78.6563062512138,
              -1.6761831206443227
            ],
            [
              -78.65630478865306,
              -1.6761839821669855
            ],
            [
              -78.65630349199708,
              -1.6761850798238618
            ],
            [
              -78.65630239901103,
              -1.676186382925709
            ],
            [
              -78.65610412061652,
              -1.676351731055746
            ],
            [
              -78.65584852141366,
              -1.6765647989274304
            ],
            [
              -78.65604694213883,
              -1.6768082429328701
            ],
            [
              -78.65607169835579,
              -1.6768384859217718
            ]
          ]
        ]
      }
    },
    {
      "type": "Feature",
      "properties": {
        "source_id": 19,
        "objectid": 2730,
        "codigo": "060104003001053",
        "equipamien": "Educación",
        "nombre": "UE Isabel de Godín",
        "categoria": "ZONAL",
        "isocrona_distance_m": 1000,
        "genera_isocrona": true,
        "shape_area": 37434.13802778341,
        "shape_leng": 830.150149863155
      },
      "geometry": {
        "type": "Polygon",
        "coordinates": [
          [
            [
              -78.65109142859954,
              -1.6812682289958212
            ],
            [
              -78.65162073199319,
              -1.6809378199422902
            ],
            [
              -78.65184536193789,
              -1.6812353211583826
            ],
            [
              -78.65211297868271,
              -1.6809599065272942
            ],
            [
              -78.65241965934017,
              -1.680696109712721
            ],
            [
              -78.65228284139367,
              -1.680526609788542
            ],
            [
              -78.65202692153227,
              -1.6802540209916992
            ],
            [
              -78.65179163737035,
              -1.6799687421238245
            ],
            [
              -78.65089203231865,
              -1.6788779810908034
            ],
            [
              -78.64985231900322,
              -1.6797748163119242
            ],
            [
              -78.64984862174795,
              -1.6797852173053085
            ],
            [
              -78.64985110177743,
              -1.6797981351667626
            ],
            [
              -78.65071977983243,
              -1.6808135203189087
            ],
            [
              -78.65084792489606,
              -1.6809810960059561
            ],
            [
              -78.65109087247598,
              -1.6812675413130291
            ],
            [
              -78.65109142859954,
              -1.6812682289958212
            ]
          ]
        ]
      }
    },
    {
      "type": "Feature",
      "properties": {
        "source_id": 20,
        "objectid": 2855,
        "codigo": "060101003003026",
        "equipamien": "Educación",
        "nombre": "APRODVICH",
        "categoria": "ZONAL",
        "isocrona_distance_m": 1000,
        "genera_isocrona": true,
        "shape_area": 1550.0444918397166,
        "shape_leng": 165.40921959127982
      },
      "geometry": {
        "type": "Polygon",
        "coordinates": [
          [
            [
              -78.65823047427104,
              -1.6769010421790624
            ],
            [
              -78.65818745300282,
              -1.6768577844963812
            ],
            [
              -78.6580927208031,
              -1.6767625318018013
            ],
            [
              -78.65808318953277,
              -1.6767529482476133
            ],
            [
              -78.65803083797991,
              -1.6767003097469895
            ],
            [
              -78.65775170747914,
              -1.676939076572456
            ],
            [
              -78.65779948270584,
              -1.6769889913469083
            ],
            [
              -78.65773530795575,
              -1.6770516943386549
            ],
            [
              -78.65775120342582,
              -1.6770682994167554
            ],
            [
              -78.65775465131493,
              -1.6770719031545327
            ],
            [
              -78.65779214746632,
              -1.6771110773067315
            ],
            [
              -78.6578859843919,
              -1.6772097902185699
            ],
            [
              -78.65823047427104,
              -1.6769010421790624
            ]
          ]
        ]
      }
    },
    {
      "type": "Feature",
      "properties": {
        "source_id": 21,
        "objectid": 3240,
        "codigo": "060104003001019",
        "equipamien": "Educación",
        "nombre": "UE Amelia Gallegos",
        "categoria": "ZONAL",
        "isocrona_distance_m": 1000,
        "genera_isocrona": true,
        "shape_area": 24049.32566734486,
        "shape_leng": 670.173046033414
      },
      "geometry": {
        "type": "Polygon",
        "coordinates": [
          [
            [
              -78.64387533358148,
              -1.6803602111835312
            ],
            [
              -78.64432211411025,
              -1.680671160945461
            ],
            [
              -78.64401318871158,
              -1.6811264487476516
            ],
            [
              -78.64497950587354,
              -1.6817490663785428
            ],
            [
              -78.64563971164378,
              -1.680754584537008
            ],
            [
              -78.64463981114972,
              -1.6796093954647977
            ],
            [
              -78.64463649376835,
              -1.6796146253417565
            ],
            [
              -78.64463643886845,
              -1.679614712054871
            ],
            [
              -78.64463171846842,
              -1.6796220925473726
            ],
            [
              -78.64463163747037,
              -1.6796222190028605
            ],
            [
              -78.64462691354967,
              -1.6796295389260185
            ],
            [
              -78.64462680285702,
              -1.6796297078313767
            ],
            [
              -78.64462207721549,
              -1.679636964475514
            ],
            [
              -78.64462194042248,
              -1.6796371749311487
            ],
            [
              -78.64461721485236,
              -1.6796443719142555
            ],
            [
              -78.64461704746648,
              -1.6796446248186692
            ],
            [
              -78.64461232017554,
              -1.6796517585227566
            ],
            [
              -78.64461212399443,
              -1.6796520529741747
            ],
            [
              -78.644607396776,
              -1.6796591261132807
            ],
            [
              -78.64460717180074,
              -1.6796594612077502
            ],
            [
              -78.64460244555094,
              -1.6796664755908681
            ],
            [
              -78.64460218998606,
              -1.6796668504222743
            ],
            [
              -78.64459746201435,
              -1.679673802430292
            ],
            [
              -78.64459717765638,
              -1.6796742170007957
            ],
            [
              -78.64459245245098,
              -1.6796811093510713
            ],
            [
              -78.6445921375023,
              -1.6796815645624446
            ],
            [
              -78.64458741057173,
              -1.6796883972495118
            ],
            [
              -78.6445870650334,
              -1.679688892197802
            ],
            [
              -78.6445823417707,
              -1.6796956625163422
            ],
            [
              -78.64458196474226,
              -1.6796961990083634
            ],
            [
              -78.64457724245037,
              -1.6797029087629967
            ],
            [
              -78.64457683662994,
              -1.679703484090177
            ],
            [
              -78.64457211710544,
              -1.6797101332830993
            ],
            [
              -78.64457167710113,
              -1.6797107492467698
            ],
            [
              -78.64456696124014,
              -1.679717339686994
            ],
            [
              -78.64456648885175,
              -1.679717993577493
            ],
            [
              -78.64456177755584,
              -1.6797245225542174
            ],
            [
              -78.6445612727812,
              -1.67972521617945
            ],
            [
              -78.64455656335222,
              -1.6797316864012806
            ],
            [
              -78.64455602709184,
              -1.679732417954429
            ],
            [
              -78.64455132132747,
              -1.6797388285196098
            ],
            [
              -78.64455075358129,
              -1.679739598000658
            ],
            [
              -78.6445460514826,
              -1.6797459480052197
            ],
            [
              -78.64454544955468,
              -1.6797467563148658
            ],
            [
              -78.64454075381443,
              -1.6797530475699678
            ],
            [
              -78.64454011680755,
              -1.6797538938031848
            ],
            [
              -78.64453542742679,
              -1.6797601254048915
            ],
            [
              -78.64453475713862,
              -1.679761008659873
            ],
            [
              -78.64453007142032,
              -1.6797671824128362
            ],
            [
              -78.64452936875023,
              -1.6797681017867359
            ],
            [
              -78.64452468939142,
              -1.6797742158862878
            ],
            [
              -78.64452395074517,
              -1.6797751722786967
            ],
            [
              -78.644519278642,
              -1.6797812285338494
            ],
            [
              -78.644518505814,
              -1.6797822237548519
            ],
            [
              -78.6445138400714,
              -1.679788219452658
            ],
            [
              -78.6445130312694,
              -1.679789249884247
            ],
            [
              -78.64450837367964,
              -1.6797951886427143
            ],
            [
              -78.64450753069698,
              -1.6797962569989426
            ],
            [
              -78.64450687574585,
              -1.679797085131226
            ],
            [
              -78.64450346373786,
              -1.6798018195246762
            ],
            [
              -78.64442913517013,
              -1.679894057512017
            ],
            [
              -78.64434998324033,
              -1.6799821377665771
            ],
            [
              -78.64426623642099,
              -1.6800658065534735
            ],
            [
              -78.64417813844388,
              -1.680144820100092
            ],
            [
              -78.64408594290477,
              -1.6802189491092347
            ],
            [
              -78.64398991775597,
              -1.6802879778607271
            ],
            [
              -78.64389034170563,
              -1.6803517105346681
            ],
            [
              -78.64387533358148,
              -1.6803602111835312
            ]
          ]
        ]
      }
    },
    {
      "type": "Feature",
      "properties": {
        "source_id": 22,
        "objectid": 3283,
        "codigo": "060104007002003",
        "equipamien": "Educación",
        "nombre": "Jardin de Infantes Coop Liberacion Popular",
        "categoria": "BARRIAL",
        "isocrona_distance_m": 400,
        "genera_isocrona": true,
        "shape_area": 734.9304269724936,
        "shape_leng": 136.81374099811663
      },
      "geometry": {
        "type": "Polygon",
        "coordinates": [
          [
            [
              -78.66052287833044,
              -1.6796590266008171
            ],
            [
              -78.66038579581044,
              -1.6795958143221768
            ],
            [
              -78.65999578526662,
              -1.679806120084682
            ],
            [
              -78.66008487767031,
              -1.6799062358836616
            ],
            [
              -78.66052287833044,
              -1.6796590266008171
            ]
          ]
        ]
      }
    }
  ]
}