{
  "type": "FeatureCollection",
  "features": [
    {
      "type": "Feature",
      "properties": {
        "source_id": 1,
        "objectid": 19,
        "codigo": "060102001001002",
        "equipamien": "Cultural",
        "nombre": "Centro Cultural Simon Bolivar-Parqueadero",
        "categoria": "ZONAL",
        "isocrona_distance_m": 1000,
        "genera_isocrona": true,
        "shape_area": 3892.4876016938424,
        "shape_leng": 249.61408274232662
      },
      "geometry": {
        "type": "Polygon",
        "coordinates": [
          [
            [
              -78.64589036817932,
              -1.6714881713099634
            ],
            [
              -78.64594340119189,
              -1.671551043091813
            ],
            [
              -78.64604839168946,
              -1.671675513500983
            ],
            [
              -78.64614817407303,
              -1.6717938063275364
            ],
            [
              -78.64615645451177,
              -1.6718036233436366
            ],
            [
              -78.64624446793307,
              -1.6719079647786401
            ],
            [
              -78.64624699126496,
              -1.6719109563040262
            ],
            [
              -78.64624774566465,
              -1.671911849419512
            ],
            [
              -78.64626376901195,
              -1.6718986140427594
            ],
            [
              -78.6466867160653,
              -1.671549275967481
            ],
            [
              -78.64633933901463,
              -1.6711293704185959
            ],
            [
              -78.64633553483449,
              -1.6711247719227302
            ],
            [
              -78.64633378865318,
              -1.6711261971638467
            ],
            [
              -78.64632919121311,
              -1.6711299511735926
            ],
            [
              -78.64632477720633,
              -1.671133552635916
            ],
            [
              -78.64631467596689,
              -1.6711417999023528
            ],
            [
              -78.64630447402192,
              -1.6711501284032415
            ],
            [
              -78.64627211841095,
              -1.671176540045367
            ],
            [
              -78.64616628469666,
              -1.6712629336633014
            ],
            [
              -78.64612509296995,
              -1.6712965599612017
            ],
            [
              -78.64597707843242,
              -1.6714173876877922
            ],
            [
              -78.64589036817932,
              -1.6714881713099634
            ]
          ]
        ]
      }
    },
    {
      "type": "Feature",
      "properties": {
        "source_id": 2,
        "objectid": 53,
        "codigo": "060103001002036",
        "equipamien": "Cultural",
        "nombre": "Centro Cultural Maldonado",
        "categoria": "CANTONAL",
        "isocrona_distance_m": 0,
        "genera_isocrona": false,
        "shape_area": 4823.149640717282,
        "shape_leng": 277.7806723770168
      },
      "geometry": {
        "type": "Polygon",
        "coordinates": [
          [
            [
              -78.64949844854824,
              -1.6712512227810385
            ],
            [
              -78.6496230893817,
              -1.6714024244274122
            ],
            [
              -78.64962223603568,
              -1.671403151086115
            ],
            [
              -78.64965195534968,
              -1.6714385244435517
            ],
            [
              -78.64986934922116,
              -1.6716972824076093
            ],
            [
              -78.64987404693792,
              -1.6717028745332017
            ],
            [
              -78.64989771313792,
              -1.6717310423821
            ],
            [
              -78.64991567466778,
              -1.6717150829335452
            ],
            [
              -78.65036736023109,
              -1.6713137304419328
            ],
            [
              -78.65010307677875,
              -1.6709886838620582
            ],
            [
              -78.64998276842088,
              -1.670841931309777
            ],
            [
              -78.64997845119034,
              -1.6708366659742133
            ],
            [
              -78.64996365006853,
              -1.6708494436899735
            ],
            [
              -78.6499308088421,
              -1.6708777956846208
            ],
            [
              -78.64991324891834,
              -1.670892956528407
            ],
            [
              -78.64986566681596,
              -1.6709340338762806
            ],
            [
              -78.64985678164427,
              -1.6709417059223504
            ],
            [
              -78.6496202944062,
              -1.671146756231966
            ],
            [
              -78.64957653877573,
              -1.6711842702397655
            ],
            [
              -78.64949844854824,
              -1.6712512227810385
            ]
          ]
        ]
      }
    },
    {
      "type": "Feature",
      "properties": {
        "source_id": 3,
        "objectid": 90,
        "codigo": "060103001002031",
        "equipamien": "Cultural",
        "nombre": "Plaza Juan Fernardo de León",
        "categoria": "ZONAL",
        "isocrona_distance_m": 1000,
        "genera_isocrona": true,
        "shape_area": 2306.681813355398,
        "shape_leng": 207.74808037431
      },
      "geometry": {
        "type": "Polygon",
        "coordinates": [
          [
            [
              -78.64916587440293,
              -1.6709782687055657
            ],
            [
              -78.64898616412843,
              -1.6707572504540358
            ],
            [
              -78.64848894632406,
              -1.6711608535333813
            ],
            [
              -78.64866961147693,
              -1.6713968506352483
            ],
            [
              -78.64877267564313,
              -1.671310628765881
            ],
            [
              -78.64881758127572,
              -1.6712722004780922
            ],
            [
              -78.64893703318371,
              -1.6711699783804372
            ],
            [
              -78.64899188496841,
              -1.6711230386408191
            ],
            [
              -78.64916587440293,
              -1.6709782687055657
            ]
          ]
        ]
      }
    }
  ]
}