{
  "type": "FeatureCollection",
  "features": [
    {
      "type": "Feature",
      "properties": {
        "ID": "LAS_ABRAS-0001",
        "CORREDOR": "QUEBRADA_LAS_ABRAS",
        "LONGITUD_M": 9.270399861442929,
        "CAMARA_MAS_CERCANA": "RIO-069-DOMO",
        "DIST_CAMARA_M": 204.9281930574651,
        "METODO_DIST": "Distancia minima del segmento al punto de camara"
      },
      "geometry": {
        "type": "LineString",
        "coordinates": [
          [
            -78.67500445309504,
            -1.637054585656282
          ],
          [
            -78.6750046030046,
            -1.6370617539999208
          ],
          [
            -78.67500884700463,
            -1.6370904489999478
          ],
          [
            -78.67500691600466,
            -1.6371167459999116
          ],
          [
            -78.67500100433314,
            -1.6371371487365263
          ]
        ]
      }
    },
    {
      "type": "Feature",
      "properties": {
        "ID": "LAS_ABRAS-0002",
        "CORREDOR": "QUEBRADA_LAS_ABRAS",
        "LONGITUD_M": 55.6160922172533,
        "CAMARA_MAS_CERCANA": "RIO-069-DOMO",
        "DIST_CAMARA_M": 212.8573188397854,
        "METODO_DIST": "Distancia minima del segmento al punto de camara"
      },
      "geometry": {
        "type": "LineString",
        "coordinates": [
          [
            -78.67500302553415,
            -1.637163471928376
          ],
          [
            -78.67500306100466,
            -1.6371636009999038
          ],
          [
            -78.67502441600466,
            -1.6371870559999484
          ],
          [
            -78.67503866100465,
            -1.6371952009999153
          ],
          [
            -78.67506714500463,
            -1.6372177079999608
          ],
          [
            -78.67507996000458,
            -1.6372296769999255
          ],
          [
            -78.67509989500464,
            -1.6372483489999121
          ],
          [
            -78.67511650200464,
            -1.6372694079999175
          ],
          [
            -78.67512741000462,
            -1.6372866339999053
          ],
          [
            -78.67514306500466,
            -1.6373086479999202
          ],
          [
            -78.67514295200466,
            -1.637309424999921
          ],
          [
            -78.67513875500464,
            -1.6373382889999146
          ],
          [
            -78.67511973000461,
            -1.6373540459998999
          ],
          [
            -78.67507740900463,
            -1.6373817299999431
          ],
          [
            -78.67506266500466,
            -1.6373936669999396
          ],
          [
            -78.67503983500464,
            -1.6374137229998982
          ],
          [
            -78.67501889400461,
            -1.63744286699991
          ],
          [
            -78.67499017100461,
            -1.637481453999926
          ],
          [
            -78.67498653300464,
            -1.6374863419999204
          ],
          [
            -78.67495753600463,
            -1.6374973059999232
          ],
          [
            -78.6749357651072,
            -1.6374959113107501
          ]
        ]
      }
    },
    {
      "type": "Feature",
      "properties": {
        "ID": "LAS_ABRAS-0003",
        "CORREDOR": "QUEBRADA_LAS_ABRAS",
        "LONGITUD_M": 79.36915882571628,
        "CAMARA_MAS_CERCANA": "RIO-069-DOMO",
        "DIST_CAMARA_M": 256.7002116233199,
        "METODO_DIST": "Distancia minima del segmento al punto de camara"
      },
      "geometry": {
        "type": "LineString",
        "coordinates": [
          [
            -78.67484886996166,
            -1.637552487879932
          ],
          [
            -78.67476625200464,
            -1.637628505999888
          ],
          [
            -78.67474626600463,
            -1.637653585999901
          ],
          [
            -78.67471309400466,
            -1.6376793679999355
          ],
          [
            -78.67470191400461,
            -1.6376899569999468
          ],
          [
            -78.67469418600463,
            -1.6376972769999567
          ],
          [
            -78.67466279800463,
            -1.637720909999918
          ],
          [
            -78.67464351600461,
            -1.6377538799999003
          ],
          [
            -78.67461568500461,
            -1.6377839719999372
          ],
          [
            -78.67456860300463,
            -1.6378197789999087
          ],
          [
            -78.67450387700464,
            -1.6378849459999048
          ],
          [
            -78.67448720700465,
            -1.6379444849998925
          ],
          [
            -78.67447151700466,
            -1.6379879039999243
          ],
          [
            -78.67446933100463,
            -1.637993953999957
          ],
          [
            -78.67441583000466,
            -1.6380340569999128
          ],
          [
            -78.67438301800465,
            -1.6380562529999347
          ],
          [
            -78.67437168730922,
            -1.6380616384605389
          ]
        ]
      }
    },
    {
      "type": "Feature",
      "properties": {
        "ID": "LAS_ABRAS-0004",
        "CORREDOR": "QUEBRADA_LAS_ABRAS",
        "LONGITUD_M": 53.713725424702595,
        "CAMARA_MAS_CERCANA": "MUN-023",
        "DIST_CAMARA_M": 199.99744825395246,
        "METODO_DIST": "Distancia minima del segmento al punto de camara"
      },
      "geometry": {
        "type": "LineString",
        "coordinates": [
          [
            -78.67416015167264,
            -1.6383932607811487
          ],
          [
            -78.67414455500462,
            -1.6384102929999147
          ],
          [
            -78.67412160800464,
            -1.6384283169999632
          ],
          [
            -78.6740877500046,
            -1.6384306679999385
          ],
          [
            -78.67404854300466,
            -1.6384360019999213
          ],
          [
            -78.67399806400468,
            -1.638430563999947
          ],
          [
            -78.6739716110046,
            -1.6384135199999321
          ],
          [
            -78.67393181676455,
            -1.6383735782579532
          ],
          [
            -78.67390038700461,
            -1.6383420319999473
          ],
          [
            -78.67388181900466,
            -1.6382839899999038
          ],
          [
            -78.67381062800463,
            -1.6382343569998725
          ],
          [
            -78.67378414090307,
            -1.6382295864059988
          ]
        ]
      }
    },
    {
      "type": "Feature",
      "properties": {
        "ID": "LAS_ABRAS-0005",
        "CORREDOR": "QUEBRADA_LAS_ABRAS",
        "LONGITUD_M": 8.572958156006809,
        "CAMARA_MAS_CERCANA": "MUN-026",
        "DIST_CAMARA_M": 199.9910772474252,
        "METODO_DIST": "Distancia minima del segmento al punto de camara"
      },
      "geometry": {
        "type": "LineString",
        "coordinates": [
          [
            -78.67035403043943,
            -1.6387818159065268
          ],
          [
            -78.67034059300468,
            -1.6387843579999233
          ],
          [
            -78.67031017600472,
            -1.6387907779999042
          ],
          [
            -78.67028095400471,
            -1.6387907429999482
          ],
          [
            -78.67027796167966,
            -1.6387902232632896
          ]
        ]
      }
    },
    {
      "type": "Feature",
      "properties": {
        "ID": "LAS_ABRAS-0006",
        "CORREDOR": "QUEBRADA_LAS_ABRAS",
        "LONGITUD_M": 74.95128608134365,
        "CAMARA_MAS_CERCANA": "MUN-026",
        "DIST_CAMARA_M": 223.26745573268698,
        "METODO_DIST": "Distancia minima del segmento al punto de camara"
      },
      "geometry": {
        "type": "LineString",
        "coordinates": [
          [
            -78.66661394111186,
            -1.6392556315244928
          ],
          [
            -78.66658440000475,
            -1.6392840969999296
          ],
          [
            -78.66657485700475,
            -1.6392932929999413
          ],
          [
            -78.66656080400477,
            -1.6393093029999226
          ],
          [
            -78.66652379000476,
            -1.639351473999944
          ],
          [
            -78.66641368800477,
            -1.6394769169999177
          ],
          [
            -78.66640598700475,
            -1.6395004419998949
          ],
          [
            -78.66635820900476,
            -1.6395880629999413
          ],
          [
            -78.66634002500471,
            -1.6396214129998725
          ],
          [
            -78.66633587600475,
            -1.6396249199999327
          ],
          [
            -78.66629876500473,
            -1.639667432999921
          ],
          [
            -78.66627875400475,
            -1.6397137909999093
          ],
          [
            -78.66626015600477,
            -1.6397721049999217
          ],
          [
            -78.6662600985397,
            -1.6397722028925634
          ],
          [
            -78.66622611125672,
            -1.6397955164366098
          ]
        ]
      }
    },
    {
      "type": "Feature",
      "properties": {
        "ID": "LAS_ABRAS-0007",
        "CORREDOR": "QUEBRADA_LAS_ABRAS",
        "LONGITUD_M": 37.27060156951745,
        "CAMARA_MAS_CERCANA": "MUN-026",
        "DIST_CAMARA_M": 342.87024121069504,
        "METODO_DIST": "Distancia minima del segmento al punto de camara"
      },
      "geometry": {
        "type": "LineString",
        "coordinates": [
          [
            -78.66583761488779,
            -1.6401236967236323
          ],
          [
            -78.66581009689727,
            -1.6401520325052428
          ],
          [
            -78.66576845283184,
            -1.640196231118715
          ],
          [
            -78.66572205669225,
            -1.6402392282703022
          ],
          [
            -78.66569824502656,
            -1.6402774684233539
          ],
          [
            -78.66569224080297,
            -1.6403312759060291
          ],
          [
            -78.66569399603206,
            -1.6403548367738172
          ],
          [
            -78.66569301427765,
            -1.640381623299608
          ],
          [
            -78.66567871334452,
            -1.6403998331402834
          ]
        ]
      }
    },
    {
      "type": "Feature",
      "properties": {
        "ID": "LAS_ABRAS-0008",
        "CORREDOR": "QUEBRADA_LAS_ABRAS",
        "LONGITUD_M": 11.217110404455065,
        "CAMARA_MAS_CERCANA": "RIO-075-DOMO",
        "DIST_CAMARA_M": 369.79503211060916,
        "METODO_DIST": "Distancia minima del segmento al punto de camara"
      },
      "geometry": {
        "type": "LineString",
        "coordinates": [
          [
            -78.66539979285352,
            -1.6407083469819963
          ],
          [
            -78.66539449652156,
            -1.64071640019744
          ],
          [
            -78.66535165436034,
            -1.640788396209968
          ],
          [
            -78.66534587823146,
            -1.6407936340287756
          ]
        ]
      }
    },
    {
      "type": "Feature",
      "properties": {
        "ID": "LAS_ABRAS-0009",
        "CORREDOR": "QUEBRADA_LAS_ABRAS",
        "LONGITUD_M": 8.451807513434408,
        "CAMARA_MAS_CERCANA": "RIO-075-DOMO",
        "DIST_CAMARA_M": 279.5534288410764,
        "METODO_DIST": "Distancia minima del segmento al punto de camara"
      },
      "geometry": {
        "type": "LineString",
        "coordinates": [
          [
            -78.6649200868803,
            -1.6414394810389557
          ],
          [
            -78.66492289600475,
            -1.6414646189999529
          ],
          [
            -78.66490930300475,
            -1.6415087129999204
          ],
          [
            -78.66490728780093,
            -1.6415132156129113
          ]
        ]
      }
    },
    {
      "type": "Feature",
      "properties": {
        "ID": "LAS_ABRAS-0010",
        "CORREDOR": "QUEBRADA_LAS_ABRAS",
        "LONGITUD_M": 23.969918818243798,
        "CAMARA_MAS_CERCANA": "RIO-075-DOMO",
        "DIST_CAMARA_M": 199.9849469287677,
        "METODO_DIST": "Distancia minima del segmento al punto de camara"
      },
      "geometry": {
        "type": "LineString",
        "coordinates": [
          [
            -78.6646331017296,
            -1.6420081306698753
          ],
          [
            -78.66460432800476,
            -1.6420576809998875
          ],
          [
            -78.66455624200476,
            -1.6421398679999442
          ],
          [
            -78.66452741966619,
            -1.642196823507914
          ]
        ]
      }
    },
    {
      "type": "Feature",
      "properties": {
        "ID": "LAS_ABRAS-0011",
        "CORREDOR": "QUEBRADA_LAS_ABRAS",
        "LONGITUD_M": 226.69823972949504,
        "CAMARA_MAS_CERCANA": "RIO-075-DOMO",
        "DIST_CAMARA_M": 208.47579452431887,
        "METODO_DIST": "Distancia minima del segmento al punto de camara"
      },
      "geometry": {
        "type": "LineString",
        "coordinates": [
          [
            -78.66114748445963,
            -1.6431801823367171
          ],
          [
            -78.66110960300479,
            -1.6432046259999102
          ],
          [
            -78.6610872470048,
            -1.6432246819999066
          ],
          [
            -78.66104731000483,
            -1.643245195999923
          ],
          [
            -78.66098549300482,
            -1.6432852889999108
          ],
          [
            -78.66095600300484,
            -1.6433115529999083
          ],
          [
            -78.66093149900483,
            -1.6433320039999273
          ],
          [
            -78.66087705100483,
            -1.6433774449999174
          ],
          [
            -78.66082187900484,
            -1.6434237619999281
          ],
          [
            -78.66074197300486,
            -1.6434920439999268
          ],
          [
            -78.66070297500481,
            -1.6435225999999143
          ],
          [
            -78.66065446500478,
            -1.6435600779999127
          ],
          [
            -78.66061452600482,
            -1.6435829829999131
          ],
          [
            -78.66056105600484,
            -1.643595829999906
          ],
          [
            -78.66051145300102,
            -1.6436057528272203
          ],
          [
            -78.66050758800486,
            -1.6436065259998789
          ],
          [
            -78.66043701400484,
            -1.6436186359999
          ],
          [
            -78.66037356000483,
            -1.6436357739999348
          ],
          [
            -78.66033981500483,
            -1.6436428599999204
          ],
          [
            -78.66031581500488,
            -1.6436478989999206
          ],
          [
            -78.66027873100482,
            -1.6436665039999172
          ],
          [
            -78.66026589300483,
            -1.6436743779999217
          ],
          [
            -78.66023524500487,
            -1.643674341999911
          ],
          [
            -78.6601974830048,
            -1.6436635389998904
          ],
          [
            -78.66013334600484,
            -1.643655573999925
          ],
          [
            -78.66006777800487,
            -1.643652626999926
          ],
          [
            -78.66000860300481,
            -1.6436683369999325
          ],
          [
            -78.65997578700483,
            -1.6436948359999262
          ],
          [
            -78.65991439900485,
            -1.6437743769999096
          ],
          [
            -78.65983945700486,
            -1.6438646599999445
          ],
          [
            -78.65972667600481,
            -1.6440101259999305
          ],
          [
            -78.65962889200483,
            -1.6441297899999505
          ],
          [
            -78.65955466100485,
            -1.644221507999892
          ],
          [
            -78.65953555619187,
            -1.6442452903852358
          ]
        ]
      }
    },
    {
      "type": "Feature",
      "properties": {
        "ID": "LAS_ABRAS-0012",
        "CORREDOR": "QUEBRADA_LAS_ABRAS",
        "LONGITUD_M": 20.79403337120949,
        "CAMARA_MAS_CERCANA": "RIO-075-DOMO",
        "DIST_CAMARA_M": 945.500300951888,
        "METODO_DIST": "Distancia minima del segmento al punto de camara"
      },
      "geometry": {
        "type": "LineString",
        "coordinates": [
          [
            -78.65505623272554,
            -1.646150697388473
          ],
          [
            -78.65505411700492,
            -1.6461524859998902
          ],
          [
            -78.65500658200489,
            -1.6461691649999213
          ],
          [
            -78.65495549100491,
            -1.6461798629998994
          ],
          [
            -78.65487413309725,
            -1.646184698994482
          ]
        ]
      }
    },
    {
      "type": "Feature",
      "properties": {
        "ID": "LAS_ABRAS-0013",
        "CORREDOR": "QUEBRADA_LAS_ABRAS",
        "LONGITUD_M": 201.32676232643695,
        "CAMARA_MAS_CERCANA": "RIO-075-DOMO",
        "DIST_CAMARA_M": 969.5460561990448,
        "METODO_DIST": "Distancia minima del segmento al punto de camara"
      },
      "geometry": {
        "type": "LineString",
        "coordinates": [
          [
            -78.65484058307021,
            -1.6461903912868487
          ],
          [
            -78.65480698200494,
            -1.6462000089999138
          ],
          [
            -78.65480024500496,
            -1.6462064099999112
          ],
          [
            -78.65474038600492,
            -1.6462632859999526
          ],
          [
            -78.65468805500491,
            -1.6463182119998834
          ],
          [
            -78.65465117700492,
            -1.646363592999901
          ],
          [
            -78.6545798190049,
            -1.6464364279999324
          ],
          [
            -78.65455599900494,
            -1.6464901919999204
          ],
          [
            -78.65454761800494,
            -1.6465463649999221
          ],
          [
            -78.6545166240049,
            -1.6466395689999125
          ],
          [
            -78.65445353700491,
            -1.6467494699999599
          ],
          [
            -78.65443855700491,
            -1.6467764779999037
          ],
          [
            -78.65438330400494,
            -1.6468760989999058
          ],
          [
            -78.65431901000488,
            -1.6470027339998954
          ],
          [
            -78.65427494600495,
            -1.6470983129999173
          ],
          [
            -78.6542748570049,
            -1.6470986839999362
          ],
          [
            -78.65425107200494,
            -1.647197501999907
          ],
          [
            -78.65418441500493,
            -1.6473133759999212
          ],
          [
            -78.6540797440049,
            -1.6474303999999373
          ],
          [
            -78.65401061700496,
            -1.6474749959999528
          ],
          [
            -78.65394640600493,
            -1.6475308639999373
          ],
          [
            -78.65391394500489,
            -1.647557721999898
          ],
          [
            -78.65386221600491,
            -1.6476049979999332
          ],
          [
            -78.65382592364155,
            -1.6476362713061223
          ]
        ]
      }
    },
    {
      "type": "Feature",
      "properties": {
        "ID": "LAS_ABRAS-0014",
        "CORREDOR": "QUEBRADA_LAS_ABRAS",
        "LONGITUD_M": 15.610728438400349,
        "CAMARA_MAS_CERCANA": "RIO-076-DOMO",
        "DIST_CAMARA_M": 1011.1687012243074,
        "METODO_DIST": "Distancia minima del segmento al punto de camara"
      },
      "geometry": {
        "type": "LineString",
        "coordinates": [
          [
            -78.65356543158352,
            -1.6478829339487573
          ],
          [
            -78.65354148300494,
            -1.647913386999923
          ],
          [
            -78.65351257900492,
            -1.6479456279999054
          ],
          [
            -78.65350615100498,
            -1.6479578129999253
          ],
          [
            -78.65348120000496,
            -1.6479624459998958
          ],
          [
            -78.65346395815703,
            -1.6479714085918553
          ]
        ]
      }
    },
    {
      "type": "Feature",
      "properties": {
        "ID": "LAS_ABRAS-0015",
        "CORREDOR": "QUEBRADA_LAS_ABRAS",
        "LONGITUD_M": 28.194578528900667,
        "CAMARA_MAS_CERCANA": "RIO-076-DOMO",
        "DIST_CAMARA_M": 992.6812034061718,
        "METODO_DIST": "Distancia minima del segmento al punto de camara"
      },
      "geometry": {
        "type": "LineString",
        "coordinates": [
          [
            -78.65330953523083,
            -1.6481601386336888
          ],
          [
            -78.65331142800491,
            -1.6481738239999528
          ],
          [
            -78.65331167600495,
            -1.6481756219999284
          ],
          [
            -78.65330345200496,
            -1.6481992809999506
          ],
          [
            -78.65329772500495,
            -1.6482211489999017
          ],
          [
            -78.65328131900496,
            -1.6482322469999364
          ],
          [
            -78.65326456800493,
            -1.6482340199999281
          ],
          [
            -78.65323995900494,
            -1.6482504879999482
          ],
          [
            -78.65320857500491,
            -1.648271249999917
          ],
          [
            -78.65319502200497,
            -1.6482805579999316
          ],
          [
            -78.65316293200496,
            -1.6482952229999213
          ],
          [
            -78.65315436200493,
            -1.6483095579998799
          ],
          [
            -78.6531361219413,
            -1.6483116084283875
          ]
        ]
      }
    },
    {
      "type": "Feature",
      "properties": {
        "ID": "LAS_ABRAS-0016",
        "CORREDOR": "QUEBRADA_LAS_ABRAS",
        "LONGITUD_M": 54.81974786550219,
        "CAMARA_MAS_CERCANA": "RIO-076-DOMO",
        "DIST_CAMARA_M": 998.5033897848352,
        "METODO_DIST": "Distancia minima del segmento al punto de camara"
      },
      "geometry": {
        "type": "LineString",
        "coordinates": [
          [
            -78.65268022957636,
            -1.6485072055541783
          ],
          [
            -78.65264450300498,
            -1.6485284259999125
          ],
          [
            -78.65259246200495,
            -1.6485387639999503
          ],
          [
            -78.6525818980049,
            -1.6485404429999244
          ],
          [
            -78.65256109600493,
            -1.6485437479999365
          ],
          [
            -78.65253115500497,
            -1.6485487329999036
          ],
          [
            -78.65249052900496,
            -1.6485490429999343
          ],
          [
            -78.65245381700498,
            -1.6485543789999173
          ],
          [
            -78.65241674300495,
            -1.6485643759999447
          ],
          [
            -78.652370756005,
            -1.6485783079999443
          ],
          [
            -78.65234687800495,
            -1.648579713999926
          ],
          [
            -78.65230803100495,
            -1.6485821779999588
          ],
          [
            -78.65228451900497,
            -1.6485753359999447
          ],
          [
            -78.65225532300498,
            -1.6485530679999132
          ],
          [
            -78.65224321900496,
            -1.648542294999944
          ],
          [
            -78.65221191835968,
            -1.6485381925523908
          ]
        ]
      }
    },
    {
      "type": "Feature",
      "properties": {
        "ID": "LAS_ABRAS-0017",
        "CORREDOR": "QUEBRADA_LAS_ABRAS",
        "LONGITUD_M": 6.2495066676174105,
        "CAMARA_MAS_CERCANA": "RIO-076-DOMO",
        "DIST_CAMARA_M": 1022.9800008355811,
        "METODO_DIST": "Distancia minima del segmento al punto de camara"
      },
      "geometry": {
        "type": "LineString",
        "coordinates": [
          [
            -78.65220796293112,
            -1.6485379666807238
          ],
          [
            -78.65216589300493,
            -1.6485382579999515
          ],
          [
            -78.65215249379234,
            -1.6485339466749698
          ]
        ]
      }
    },
    {
      "type": "Feature",
      "properties": {
        "ID": "LAS_ABRAS-0018",
        "CORREDOR": "QUEBRADA_LAS_ABRAS",
        "LONGITUD_M": 69.44463493480329,
        "CAMARA_MAS_CERCANA": "RIO-015-DOMO",
        "DIST_CAMARA_M": 986.7224787658648,
        "METODO_DIST": "Distancia minima del segmento al punto de camara"
      },
      "geometry": {
        "type": "LineString",
        "coordinates": [
          [
            -78.65208791712435,
            -1.6485152000748156
          ],
          [
            -78.65207184300499,
            -1.648512325999924
          ],
          [
            -78.65204512100495,
            -1.6485079909999631
          ],
          [
            -78.65201304400495,
            -1.648511179999946
          ],
          [
            -78.65199699400496,
            -1.648522277999962
          ],
          [
            -78.65194177800497,
            -1.648505357999948
          ],
          [
            -78.65193480200499,
            -1.6484986869999472
          ],
          [
            -78.65191436800492,
            -1.6484791459998949
          ],
          [
            -78.651866994005,
            -1.6484600839999417
          ],
          [
            -78.65182638700496,
            -1.6484438979998917
          ],
          [
            -78.651809642005,
            -1.6484402919999448
          ],
          [
            -78.65164538200497,
            -1.6484198939999444
          ],
          [
            -78.65156581600493,
            -1.6484012719999197
          ],
          [
            -78.65150406000501,
            -1.6483892439998882
          ],
          [
            -78.65149295690298,
            -1.648387356268862
          ]
        ]
      }
    },
    {
      "type": "Feature",
      "properties": {
        "ID": "LAS_ABRAS-0019",
        "CORREDOR": "QUEBRADA_LAS_ABRAS",
        "LONGITUD_M": 31.79750335061322,
        "CAMARA_MAS_CERCANA": "RIO-015-DOMO",
        "DIST_CAMARA_M": 966.0305766370092,
        "METODO_DIST": "Distancia minima del segmento al punto de camara"
      },
      "geometry": {
        "type": "LineString",
        "coordinates": [
          [
            -78.65121568864812,
            -1.648314874622193
          ],
          [
            -78.65117572800496,
            -1.6482890399999375
          ],
          [
            -78.65112233100497,
            -1.6482393679999339
          ],
          [
            -78.65109029900498,
            -1.6482046629999276
          ],
          [
            -78.65105450200497,
            -1.6481644259999197
          ],
          [
            -78.65102637700492,
            -1.6481403649999449
          ],
          [
            -78.65100484602472,
            -1.6481227178172813
          ]
        ]
      }
    },
    {
      "type": "Feature",
      "properties": {
        "ID": "LAS_ABRAS-0020",
        "CORREDOR": "QUEBRADA_LAS_ABRAS",
        "LONGITUD_M": 16.525895396568668,
        "CAMARA_MAS_CERCANA": "RIO-015-DOMO",
        "DIST_CAMARA_M": 957.4604199807898,
        "METODO_DIST": "Distancia minima del segmento al punto de camara"
      },
      "geometry": {
        "type": "LineString",
        "coordinates": [
          [
            -78.65100156785569,
            -1.648121192779226
          ],
          [
            -78.65095371500499,
            -1.6481094379999361
          ],
          [
            -78.65089884800494,
            -1.6480982559999298
          ],
          [
            -78.65088103300499,
            -1.6480950069999263
          ],
          [
            -78.65085894255563,
            -1.6480830027039832
          ]
        ]
      }
    },
    {
      "type": "Feature",
      "properties": {
        "ID": "LAS_ABRAS-0021",
        "CORREDOR": "QUEBRADA_LAS_ABRAS",
        "LONGITUD_M": 1.685378405381491,
        "CAMARA_MAS_CERCANA": "RIO-015-DOMO",
        "DIST_CAMARA_M": 932.5259460583726,
        "METODO_DIST": "Distancia minima del segmento al punto de camara"
      },
      "geometry": {
        "type": "LineString",
        "coordinates": [
          [
            -78.65029616169653,
            -1.6478542646201597
          ],
          [
            -78.65028939700498,
            -1.6478511629998975
          ],
          [
            -78.650283834254,
            -1.6478457969570859
          ]
        ]
      }
    },
    {
      "type": "Feature",
      "properties": {
        "ID": "LAS_ABRAS-0022",
        "CORREDOR": "QUEBRADA_LAS_ABRAS",
        "LONGITUD_M": 82.0704375529042,
        "CAMARA_MAS_CERCANA": "RIO-015-DOMO",
        "DIST_CAMARA_M": 934.1073351154353,
        "METODO_DIST": "Distancia minima del segmento al punto de camara"
      },
      "geometry": {
        "type": "LineString",
        "coordinates": [
          [
            -78.65011881527592,
            -1.6476849298236418
          ],
          [
            -78.65008970100499,
            -1.6476597829998856
          ],
          [
            -78.650071907005,
            -1.647638961999942
          ],
          [
            -78.65005768000499,
            -1.6476159939999582
          ],
          [
            -78.65003276700502,
            -1.6475879929999042
          ],
          [
            -78.649991847005,
            -1.6475352269998897
          ],
          [
            -78.64995873800498,
            -1.6475072159999218
          ],
          [
            -78.649930965005,
            -1.6474834919999055
          ],
          [
            -78.649901090005,
            -1.6474465289999634
          ],
          [
            -78.64987757900496,
            -1.6473797069999307
          ],
          [
            -78.64981873600499,
            -1.6473382449999112
          ],
          [
            -78.64980760900495,
            -1.6473134549999393
          ],
          [
            -78.64976144200499,
            -1.647301286999929
          ],
          [
            -78.64975439000497,
            -1.647292900999933
          ],
          [
            -78.64969594100498,
            -1.647223395999935
          ],
          [
            -78.64964451863867,
            -1.647142589194993
          ]
        ]
      }
    },
    {
      "type": "Feature",
      "properties": {
        "ID": "LAS_ABRAS-0023",
        "CORREDOR": "QUEBRADA_LAS_ABRAS",
        "LONGITUD_M": 102.18555291767817,
        "CAMARA_MAS_CERCANA": "RIO-015-DOMO",
        "DIST_CAMARA_M": 931.8694345314594,
        "METODO_DIST": "Distancia minima del segmento al punto de camara"
      },
      "geometry": {
        "type": "LineString",
        "coordinates": [
          [
            -78.6495869844657,
            -1.6470670869232578
          ],
          [
            -78.64932724800501,
            -1.6469712779999486
          ],
          [
            -78.64930773800499,
            -1.646950723999936
          ],
          [
            -78.64930582400501,
            -1.6469487079999399
          ],
          [
            -78.649259733005,
            -1.6469256289999326
          ],
          [
            -78.64917505800501,
            -1.646899782999952
          ],
          [
            -78.64917325000502,
            -1.646899230999953
          ],
          [
            -78.649074164005,
            -1.6468966089999333
          ],
          [
            -78.64896827400503,
            -1.6468812419999326
          ],
          [
            -78.64894133300503,
            -1.6468734419999362
          ],
          [
            -78.64891632600501,
            -1.6468662019999303
          ],
          [
            -78.64883015100503,
            -1.6468070439999216
          ],
          [
            -78.64880840400504,
            -1.6467919769999375
          ],
          [
            -78.64878052800502,
            -1.646755640999953
          ],
          [
            -78.64875957084178,
            -1.6467314251015064
          ]
        ]
      }
    },
    {
      "type": "Feature",
      "properties": {
        "ID": "LAS_ABRAS-0024",
        "CORREDOR": "QUEBRADA_LAS_ABRAS",
        "LONGITUD_M": 96.02990647590919,
        "CAMARA_MAS_CERCANA": "RIO-015-DOMO",
        "DIST_CAMARA_M": 941.5684029212142,
        "METODO_DIST": "Distancia minima del segmento al punto de camara"
      },
      "geometry": {
        "type": "LineString",
        "coordinates": [
          [
            -78.64852864843888,
            -1.6464691658071227
          ],
          [
            -78.64845153300502,
            -1.6464177929999435
          ],
          [
            -78.64836488600501,
            -1.64638598899991
          ],
          [
            -78.64832983000503,
            -1.646351822999932
          ],
          [
            -78.648284439005,
            -1.6463447539999034
          ],
          [
            -78.64824701500504,
            -1.6463923029999592
          ],
          [
            -78.64820468500501,
            -1.646355681999953
          ],
          [
            -78.64818530200499,
            -1.6463389139999416
          ],
          [
            -78.64805325800498,
            -1.646335945999953
          ],
          [
            -78.64802417900502,
            -1.646291562999951
          ],
          [
            -78.64798581900504,
            -1.64623314899991
          ],
          [
            -78.647890770005,
            -1.6461961189999512
          ],
          [
            -78.64785480688994,
            -1.6461705202805466
          ],
          [
            -78.64782128634316,
            -1.6461466601927754
          ]
        ]
      }
    },
    {
      "type": "Feature",
      "properties": {
        "ID": "LAS_ABRAS-0025",
        "CORREDOR": "QUEBRADA_LAS_ABRAS",
        "LONGITUD_M": 13.728349230146128,
        "CAMARA_MAS_CERCANA": "RIO-015-DOMO",
        "DIST_CAMARA_M": 950.1756113655985,
        "METODO_DIST": "Distancia minima del segmento al punto de camara"
      },
      "geometry": {
        "type": "LineString",
        "coordinates": [
          [
            -78.64770454021158,
            -1.6461088319428647
          ],
          [
            -78.64767141400502,
            -1.6461005539999114
          ],
          [
            -78.64765769300506,
            -1.646089337999943
          ],
          [
            -78.64761045400505,
            -1.6460725309999231
          ],
          [
            -78.6475931147348,
            -1.6460599008300683
          ]
        ]
      }
    },
    {
      "type": "Feature",
      "properties": {
        "ID": "LAS_ABRAS-0026",
        "CORREDOR": "QUEBRADA_LAS_ABRAS",
        "LONGITUD_M": 44.78551584546016,
        "CAMARA_MAS_CERCANA": "RIO-015-DOMO",
        "DIST_CAMARA_M": 932.9101527883885,
        "METODO_DIST": "Distancia minima del segmento al punto de camara"
      },
      "geometry": {
        "type": "LineString",
        "coordinates": [
          [
            -78.64758018107136,
            -1.6460546768785558
          ],
          [
            -78.64756730300503,
            -1.646062653999917
          ],
          [
            -78.64749712400504,
            -1.6460363919999075
          ],
          [
            -78.64740805800503,
            -1.6460143379999066
          ],
          [
            -78.64738532600501,
            -1.6460041049999343
          ],
          [
            -78.647347519005,
            -1.6460177099999453
          ],
          [
            -78.64733207400505,
            -1.6460288109999373
          ],
          [
            -78.64732261600503,
            -1.6460504039999149
          ],
          [
            -78.64726736000503,
            -1.6461154729998917
          ],
          [
            -78.6472394442924,
            -1.6461181578183908
          ]
        ]
      }
    },
    {
      "type": "Feature",
      "properties": {
        "ID": "LAS_ABRAS-0027",
        "CORREDOR": "QUEBRADA_LAS_ABRAS",
        "LONGITUD_M": 96.10333230945402,
        "CAMARA_MAS_CERCANA": "RIO-015-DOMO",
        "DIST_CAMARA_M": 937.4319782021477,
        "METODO_DIST": "Distancia minima del segmento al punto de camara"
      },
      "geometry": {
        "type": "LineString",
        "coordinates": [
          [
            -78.64688709111412,
            -1.645973693201986
          ],
          [
            -78.64681503600504,
            -1.6459512879998914
          ],
          [
            -78.64681095400505,
            -1.645950018999909
          ],
          [
            -78.64679536500503,
            -1.6459427129999415
          ],
          [
            -78.64675958600505,
            -1.6459259449998969
          ],
          [
            -78.64674682300503,
            -1.6459199629998775
          ],
          [
            -78.64667793000504,
            -1.6458876759999275
          ],
          [
            -78.64667429100501,
            -1.6458835809999102
          ],
          [
            -78.64655450400502,
            -1.6457488109999558
          ],
          [
            -78.64650703200506,
            -1.6456961359999316
          ],
          [
            -78.64647353200505,
            -1.6456623429999429
          ],
          [
            -78.64645480800507,
            -1.6456434559999429
          ],
          [
            -78.64641875800507,
            -1.6456030529999013
          ],
          [
            -78.64641208300507,
            -1.6455955719999116
          ],
          [
            -78.64640598300502,
            -1.6455817159999053
          ],
          [
            -78.64639312000507,
            -1.6455524969998911
          ],
          [
            -78.64638926600502,
            -1.6455501039998826
          ],
          [
            -78.64633137100506,
            -1.645514154999896
          ],
          [
            -78.64628862900506,
            -1.6454806209998944
          ],
          [
            -78.64624113900507,
            -1.645442297999958
          ],
          [
            -78.64623809282011,
            -1.645434093551184
          ]
        ]
      }
    },
    {
      "type": "Feature",
      "properties": {
        "ID": "LAS_ABRAS-0028",
        "CORREDOR": "QUEBRADA_LAS_ABRAS",
        "LONGITUD_M": 498.83357670799757,
        "CAMARA_MAS_CERCANA": "RIO-015-DOMO",
        "DIST_CAMARA_M": 1272.0595924707623,
        "METODO_DIST": "Distancia minima del segmento al punto de camara"
      },
      "geometry": {
        "type": "LineString",
        "coordinates": [
          [
            -78.64505671365485,
            -1.6426738834187735
          ],
          [
            -78.64494627700506,
            -1.6425495719999383
          ],
          [
            -78.64496652000508,
            -1.6423047819999164
          ],
          [
            -78.64496944600506,
            -1.6422409519999313
          ],
          [
            -78.64494099900509,
            -1.642187842999896
          ],
          [
            -78.64490827300506,
            -1.6421375979999608
          ],
          [
            -78.64486699200505,
            -1.6420887779999467
          ],
          [
            -78.64481429100509,
            -1.6420542879999165
          ],
          [
            -78.64478657100506,
            -1.641988987999962
          ],
          [
            -78.6447751720051,
            -1.6419322899999296
          ],
          [
            -78.64477027300505,
            -1.641907920999887
          ],
          [
            -78.64475037200508,
            -1.6418605609999102
          ],
          [
            -78.64468769800509,
            -1.641821755999924
          ],
          [
            -78.64462929800509,
            -1.6417851079999264
          ],
          [
            -78.64455021100508,
            -1.6417634969999166
          ],
          [
            -78.64447682000508,
            -1.6417461969999574
          ],
          [
            -78.64442339000512,
            -1.641725333999913
          ],
          [
            -78.6443614050051,
            -1.6417066119999355
          ],
          [
            -78.64432833500506,
            -1.6416944659998998
          ],
          [
            -78.6443222220051,
            -1.6416922209999323
          ],
          [
            -78.64428447800509,
            -1.641666355999922
          ],
          [
            -78.64425385000507,
            -1.6416498239999433
          ],
          [
            -78.64423960800508,
            -1.6416397659999553
          ],
          [
            -78.6441875860051,
            -1.6416332489999026
          ],
          [
            -78.6441277240051,
            -1.6416274399999462
          ],
          [
            -78.64408924200508,
            -1.6416238079999046
          ],
          [
            -78.64402938000508,
            -1.6416179989999335
          ],
          [
            -78.64399875400505,
            -1.6415993149999297
          ],
          [
            -78.64392397800509,
            -1.641548302999958
          ],
          [
            -78.64387197500511,
            -1.6415260069999045
          ],
          [
            -78.64380145400509,
            -1.6414936479999045
          ],
          [
            -78.64377581500509,
            -1.6414771219999487
          ],
          [
            -78.64374731900506,
            -1.641465611999907
          ],
          [
            -78.6436953110051,
            -1.6414483369999138
          ],
          [
            -78.64366239600507,
            -1.6414367499999474
          ],
          [
            -78.64364829000512,
            -1.641431784999934
          ],
          [
            -78.64361268900507,
            -1.6414023359999153
          ],
          [
            -78.64358633800512,
            -1.641385091999931
          ],
          [
            -78.64352722300508,
            -1.641349876999884
          ],
          [
            -78.64349444800509,
            -1.6413412319999106
          ],
          [
            -78.64344599700507,
            -1.6413296989999013
          ],
          [
            -78.64339612000511,
            -1.6413174469999272
          ],
          [
            -78.64332630800511,
            -1.6412879569999599
          ],
          [
            -78.64328997800513,
            -1.641271417999933
          ],
          [
            -78.64327004600509,
            -1.6412513119999388
          ],
          [
            -78.6432124180051,
            -1.641163741999927
          ],
          [
            -78.64314765600508,
            -1.641081183999951
          ],
          [
            -78.64311503000512,
            -1.641043209999936
          ],
          [
            -78.64310317900512,
            -1.6410294159999614
          ],
          [
            -78.6430736340051,
            -1.6409950279999492
          ],
          [
            -78.64299959200513,
            -1.6409260869999354
          ],
          [
            -78.64291700800511,
            -1.6408478109999347
          ],
          [
            -78.64286147100506,
            -1.6408004079999368
          ],
          [
            -78.64281233700505,
            -1.6407630539998923
          ],
          [
            -78.6427838650051,
            -1.6407307449999111
          ],
          [
            -78.64274900700511,
            -1.64067547699992
          ],
          [
            -78.64267926500513,
            -1.6405857399999346
          ],
          [
            -78.64264224600511,
            -1.640549117999948
          ],
          [
            -78.64260522400512,
            -1.6405153639999233
          ],
          [
            -78.6425439920051,
            -1.6404622169999052
          ],
          [
            -78.64251052500514,
            -1.6404356399999334
          ],
          [
            -78.6424848770051,
            -1.6404277199999115
          ],
          [
            -78.64248068245111,
            -1.6404302114315943
          ],
          [
            -78.64244992900512,
            -1.6404484779998816
          ],
          [
            -78.64242285300512,
            -1.6404419909998966
          ],
          [
            -78.64237871100511,
            -1.640402490999931
          ],
          [
            -78.64233601400512,
            -1.6403450619999254
          ],
          [
            -78.6423107670051,
            -1.6403089779999063
          ],
          [
            -78.64230186100512,
            -1.6402962499999314
          ],
          [
            -78.64228125100516,
            -1.6402460199999056
          ],
          [
            -78.64227632700508,
            -1.640190069999944
          ],
          [
            -78.64222727300508,
            -1.6400845789999299
          ],
          [
            -78.64219953900515,
            -1.6400314709999058
          ],
          [
            -78.64234700300509,
            -1.639888200999926
          ],
          [
            -78.64232957418567,
            -1.6398502367170458
          ]
        ]
      }
    },
    {
      "type": "Feature",
      "properties": {
        "ID": "LAS_ABRAS-0029",
        "CORREDOR": "QUEBRADA_LAS_ABRAS",
        "LONGITUD_M": 18.578517705321723,
        "CAMARA_MAS_CERCANA": "RIO-015-DOMO",
        "DIST_CAMARA_M": 1648.5992610610856,
        "METODO_DIST": "Distancia minima del segmento al punto de camara"
      },
      "geometry": {
        "type": "LineString",
        "coordinates": [
          [
            -78.64210502217574,
            -1.63950418208279
          ],
          [
            -78.64204580200514,
            -1.6394455529999594
          ],
          [
            -78.6420115080051,
            -1.6394143079999162
          ],
          [
            -78.64198367096931,
            -1.639388946643085
          ]
        ]
      }
    },
    {
      "type": "Feature",
      "properties": {
        "ID": "LAS_ABRAS-0030",
        "CORREDOR": "QUEBRADA_LAS_ABRAS",
        "LONGITUD_M": 43.00688881934965,
        "CAMARA_MAS_CERCANA": "RIO-015-DOMO",
        "DIST_CAMARA_M": 1666.529229454616,
        "METODO_DIST": "Distancia minima del segmento al punto de camara"
      },
      "geometry": {
        "type": "LineString",
        "coordinates": [
          [
            -78.64194926178048,
            -1.6393684165237905
          ],
          [
            -78.64187962600509,
            -1.6393377719999331
          ],
          [
            -78.64175850800511,
            -1.6392993759999217
          ],
          [
            -78.64160413900514,
            -1.639253768999908
          ],
          [
            -78.64158345364534,
            -1.6392449973051935
          ]
        ]
      }
    },
    {
      "type": "Feature",
      "properties": {
        "ID": "LAS_ABRAS-0031",
        "CORREDOR": "QUEBRADA_LAS_ABRAS",
        "LONGITUD_M": 1.0914931396747172,
        "CAMARA_MAS_CERCANA": "RIO-015-DOMO",
        "DIST_CAMARA_M": 1694.3771124468988,
        "METODO_DIST": "Distancia minima del segmento al punto de camara"
      },
      "geometry": {
        "type": "LineString",
        "coordinates": [
          [
            -78.64149089945928,
            -1.6392057493971464
          ],
          [
            -78.64148541100514,
            -1.6392034219999558
          ],
          [
            -78.64148250114775,
            -1.6392008870139065
          ]
        ]
      }
    },
    {
      "type": "Feature",
      "properties": {
        "ID": "LAS_ABRAS-0032",
        "CORREDOR": "QUEBRADA_LAS_ABRAS",
        "LONGITUD_M": 5.91325949509448,
        "CAMARA_MAS_CERCANA": "RIO-015-DOMO",
        "DIST_CAMARA_M": 1704.169187978704,
        "METODO_DIST": "Distancia minima del segmento al punto de camara"
      },
      "geometry": {
        "type": "LineString",
        "coordinates": [
          [
            -78.64140576407723,
            -1.639134035832171
          ],
          [
            -78.6413809850051,
            -1.6391124489999014
          ],
          [
            -78.6413750633013,
            -1.6390928639844218
          ]
        ]
      }
    },
    {
      "type": "Feature",
      "properties": {
        "ID": "LAS_ABRAS-0033",
        "CORREDOR": "QUEBRADA_LAS_ABRAS",
        "LONGITUD_M": 28.931236859326866,
        "CAMARA_MAS_CERCANA": "RIO-015-DOMO",
        "DIST_CAMARA_M": 1768.216669978049,
        "METODO_DIST": "Distancia minima del segmento al punto de camara"
      },
      "geometry": {
        "type": "LineString",
        "coordinates": [
          [
            -78.64112946239638,
            -1.6386036971089446
          ],
          [
            -78.64104451400516,
            -1.638559784999885
          ],
          [
            -78.64098682100513,
            -1.638528158999952
          ],
          [
            -78.64090062200509,
            -1.638493629999958
          ],
          [
            -78.64089481716772,
            -1.638492531572211
          ]
        ]
      }
    },
    {
      "type": "Feature",
      "properties": {
        "ID": "LAS_ABRAS-0034",
        "CORREDOR": "QUEBRADA_LAS_ABRAS",
        "LONGITUD_M": 2.9210621635316656,
        "CAMARA_MAS_CERCANA": "RIO-015-DOMO",
        "DIST_CAMARA_M": 1786.3501442484555,
        "METODO_DIST": "Distancia minima del segmento al punto de camara"
      },
      "geometry": {
        "type": "LineString",
        "coordinates": [
          [
            -78.6407044778093,
            -1.6385364361418153
          ],
          [
            -78.64069764900512,
            -1.6385414129999147
          ],
          [
            -78.64068063033152,
            -1.638546687657151
          ]
        ]
      }
    },
    {
      "type": "Feature",
      "properties": {
        "ID": "LAS_ABRAS-0035",
        "CORREDOR": "QUEBRADA_LAS_ABRAS",
        "LONGITUD_M": 12.524197067845762,
        "CAMARA_MAS_CERCANA": "RIO-015-DOMO",
        "DIST_CAMARA_M": 1776.5760381656482,
        "METODO_DIST": "Distancia minima del segmento al punto de camara"
      },
      "geometry": {
        "type": "LineString",
        "coordinates": [
          [
            -78.64060942665077,
            -1.6385947348306165
          ],
          [
            -78.6405835000051,
            -1.6386381039999205
          ],
          [
            -78.64053503122493,
            -1.6386773443123939
          ]
        ]
      }
    },
    {
      "type": "Feature",
      "properties": {
        "ID": "LAS_ABRAS-0036",
        "CORREDOR": "QUEBRADA_LAS_ABRAS",
        "LONGITUD_M": 50.365747046180005,
        "CAMARA_MAS_CERCANA": "RIO-015-DOMO",
        "DIST_CAMARA_M": 1742.654639758194,
        "METODO_DIST": "Distancia minima del segmento al punto de camara"
      },
      "geometry": {
        "type": "LineString",
        "coordinates": [
          [
            -78.64038511873174,
            -1.6388193593847715
          ],
          [
            -78.64030594600514,
            -1.6388988449999418
          ],
          [
            -78.64022098300512,
            -1.6389805829999546
          ],
          [
            -78.64007809400519,
            -1.639118046999912
          ],
          [
            -78.64006087701367,
            -1.6391367925931775
          ]
        ]
      }
    },
    {
      "type": "Feature",
      "properties": {
        "ID": "LAS_ABRAS-0037",
        "CORREDOR": "QUEBRADA_LAS_ABRAS",
        "LONGITUD_M": 25.57889628921938,
        "CAMARA_MAS_CERCANA": "RIO-015-DOMO",
        "DIST_CAMARA_M": 1707.2059034075396,
        "METODO_DIST": "Distancia minima del segmento al punto de camara"
      },
      "geometry": {
        "type": "LineString",
        "coordinates": [
          [
            -78.63991007801974,
            -1.6393575202614408
          ],
          [
            -78.63989530800514,
            -1.6393989829999513
          ],
          [
            -78.6398571730051,
            -1.6395041309999507
          ],
          [
            -78.63980498929814,
            -1.6395580173131141
          ]
        ]
      }
    },
    {
      "type": "Feature",
      "properties": {
        "ID": "LAS_ABRAS-0038",
        "CORREDOR": "QUEBRADA_LAS_ABRAS",
        "LONGITUD_M": 8.727411814496623,
        "CAMARA_MAS_CERCANA": "RIO-015-DOMO",
        "DIST_CAMARA_M": 1703.4365601916718,
        "METODO_DIST": "Distancia minima del segmento al punto de camara"
      },
      "geometry": {
        "type": "LineString",
        "coordinates": [
          [
            -78.63976592155636,
            -1.6395927019821328
          ],
          [
            -78.63973350000515,
            -1.639618739999928
          ],
          [
            -78.63969710811108,
            -1.639624973781745
          ]
        ]
      }
    },
    {
      "type": "Feature",
      "properties": {
        "ID": "LAS_ABRAS-0039",
        "CORREDOR": "QUEBRADA_LAS_ABRAS",
        "LONGITUD_M": 18.747459479901625,
        "CAMARA_MAS_CERCANA": "RIO-015-DOMO",
        "DIST_CAMARA_M": 1705.5097536317376,
        "METODO_DIST": "Distancia minima del segmento al punto de camara"
      },
      "geometry": {
        "type": "LineString",
        "coordinates": [
          [
            -78.6396432117375,
            -1.6396306645369945
          ],
          [
            -78.63958523900519,
            -1.6396319519999087
          ],
          [
            -78.63954641200516,
            -1.6396307609999543
          ],
          [
            -78.63952689300517,
            -1.6396301619998883
          ],
          [
            -78.63949554600518,
            -1.639619604999911
          ],
          [
            -78.6394855014106,
            -1.6396033899667364
          ]
        ]
      }
    },
    {
      "type": "Feature",
      "properties": {
        "ID": "LAS_ABRAS-0040",
        "CORREDOR": "QUEBRADA_LAS_ABRAS",
        "LONGITUD_M": 118.35081881876977,
        "CAMARA_MAS_CERCANA": "RIO-015-DOMO",
        "DIST_CAMARA_M": 1743.5263607040263,
        "METODO_DIST": "Distancia minima del segmento al punto de camara"
      },
      "geometry": {
        "type": "LineString",
        "coordinates": [
          [
            -78.63870411491801,
            -1.639626502252723
          ],
          [
            -78.63867603900518,
            -1.6396163609999586
          ],
          [
            -78.63847454900517,
            -1.6392347969999543
          ],
          [
            -78.63845208900514,
            -1.6391415309999298
          ],
          [
            -78.63841300500516,
            -1.6390434629999375
          ],
          [
            -78.63835603000516,
            -1.6390063389999052
          ],
          [
            -78.6382491440052,
            -1.6389882819999153
          ],
          [
            -78.63814941200518,
            -1.6389463249999159
          ],
          [
            -78.6380750140052,
            -1.6389197099998978
          ],
          [
            -78.6380371065296,
            -1.638906148566823
          ]
        ]
      }
    },
    {
      "type": "Feature",
      "properties": {
        "ID": "LAS_ABRAS-0041",
        "CORREDOR": "QUEBRADA_LAS_ABRAS",
        "LONGITUD_M": 30.231376132766623,
        "CAMARA_MAS_CERCANA": "MUN-024",
        "DIST_CAMARA_M": 1305.9678081093225,
        "METODO_DIST": "Distancia minima del segmento al punto de camara"
      },
      "geometry": {
        "type": "LineString",
        "coordinates": [
          [
            -78.6892504800044,
            -1.6190085029999655
          ],
          [
            -78.68923087500443,
            -1.6190132619999267
          ],
          [
            -78.68918989000444,
            -1.6190156059999325
          ],
          [
            -78.68915247800446,
            -1.6190095859999212
          ],
          [
            -78.68914412500446,
            -1.6190424499999285
          ],
          [
            -78.68914466400443,
            -1.6190908649999372
          ],
          [
            -78.68914481500444,
            -1.6190913289999391
          ],
          [
            -78.68915768600446,
            -1.6191309269999306
          ],
          [
            -78.68915229300438,
            -1.619172162999956
          ],
          [
            -78.68915246566267,
            -1.619179632104257
          ]
        ]
      }
    },
    {
      "type": "Feature",
      "properties": {
        "ID": "LAS_ABRAS-0042",
        "CORREDOR": "QUEBRADA_LAS_ABRAS",
        "LONGITUD_M": 236.96784471258968,
        "CAMARA_MAS_CERCANA": "MUN-024",
        "DIST_CAMARA_M": 1091.8283374231462,
        "METODO_DIST": "Distancia minima del segmento al punto de camara"
      },
      "geometry": {
        "type": "LineString",
        "coordinates": [
          [
            -78.68919990451383,
            -1.6194883925170367
          ],
          [
            -78.68920004400444,
            -1.6194890039999055
          ],
          [
            -78.68920325700442,
            -1.6195117619999135
          ],
          [
            -78.68920415100445,
            -1.6195338369999401
          ],
          [
            -78.68920235400442,
            -1.6195469849999244
          ],
          [
            -78.68919429000447,
            -1.6195609619999456
          ],
          [
            -78.68918145100444,
            -1.619569912999942
          ],
          [
            -78.6891707560044,
            -1.6195734869999372
          ],
          [
            -78.68915222300444,
            -1.6195752579999265
          ],
          [
            -78.68914081800442,
            -1.6195763209999432
          ],
          [
            -78.68912476700444,
            -1.6195884959999391
          ],
          [
            -78.68909944700445,
            -1.6196042469999163
          ],
          [
            -78.68907413100445,
            -1.6196167689999144
          ],
          [
            -78.68904525300442,
            -1.6196267779998927
          ],
          [
            -78.6890231420044,
            -1.6196414559999424
          ],
          [
            -78.68900316600441,
            -1.6196582889999498
          ],
          [
            -78.68898996200441,
            -1.6196744119999216
          ],
          [
            -78.68897141800441,
            -1.6196862249999295
          ],
          [
            -78.68895749800446,
            -1.6197048579999642
          ],
          [
            -78.68893716700444,
            -1.6197209719999048
          ],
          [
            -78.68892645200445,
            -1.619741401999923
          ],
          [
            -78.68891467200442,
            -1.6197589609999148
          ],
          [
            -78.68889004200443,
            -1.619795153999956
          ],
          [
            -78.68888538400445,
            -1.619817024999948
          ],
          [
            -78.68886896300441,
            -1.619841750999936
          ],
          [
            -78.68885468400443,
            -1.6198636109999534
          ],
          [
            -78.68885221500442,
            -1.6198659359998937
          ],
          [
            -78.68881437100445,
            -1.619901578999911
          ],
          [
            -78.68878262300441,
            -1.6199291569999084
          ],
          [
            -78.68876479300442,
            -1.6199391779999066
          ],
          [
            -78.68874659200443,
            -1.6199617499999421
          ],
          [
            -78.68869770600446,
            -1.620017639999934
          ],
          [
            -78.68867379700445,
            -1.6200459439999466
          ],
          [
            -78.68864489600445,
            -1.6200771109999177
          ],
          [
            -78.68861991900445,
            -1.6201046969998951
          ],
          [
            -78.68860208400446,
            -1.6201193799999374
          ],
          [
            -78.68858780900445,
            -1.6201372949999298
          ],
          [
            -78.68857247700446,
            -1.620144449999914
          ],
          [
            -78.68854751800444,
            -1.620155896999951
          ],
          [
            -78.68852541200448,
            -1.620165912999901
          ],
          [
            -78.68850472700444,
            -1.6201791579998983
          ],
          [
            -78.68848796800441,
            -1.6201875549999218
          ],
          [
            -78.68846445100445,
            -1.620184849999912
          ],
          [
            -78.68844165200441,
            -1.620176933999952
          ],
          [
            -78.68843571400447,
            -1.6201716209999233
          ],
          [
            -78.68842172000443,
            -1.6201553939999105
          ],
          [
            -78.68840931400445,
            -1.620147282999908
          ],
          [
            -78.68839500900444,
            -1.6201406599999302
          ],
          [
            -78.68838361300449,
            -1.6201338329999426
          ],
          [
            -78.68837298600441,
            -1.6201318909999516
          ],
          [
            -78.68835605200444,
            -1.6201352349999407
          ],
          [
            -78.68833941000445,
            -1.6201452579999656
          ],
          [
            -78.68832513700444,
            -1.6201619769999227
          ],
          [
            -78.68828949600443,
            -1.6201652839999132
          ],
          [
            -78.68825717500448,
            -1.6201738529998884
          ],
          [
            -78.68823151300445,
            -1.6201766929999293
          ],
          [
            -78.68819728700448,
            -1.6201895639998798
          ],
          [
            -78.68816164000445,
            -1.6201990869999325
          ],
          [
            -78.68811983500441,
            -1.6201904319999019
          ],
          [
            -78.68809036500443,
            -1.6201999609999358
          ],
          [
            -78.68804619100446,
            -1.6201860429998998
          ],
          [
            -78.68800345000444,
            -1.6201649549999106
          ],
          [
            -78.68797780000442,
            -1.620157752999902
          ],
          [
            -78.68794550000443,
            -1.6201481519998988
          ],
          [
            -78.68790037200444,
            -1.6201371029999063
          ],
          [
            -78.68786617100442,
            -1.6201284559999591
          ],
          [
            -78.68780820200445,
            -1.620127433999871
          ],
          [
            -78.68777826300447,
            -1.6201317029999163
          ],
          [
            -78.68774926300445,
            -1.6201450579998993
          ],
          [
            -78.68773166500442,
            -1.620159860999915
          ],
          [
            -78.68772309400447,
            -1.6201761089999234
          ],
          [
            -78.6877216470045,
            -1.6201952339999257
          ],
          [
            -78.68772304900442,
            -1.6202153189999313
          ],
          [
            -78.6877158850045,
            -1.6202478259999569
          ],
          [
            -78.68771299900448,
            -1.6202789029999027
          ],
          [
            -78.6877106000044,
            -1.6202994619999236
          ],
          [
            -78.68770820000447,
            -1.6203204979999333
          ],
          [
            -78.68770246900449,
            -1.6203458349999447
          ],
          [
            -78.68768960000445,
            -1.620380725999925
          ],
          [
            -78.68767865400446,
            -1.620396014999892
          ],
          [
            -78.68767483000444,
            -1.6204160939999348
          ],
          [
            -78.68767580504112,
            -1.6204241702348068
          ]
        ]
      }
    },
    {
      "type": "Feature",
      "properties": {
        "ID": "LAS_ABRAS-0043",
        "CORREDOR": "QUEBRADA_LAS_ABRAS",
        "LONGITUD_M": 29.583067369941336,
        "CAMARA_MAS_CERCANA": "MUN-024",
        "DIST_CAMARA_M": 1058.6288883047475,
        "METODO_DIST": "Distancia minima del segmento al punto de camara"
      },
      "geometry": {
        "type": "LineString",
        "coordinates": [
          [
            -78.6877260143554,
            -1.6206058757232986
          ],
          [
            -78.68772928800442,
            -1.6206213379999534
          ],
          [
            -78.68772748500447,
            -1.6206399249999426
          ],
          [
            -78.68772211500448,
            -1.6206617349999037
          ],
          [
            -78.68771645500449,
            -1.6206769699999528
          ],
          [
            -78.68770900000447,
            -1.6207041569999598
          ],
          [
            -78.68770532200442,
            -1.620714708999941
          ],
          [
            -78.68769679000444,
            -1.6207340289999208
          ],
          [
            -78.68768459700449,
            -1.6207492559999443
          ],
          [
            -78.68768161400449,
            -1.620760907999925
          ],
          [
            -78.68768011400446,
            -1.620774653999915
          ],
          [
            -78.68766999000447,
            -1.6207979529999308
          ],
          [
            -78.68765750800446,
            -1.6208063059999331
          ],
          [
            -78.68764087400444,
            -1.6208089769999467
          ],
          [
            -78.68762484100444,
            -1.6208059699999027
          ],
          [
            -78.68761238175806,
            -1.6207989177049218
          ]
        ]
      }
    },
    {
      "type": "Feature",
      "properties": {
        "ID": "LAS_ABRAS-0044",
        "CORREDOR": "QUEBRADA_LAS_ABRAS",
        "LONGITUD_M": 62.80499409577699,
        "CAMARA_MAS_CERCANA": "MUN-024",
        "DIST_CAMARA_M": 988.7947906967305,
        "METODO_DIST": "Distancia minima del segmento al punto de camara"
      },
      "geometry": {
        "type": "LineString",
        "coordinates": [
          [
            -78.68744387181079,
            -1.6208685870593278
          ],
          [
            -78.68744084600446,
            -1.6208698009999352
          ],
          [
            -78.68741042400445,
            -1.620880285999888
          ],
          [
            -78.68738712300441,
            -1.6208962769998907
          ],
          [
            -78.68736952100443,
            -1.6209149059999242
          ],
          [
            -78.68736333000447,
            -1.6209268529999026
          ],
          [
            -78.68734692300445,
            -1.6209392659999018
          ],
          [
            -78.6873221940045,
            -1.6209581259999373
          ],
          [
            -78.68729271600446,
            -1.620973631999949
          ],
          [
            -78.68727227500445,
            -1.6209822159999208
          ],
          [
            -78.68724162200446,
            -1.6209864839999402
          ],
          [
            -78.68721359800448,
            -1.6209776059999201
          ],
          [
            -78.68717062500447,
            -1.6209517349999167
          ],
          [
            -78.68713808900448,
            -1.6209411779999388
          ],
          [
            -78.68711647700447,
            -1.6209344589999328
          ],
          [
            -78.68707994900446,
            -1.6209339389999269
          ],
          [
            -78.68706450100446,
            -1.6209390009999292
          ],
          [
            -78.68703865400445,
            -1.6209482359999285
          ],
          [
            -78.68701636200447,
            -1.620964945999943
          ],
          [
            -78.68700000800446,
            -1.6209828589999642
          ],
          [
            -78.68698157600446,
            -1.6210001709999013
          ],
          [
            -78.68697264400448,
            -1.6210201839999534
          ],
          [
            -78.6869692960859,
            -1.6210277853197665
          ]
        ]
      }
    },
    {
      "type": "Feature",
      "properties": {
        "ID": "LAS_ABRAS-0045",
        "CORREDOR": "QUEBRADA_LAS_ABRAS",
        "LONGITUD_M": 99.73720129675318,
        "CAMARA_MAS_CERCANA": "MUN-024",
        "DIST_CAMARA_M": 896.2191785312905,
        "METODO_DIST": "Distancia minima del segmento al punto de camara"
      },
      "geometry": {
        "type": "LineString",
        "coordinates": [
          [
            -78.68707110570472,
            -1.6214351806689828
          ],
          [
            -78.68707076400443,
            -1.6214386939999352
          ],
          [
            -78.68707729100448,
            -1.6214446779998888
          ],
          [
            -78.68707846800447,
            -1.621454242999947
          ],
          [
            -78.68707934400446,
            -1.6214673929999153
          ],
          [
            -78.68708526600444,
            -1.6214826419999055
          ],
          [
            -78.68708256700445,
            -1.6215056509999295
          ],
          [
            -78.68705301700449,
            -1.6215324989999298
          ],
          [
            -78.68702946100447,
            -1.6215636719999396
          ],
          [
            -78.68700984000446,
            -1.6215819389999213
          ],
          [
            -78.68698024400447,
            -1.6215973259999505
          ],
          [
            -78.68694815500449,
            -1.6216116339999571
          ],
          [
            -78.68691533800445,
            -1.6216381349999203
          ],
          [
            -78.68689535700449,
            -1.6216603469998958
          ],
          [
            -78.68688143900445,
            -1.6216768269998902
          ],
          [
            -78.68682796200444,
            -1.6216961319999141
          ],
          [
            -78.68679147900448,
            -1.6217010159999607
          ],
          [
            -78.68676702400444,
            -1.621695343999915
          ],
          [
            -78.68672425100448,
            -1.621702825999874
          ],
          [
            -78.68671747500449,
            -1.6217071219999657
          ],
          [
            -78.68669930100448,
            -1.6217063839999026
          ],
          [
            -78.68669181800446,
            -1.6217056579999072
          ],
          [
            -78.68665866600448,
            -1.6217145849999246
          ],
          [
            -78.68661768100448,
            -1.6217166899999567
          ],
          [
            -78.68659166300444,
            -1.6217188119999135
          ],
          [
            -78.68653786500441,
            -1.6217072979998977
          ],
          [
            -78.68649796400447,
            -1.621696253999952
          ],
          [
            -78.68644952100452,
            -1.6216756369999346
          ],
          [
            -78.6864179160045,
            -1.6216594549999048
          ],
          [
            -78.68640598600447,
            -1.6216429759999589
          ],
          [
            -78.68641582300447,
            -1.6215959299999319
          ],
          [
            -78.68641785173556,
            -1.6215917273954212
          ]
        ]
      }
    },
    {
      "type": "Feature",
      "properties": {
        "ID": "LAS_ABRAS-0046",
        "CORREDOR": "QUEBRADA_LAS_ABRAS",
        "LONGITUD_M": 1.0063698298770722,
        "CAMARA_MAS_CERCANA": "MUN-024",
        "DIST_CAMARA_M": 895.9311940523967,
        "METODO_DIST": "Distancia minima del segmento al punto de camara"
      },
      "geometry": {
        "type": "LineString",
        "coordinates": [
          [
            -78.68631317148291,
            -1.621543479106657
          ],
          [
            -78.68630774000447,
            -1.6215448389999272
          ],
          [
            -78.6863047410971,
            -1.6215431366720205
          ]
        ]
      }
    },
    {
      "type": "Feature",
      "properties": {
        "ID": "LAS_ABRAS-0047",
        "CORREDOR": "QUEBRADA_LAS_ABRAS",
        "LONGITUD_M": 229.3452248818079,
        "CAMARA_MAS_CERCANA": "MUN-024",
        "DIST_CAMARA_M": 693.3726952149635,
        "METODO_DIST": "Distancia minima del segmento al punto de camara"
      },
      "geometry": {
        "type": "LineString",
        "coordinates": [
          [
            -78.68629428456413,
            -1.6215427119370616
          ],
          [
            -78.6862797020045,
            -1.621548153999893
          ],
          [
            -78.68626039400449,
            -1.6215539509999384
          ],
          [
            -78.68622931700449,
            -1.6215638149999145
          ],
          [
            -78.68621089200447,
            -1.6215745529999233
          ],
          [
            -78.68619365900449,
            -1.6215820039999342
          ],
          [
            -78.68617256700446,
            -1.6215879569999598
          ],
          [
            -78.68614969800448,
            -1.6215897239998787
          ],
          [
            -78.68613425800449,
            -1.6215879129999156
          ],
          [
            -78.68612445200446,
            -1.6215932809999318
          ],
          [
            -78.68612028600447,
            -1.62160044899995
          ],
          [
            -78.68611791600446,
            -1.6216022139999042
          ],
          [
            -78.68611107200446,
            -1.6216073119999703
          ],
          [
            -78.68609086700448,
            -1.6216162539998988
          ],
          [
            -78.68608284200445,
            -1.6216225209999195
          ],
          [
            -78.6860523690045,
            -1.6216253549999189
          ],
          [
            -78.6860333090045,
            -1.6216726719999175
          ],
          [
            -78.68601474800444,
            -1.6216989489999163
          ],
          [
            -78.68600568800447,
            -1.6217266729999456
          ],
          [
            -78.68599373600448,
            -1.6217912119999314
          ],
          [
            -78.68598771500447,
            -1.621824406999953
          ],
          [
            -78.68597273700449,
            -1.6218719979999445
          ],
          [
            -78.6859660450045,
            -1.6219073739999168
          ],
          [
            -78.6859617450045,
            -1.6219284089999526
          ],
          [
            -78.6859529630045,
            -1.6219530309999421
          ],
          [
            -78.6859360040045,
            -1.6220005819999126
          ],
          [
            -78.68591814500448,
            -1.6220364239999199
          ],
          [
            -78.68587633000449,
            -1.6220817419999385
          ],
          [
            -78.68584034500446,
            -1.6221345979999091
          ],
          [
            -78.68581489600444,
            -1.6221914329999403
          ],
          [
            -78.6858118040045,
            -1.6222138209999282
          ],
          [
            -78.68580288700447,
            -1.6222206849999243
          ],
          [
            -78.68580376600444,
            -1.6222317429999107
          ],
          [
            -78.6858105890045,
            -1.6222377279999487
          ],
          [
            -78.68581443500447,
            -1.622250582999904
          ],
          [
            -78.68580728600446,
            -1.6222697019998782
          ],
          [
            -78.68580668000449,
            -1.6222807589999364
          ],
          [
            -78.68580486400451,
            -1.6223106419999227
          ],
          [
            -78.6858087060045,
            -1.622327381999964
          ],
          [
            -78.68580661200448,
            -1.6223408279999165
          ],
          [
            -78.6858003610045,
            -1.6223527749999573
          ],
          [
            -78.68579411000447,
            -1.6223656189999165
          ],
          [
            -78.6857967590045,
            -1.6223865419999226
          ],
          [
            -78.6857952600045,
            -1.6223996899999376
          ],
          [
            -78.68578960200446,
            -1.62241313199995
          ],
          [
            -78.68578364500445,
            -1.622428066999907
          ],
          [
            -78.68578422400451,
            -1.6224412179999361
          ],
          [
            -78.68577797300449,
            -1.6224546589999396
          ],
          [
            -78.68576815800449,
            -1.6224674979999194
          ],
          [
            -78.6857657600045,
            -1.622486621999915
          ],
          [
            -78.68576723100446,
            -1.6224994749998904
          ],
          [
            -78.68576068800449,
            -1.6225072369999418
          ],
          [
            -78.68574520600447,
            -1.6225418869999366
          ],
          [
            -78.68573627500449,
            -1.6225613019999432
          ],
          [
            -78.68573304700452,
            -1.6225680009998964
          ],
          [
            -78.68570812200447,
            -1.6226133299999639
          ],
          [
            -78.68570520400449,
            -1.6226201219999152
          ],
          [
            -78.68569918900447,
            -1.6226341199999075
          ],
          [
            -78.68568597400446,
            -1.6226599259998957
          ],
          [
            -78.68568132700443,
            -1.6226724719999503
          ],
          [
            -78.68567999800447,
            -1.622676527999931
          ],
          [
            -78.68567310200447,
            -1.6226975669998958
          ],
          [
            -78.68566523900446,
            -1.6227179989999656
          ],
          [
            -78.68564454600445,
            -1.6227380579998705
          ],
          [
            -78.6856235030045,
            -1.6227538139999453
          ],
          [
            -78.68561601400445,
            -1.6227611679999412
          ],
          [
            -78.68561554200446,
            -1.6227616309999182
          ],
          [
            -78.6856142690045,
            -1.6227620569999224
          ],
          [
            -78.68553246700448,
            -1.6227888749999495
          ],
          [
            -78.68548681900445,
            -1.6227858839999225
          ],
          [
            -78.68547982900446,
            -1.6227942649998868
          ],
          [
            -78.68548045300449,
            -1.6228223349999455
          ],
          [
            -78.6854663650045,
            -1.6228350419999422
          ],
          [
            -78.68544808100447,
            -1.622851531999943
          ],
          [
            -78.6854253430045,
            -1.6228613769999203
          ],
          [
            -78.68538401900447,
            -1.6228635079999236
          ],
          [
            -78.68530594400447,
            -1.6229064119999224
          ],
          [
            -78.68527190600447,
            -1.6229553769999019
          ],
          [
            -78.68524958300449,
            -1.6230033349999549
          ],
          [
            -78.68521280624566,
            -1.6230525782508631
          ]
        ]
      }
    },
    {
      "type": "Feature",
      "properties": {
        "ID": "LAS_ABRAS-0048",
        "CORREDOR": "QUEBRADA_LAS_ABRAS",
        "LONGITUD_M": 52.49534889216076,
        "CAMARA_MAS_CERCANA": "MUN-024",
        "DIST_CAMARA_M": 638.6623410372739,
        "METODO_DIST": "Distancia minima del segmento al punto de camara"
      },
      "geometry": {
        "type": "LineString",
        "coordinates": [
          [
            -78.68522184235685,
            -1.6232348906892793
          ],
          [
            -78.68522223700447,
            -1.62325553099991
          ],
          [
            -78.6852214930045,
            -1.6232835029999062
          ],
          [
            -78.6852143330045,
            -1.6233121849999468
          ],
          [
            -78.68520360100449,
            -1.6233480349999143
          ],
          [
            -78.68518789100446,
            -1.6233738379999525
          ],
          [
            -78.68516148300448,
            -1.6234068009999216
          ],
          [
            -78.68514149200446,
            -1.6234361849999042
          ],
          [
            -78.68512224000443,
            -1.6234440519999167
          ],
          [
            -78.6850951530045,
            -1.623446172999912
          ],
          [
            -78.68506520800452,
            -1.6234547449999235
          ],
          [
            -78.6850388280045,
            -1.6234626049999208
          ],
          [
            -78.68498963500451,
            -1.6234748489999107
          ],
          [
            -78.6849493700045,
            -1.6234704989999393
          ],
          [
            -78.68491161300447,
            -1.6234550349999022
          ],
          [
            -78.68490308158276,
            -1.6234487236220736
          ]
        ]
      }
    },
    {
      "type": "Feature",
      "properties": {
        "ID": "LAS_ABRAS-0049",
        "CORREDOR": "QUEBRADA_LAS_ABRAS",
        "LONGITUD_M": 22.258870702414395,
        "CAMARA_MAS_CERCANA": "MUN-024",
        "DIST_CAMARA_M": 592.9440664769123,
        "METODO_DIST": "Distancia minima del segmento al punto de camara"
      },
      "geometry": {
        "type": "LineString",
        "coordinates": [
          [
            -78.68454366889051,
            -1.6234554878563014
          ],
          [
            -78.6845434120045,
            -1.6234556139999285
          ],
          [
            -78.68452523400451,
            -1.623457744999902
          ],
          [
            -78.68449778300452,
            -1.623467754999937
          ],
          [
            -78.68447959600451,
            -1.623477775999938
          ],
          [
            -78.68445535700445,
            -1.6234827679999597
          ],
          [
            -78.6844289940045,
            -1.6234759239999104
          ],
          [
            -78.68440867400449,
            -1.6234823559999247
          ],
          [
            -78.68437768400447,
            -1.6234697679999321
          ],
          [
            -78.68435881000447,
            -1.623457552999966
          ],
          [
            -78.68435692748217,
            -1.6234562185881407
          ]
        ]
      }
    },
    {
      "type": "Feature",
      "properties": {
        "ID": "LAS_ABRAS-0050",
        "CORREDOR": "QUEBRADA_LAS_ABRAS",
        "LONGITUD_M": 2.4052391690979484,
        "CAMARA_MAS_CERCANA": "MUN-024",
        "DIST_CAMARA_M": 563.8341974267512,
        "METODO_DIST": "Distancia minima del segmento al punto de camara"
      },
      "geometry": {
        "type": "LineString",
        "coordinates": [
          [
            -78.68407144267707,
            -1.6235102038721954
          ],
          [
            -78.68407056300451,
            -1.623513524999919
          ],
          [
            -78.68405768505653,
            -1.6235264538489076
          ]
        ]
      }
    },
    {
      "type": "Feature",
      "properties": {
        "ID": "LAS_ABRAS-0051",
        "CORREDOR": "QUEBRADA_LAS_ABRAS",
        "LONGITUD_M": 8.924857814192876,
        "CAMARA_MAS_CERCANA": "MUN-024",
        "DIST_CAMARA_M": 507.02267518443807,
        "METODO_DIST": "Distancia minima del segmento al punto de camara"
      },
      "geometry": {
        "type": "LineString",
        "coordinates": [
          [
            -78.68368612881703,
            -1.6237939971630704
          ],
          [
            -78.6836891620045,
            -1.6237980129999259
          ],
          [
            -78.68367274500453,
            -1.6238187939998916
          ],
          [
            -78.68364280400455,
            -1.6238237799999276
          ],
          [
            -78.68362465813549,
            -1.6238205362423659
          ]
        ]
      }
    },
    {
      "type": "Feature",
      "properties": {
        "ID": "LAS_ABRAS-0052",
        "CORREDOR": "QUEBRADA_LAS_ABRAS",
        "LONGITUD_M": 48.820806010792616,
        "CAMARA_MAS_CERCANA": "MUN-024",
        "DIST_CAMARA_M": 419.39703369350826,
        "METODO_DIST": "Distancia minima del segmento al punto de camara"
      },
      "geometry": {
        "type": "LineString",
        "coordinates": [
          [
            -78.68326513417888,
            -1.6240627792000977
          ],
          [
            -78.68327556800452,
            -1.6240828809999068
          ],
          [
            -78.68327196900454,
            -1.6241139579999353
          ],
          [
            -78.68323869300451,
            -1.6241264709999348
          ],
          [
            -78.68320601100451,
            -1.6241401809999627
          ],
          [
            -78.68315966700453,
            -1.6241538749999127
          ],
          [
            -78.68311687500449,
            -1.6241783309999018
          ],
          [
            -78.68309073600449,
            -1.6241824849999398
          ],
          [
            -78.68306874500453,
            -1.6241962069999354
          ],
          [
            -78.68304615600452,
            -1.6242123189999549
          ],
          [
            -78.6830254830045,
            -1.624215761999935
          ],
          [
            -78.6830046910045,
            -1.624218725999904
          ],
          [
            -78.68297914400452,
            -1.624225868999913
          ],
          [
            -78.6829375520045,
            -1.624238970999943
          ],
          [
            -78.68291455653082,
            -1.6242472059815194
          ]
        ]
      }
    },
    {
      "type": "Feature",
      "properties": {
        "ID": "LAS_ABRAS-0053",
        "CORREDOR": "QUEBRADA_LAS_ABRAS",
        "LONGITUD_M": 44.93407585552166,
        "CAMARA_MAS_CERCANA": "MUN-024",
        "DIST_CAMARA_M": 259.46996585981856,
        "METODO_DIST": "Distancia minima del segmento al punto de camara"
      },
      "geometry": {
        "type": "LineString",
        "coordinates": [
          [
            -78.6825415333028,
            -1.6253884655958681
          ],
          [
            -78.68254285200456,
            -1.6254212189999404
          ],
          [
            -78.68248462400456,
            -1.625440277999902
          ],
          [
            -78.6824572980045,
            -1.6254438329999539
          ],
          [
            -78.68244775100455,
            -1.625482074999957
          ],
          [
            -78.6824060930045,
            -1.6255537519999543
          ],
          [
            -78.68234834900451,
            -1.625564562999914
          ],
          [
            -78.68230270300451,
            -1.6255910489999452
          ],
          [
            -78.68226063100452,
            -1.6256089309999135
          ],
          [
            -78.68225881883592,
            -1.6256119324161529
          ]
        ]
      }
    },
    {
      "type": "Feature",
      "properties": {
        "ID": "LAS_ABRAS-0054",
        "CORREDOR": "QUEBRADA_LAS_ABRAS",
        "LONGITUD_M": 72.31685847791847,
        "CAMARA_MAS_CERCANA": "MUN-024",
        "DIST_CAMARA_M": 199.98962151793302,
        "METODO_DIST": "Distancia minima del segmento al punto de camara"
      },
      "geometry": {
        "type": "LineString",
        "coordinates": [
          [
            -78.68230923026604,
            -1.6257583587425661
          ],
          [
            -78.68233027900452,
            -1.6257847379998955
          ],
          [
            -78.68237227700453,
            -1.6258321249998977
          ],
          [
            -78.68237865900453,
            -1.6258608219998854
          ],
          [
            -78.68236008200454,
            -1.6259002489998915
          ],
          [
            -78.68234627500455,
            -1.6259257459999108
          ],
          [
            -78.68234222600454,
            -1.6259332219999467
          ],
          [
            -78.68231082800455,
            -1.6259515329999326
          ],
          [
            -78.68227307900455,
            -1.6259439009999541
          ],
          [
            -78.68223957900452,
            -1.6259445789999227
          ],
          [
            -78.68217752200454,
            -1.6259875429999298
          ],
          [
            -78.68212330100457,
            -1.6260333839998915
          ],
          [
            -78.68207837200455,
            -1.626057000999907
          ],
          [
            -78.68204485600454,
            -1.6260720249999037
          ],
          [
            -78.68198996900455,
            -1.6260776989999206
          ],
          [
            -78.68194431414173,
            -1.626071961596098
          ]
        ]
      }
    },
    {
      "type": "Feature",
      "properties": {
        "ID": "LAS_ABRAS-0055",
        "CORREDOR": "QUEBRADA_LAS_ABRAS",
        "LONGITUD_M": 95.90105382726576,
        "CAMARA_MAS_CERCANA": "MUN-024",
        "DIST_CAMARA_M": 199.98807332179862,
        "METODO_DIST": "Distancia minima del segmento al punto de camara"
      },
      "geometry": {
        "type": "LineString",
        "coordinates": [
          [
            -78.67925754500791,
            -1.628460198796019
          ],
          [
            -78.67925126300456,
            -1.6284783849999107
          ],
          [
            -78.67923279300457,
            -1.6285285709999293
          ],
          [
            -78.67921256800457,
            -1.6285560419999348
          ],
          [
            -78.67919236100451,
            -1.6285667769999108
          ],
          [
            -78.67913713200453,
            -1.628559540999934
          ],
          [
            -78.6791139720046,
            -1.6285559279999475
          ],
          [
            -78.67905692400454,
            -1.62858156299992
          ],
          [
            -78.67901887900456,
            -1.6286102089998915
          ],
          [
            -78.67895409900459,
            -1.6286234889999194
          ],
          [
            -78.67891164500458,
            -1.628670726999909
          ],
          [
            -78.67889545800456,
            -1.628717388999963
          ],
          [
            -78.6788712400046,
            -1.6287331899999071
          ],
          [
            -78.67885567000458,
            -1.628806465999943
          ],
          [
            -78.67883509900459,
            -1.6288284569999008
          ],
          [
            -78.67882200600457,
            -1.6288508559999
          ],
          [
            -78.67881588400455,
            -1.6288776079999003
          ],
          [
            -78.67880621900458,
            -1.6288926769999388
          ],
          [
            -78.67879522300457,
            -1.6288992389999501
          ],
          [
            -78.67878034600454,
            -1.6289246239999549
          ],
          [
            -78.6787651630046,
            -1.6289565839999463
          ],
          [
            -78.67875889400456,
            -1.6289852669999374
          ],
          [
            -78.67874817200459,
            -1.629012748999956
          ],
          [
            -78.67874146488863,
            -1.6290366097844158
          ]
        ]
      }
    },
    {
      "type": "Feature",
      "properties": {
        "ID": "LAS_ABRAS-0056",
        "CORREDOR": "QUEBRADA_LAS_ABRAS",
        "LONGITUD_M": 21.056392965797944,
        "CAMARA_MAS_CERCANA": "MUN-025",
        "DIST_CAMARA_M": 199.98558604290946,
        "METODO_DIST": "Distancia minima del segmento al punto de camara"
      },
      "geometry": {
        "type": "LineString",
        "coordinates": [
          [
            -78.67871891175177,
            -1.6293067634843958
          ],
          [
            -78.67871891200457,
            -1.629309895999914
          ],
          [
            -78.6787206700046,
            -1.62933605899993
          ],
          [
            -78.67872969000457,
            -1.6293538429999168
          ],
          [
            -78.67872134500462,
            -1.6293804309999496
          ],
          [
            -78.67869963900455,
            -1.6294031189999232
          ],
          [
            -78.67869457300459,
            -1.6294186529999177
          ],
          [
            -78.67865533700459,
            -1.6294499869998924
          ],
          [
            -78.67864475473746,
            -1.6294603949299151
          ]
        ]
      }
    },
    {
      "type": "Feature",
      "properties": {
        "ID": "LAS_ABRAS-0057",
        "CORREDOR": "QUEBRADA_LAS_ABRAS",
        "LONGITUD_M": 35.3526022489075,
        "CAMARA_MAS_CERCANA": "MUN-025",
        "DIST_CAMARA_M": 199.99060793284016,
        "METODO_DIST": "Distancia minima del segmento al punto de camara"
      },
      "geometry": {
        "type": "LineString",
        "coordinates": [
          [
            -78.67725890032709,
            -1.6327928675167733
          ],
          [
            -78.67724094400455,
            -1.6328268429999544
          ],
          [
            -78.67723636400459,
            -1.632828812999927
          ],
          [
            -78.6772361740046,
            -1.6328358679999517
          ],
          [
            -78.6772361420046,
            -1.6328370629999298
          ],
          [
            -78.67723174800459,
            -1.6330002189999167
          ],
          [
            -78.67724017800461,
            -1.633034316999916
          ],
          [
            -78.67726115500459,
            -1.633067269999943
          ],
          [
            -78.67727742046262,
            -1.6330928205454989
          ]
        ]
      }
    }
  ]
}