{
  "type": "FeatureCollection",
  "features": [
    {
      "type": "Feature",
      "properties": {
        "ID_POLICIA": "POL-12",
        "CANDIDATO_ANTERIOR": "CAND-POL-01014",
        "CANDIDATO_FINAL": "CAND-POL-01024",
        "X_ANTERIOR": 759770.4501,
        "Y_ANTERIOR": 9816248.9323,
        "X_FINAL": 759809.7748999996,
        "Y_FINAL": 9816317.6295,
        "DESPLAZAMIENTO_M": 79.15646014626621,
        "PLATAFORMA_ANTERIOR": "PLATAFORMA H",
        "PLATAFORMA_FINAL": "PLATAFORMA H",
        "DV_ANTERIOR": 11,
        "DV_FINAL": 11,
        "SOLAPE_ANTERIOR": 60.576496422738764,
        "SOLAPE_FINAL": 48.097451871594444,
        "JUSTIFICACION": "POL-12 desplazada al nodo vial aprobado CAND-POL-01024. Desplazamiento 79.16 m; solape 60.58% a 48.10%. Conserva 9/11 eventos D/V exclusivos anteriores; 2 dejan de estar cubiertos y 2 distintos ganan cobertura. Ningun nucleo D/V99 antes atendido queda totalmente sin cobertura. Revision puntual POL-12: aporte actual 10 D/1 V y solape 48.10%. Propuesta no instalada, pendiente verificacion de campo."
      },
      "geometry": {
        "type": "LineString",
        "coordinates": [
          [
            -78.66518345511977,
            -1.6610602236911556
          ],
          [
            -78.66483093035369,
            -1.6604388032412696
          ]
        ]
      }
    }
  ]
}