{
  "type": "FeatureCollection",
  "features": [
    {
      "type": "Feature",
      "properties": {
        "ID": "MACAJI-0001",
        "LONGITUD_M": 31.13157567851332,
        "INICIO_X": 761100.067126626,
        "INICIO_Y": 9814357.748457454,
        "FIN_X": 761079.2306284872,
        "FIN_Y": 9814334.618058635,
        "CAMARA_MAS_CERCANA": "MUN-035",
        "DIST_CAMARA_M": 199.98521791315179,
        "METODO_DIST": "Distancia minima entre segmento completo y punto de camara"
      },
      "geometry": {
        "type": "LineString",
        "coordinates": [
          [
            -78.65321928991685,
            -1.6781415228646799
          ],
          [
            -78.65335299063716,
            -1.678291238884081
          ],
          [
            -78.65340621454583,
            -1.6783508384173267
          ]
        ]
      }
    },
    {
      "type": "Feature",
      "properties": {
        "ID": "MACAJI-0002",
        "LONGITUD_M": 25.580433542154005,
        "INICIO_X": 762572.4018604321,
        "INICIO_Y": 9814557.613224423,
        "FIN_X": 762589.0081679192,
        "FIN_Y": 9814577.070591455,
        "CAMARA_MAS_CERCANA": "MUN-038",
        "DIST_CAMARA_M": 199.98902150361013,
        "METODO_DIST": "Distancia minima entre segmento completo y punto de camara"
      },
      "geometry": {
        "type": "LineString",
        "coordinates": [
          [
            -78.63999555564611,
            -1.6763188248979732
          ],
          [
            -78.63984659370549,
            -1.6761427588554134
          ]
        ]
      }
    },
    {
      "type": "Feature",
      "properties": {
        "ID": "MACAJI-0003",
        "LONGITUD_M": 0.11388316042209248,
        "INICIO_X": 761355.6331725806,
        "INICIO_Y": 9814665.57955588,
        "FIN_X": 761355.5604138249,
        "FIN_Y": 9814665.491945734,
        "CAMARA_MAS_CERCANA": "RIO-061-DOMO",
        "DIST_CAMARA_M": 199.98745635089057,
        "METODO_DIST": "Distancia minima entre segmento completo y punto de camara"
      },
      "geometry": {
        "type": "LineString",
        "coordinates": [
          [
            -78.65092686469346,
            -1.6753560844312623
          ],
          [
            -78.6509275173385,
            -1.6753568771791894
          ]
        ]
      }
    },
    {
      "type": "Feature",
      "properties": {
        "ID": "MACAJI-0004",
        "LONGITUD_M": 19.524783302991516,
        "INICIO_X": 762196.7322189234,
        "INICIO_Y": 9814426.15724835,
        "FIN_X": 762182.0523908472,
        "FIN_Y": 9814439.03046903,
        "CAMARA_MAS_CERCANA": "MUN-038",
        "DIST_CAMARA_M": 199.98665877323901,
        "METODO_DIST": "Distancia minima entre segmento completo y punto de camara"
      },
      "geometry": {
        "type": "LineString",
        "coordinates": [
          [
            -78.64336873762184,
            -1.677511216712223
          ],
          [
            -78.64350074465143,
            -1.6773950086690501
          ]
        ]
      }
    },
    {
      "type": "Feature",
      "properties": {
        "ID": "MACAJI-0005",
        "LONGITUD_M": 70.49338030915658,
        "INICIO_X": 760721.6134184847,
        "INICIO_Y": 9815708.812478127,
        "FIN_X": 760668.63011221,
        "FIN_Y": 9815755.310713831,
        "CAMARA_MAS_CERCANA": "RIO-011-DOMO",
        "DIST_CAMARA_M": 199.98555980605173,
        "METODO_DIST": "Distancia minima entre segmento completo y punto de camara"
      },
      "geometry": {
        "type": "LineString",
        "coordinates": [
          [
            -78.65663343053232,
            -1.6659325211159013
          ],
          [
            -78.65710987393577,
            -1.665512764334647
          ]
        ]
      }
    }
  ]
}