{
  "type": "FeatureCollection",
  "features": [
    {
      "type": "Feature",
      "properties": {
        "CORREDOR": "ANILLO_VIAL",
        "ESTADO": "CUBIERTO"
      },
      "geometry": {
        "type": "LineString",
        "coordinates": [
          [
            -78.66505505119477,
            -1.6649304102089248
          ],
          [
            -78.66494214899996,
            -1.6647987059999472
          ],
          [
            -78.66480680299998,
            -1.6645980239999234
          ],
          [
            -78.66420245499995,
            -1.6636653279999822
          ],
          [
            -78.66411712599995,
            -1.6635336389999784
          ],
          [
            -78.66398607299999,
            -1.6633313839999448
          ],
          [
            -78.66347392299997,
            -1.6625379229999522
          ],
          [
            -78.66284804799994,
            -1.6615608789999718
          ],
          [
            -78.66188598999997,
            -1.660037996999954
          ],
          [
            -78.66163459699999,
            -1.6596644689999505
          ],
          [
            -78.66133027599994,
            -1.659212296999951
          ],
          [
            -78.66104116299994,
            -1.6587545789999454
          ],
          [
            -78.66095944299997,
            -1.6586257509999343
          ],
          [
            -78.66087334899998,
            -1.658499839999937
          ],
          [
            -78.66078298499997,
            -1.6583769969999558
          ],
          [
            -78.66068845699994,
            -1.6582573689999507
          ],
          [
            -78.66058987799994,
            -1.6581410989999776
          ],
          [
            -78.66048736699997,
            -1.6580283249999712
          ],
          [
            -78.66029471899998,
            -1.6578539629999873
          ],
          [
            -78.66001411499997,
            -1.6576010269999377
          ],
          [
            -78.65983426999998,
            -1.6574652809999293
          ],
          [
            -78.65916897999995,
            -1.6570015609999518
          ],
          [
            -78.65879539299993,
            -1.6567571839999586
          ],
          [
            -78.65854906299995,
            -1.6566039169999272
          ],
          [
            -78.65846518899997,
            -1.6565518009999767
          ],
          [
            -78.65837941699994,
            -1.656502914999982
          ],
          [
            -78.65829186799994,
            -1.6564573289999713
          ],
          [
            -78.65820180299994,
            -1.6564182159999623
          ],
          [
            -78.65811010299996,
            -1.6563831619999445
          ],
          [
            -78.65801694799995,
            -1.6563522339999417
          ],
          [
            -78.65790895299995,
            -1.6563220219999257
          ],
          [
            -78.65779957499996,
            -1.6562973559999201
          ],
          [
            -78.65768909599996,
            -1.6562782989999556
          ],
          [
            -78.65757779999996,
            -1.6562649009999255
          ],
          [
            -78.65746597099997,
            -1.656257194999965
          ],
          [
            -78.65735389799994,
            -1.6562552019999612
          ],
          [
            -78.65716841899996,
            -1.656259663999951
          ],
          [
            -78.65631374099996,
            -1.6563537399999217
          ],
          [
            -78.65616671299995,
            -1.6563752679999768
          ],
          [
            -78.65602058199994,
            -1.6564022729999706
          ],
          [
            -78.65587554699994,
            -1.656434717999954
          ],
          [
            -78.65573180899997,
            -1.6564725579999553
          ],
          [
            -78.65558956499996,
            -1.6565157419999477
          ],
          [
            -78.65544901199996,
            -1.656564206999981
          ],
          [
            -78.6553905303902,
            -1.6565904380440117
          ]
        ]
      }
    },
    {
      "type": "Feature",
      "properties": {
        "CORREDOR": "ANILLO_VIAL",
        "ESTADO": "CUBIERTO"
      },
      "geometry": {
        "type": "LineString",
        "coordinates": [
          [
            -78.65150217819692,
            -1.6618993976692251
          ],
          [
            -78.65129401699994,
            -1.6620805459999675
          ],
          [
            -78.65087093999995,
            -1.6624265749999232
          ],
          [
            -78.65047702899994,
            -1.6627544609999625
          ],
          [
            -78.65030952699993,
            -1.662892052999945
          ],
          [
            -78.65012927499998,
            -1.6630401179999716
          ],
          [
            -78.64974785699998,
            -1.6633562369999655
          ],
          [
            -78.64947601599994,
            -1.663546506999973
          ],
          [
            -78.64928593099995,
            -1.663679552999955
          ],
          [
            -78.64930803299995,
            -1.6636462599999542
          ],
          [
            -78.64932573299996,
            -1.663610399999928
          ],
          [
            -78.64933874199994,
            -1.6635725619999493
          ],
          [
            -78.64934684799994,
            -1.6635333619999495
          ],
          [
            -78.64934863599996,
            -1.6634283869999489
          ],
          [
            -78.64934522299995,
            -1.6633234529999734
          ],
          [
            -78.64933661699996,
            -1.6632188189999535
          ],
          [
            -78.64932284099996,
            -1.6631147479999453
          ],
          [
            -78.64930392699995,
            -1.6630114969999612
          ],
          [
            -78.64927992499997,
            -1.6629093229999443
          ],
          [
            -78.64922000599995,
            -1.6627345569999596
          ],
          [
            -78.64917289699997,
            -1.6626166709999741
          ],
          [
            -78.64913601399996,
            -1.6625380729999535
          ],
          [
            -78.64905198799994,
            -1.6623705279999463
          ],
          [
            -78.64880244332488,
            -1.6619020848567194
          ]
        ]
      }
    },
    {
      "type": "Feature",
      "properties": {
        "CORREDOR": "ANILLO_VIAL",
        "ESTADO": "CUBIERTO"
      },
      "geometry": {
        "type": "LineString",
        "coordinates": [
          [
            -78.64444408993744,
            -1.6625491476556622
          ],
          [
            -78.64390629399998,
            -1.6627925389999543
          ],
          [
            -78.64344795399995,
            -1.6629987089999567
          ],
          [
            -78.64296700599994,
            -1.6632151859999473
          ],
          [
            -78.64270185499998,
            -1.663345634999934
          ],
          [
            -78.64229070599998,
            -1.663547911999961
          ],
          [
            -78.64212601899999,
            -1.6636289349999624
          ],
          [
            -78.6419876681515,
            -1.6636991865416815
          ]
        ]
      }
    },
    {
      "type": "Feature",
      "properties": {
        "CORREDOR": "ANILLO_VIAL",
        "ESTADO": "CUBIERTO"
      },
      "geometry": {
        "type": "LineString",
        "coordinates": [
          [
            -78.63933355069952,
            -1.6651120778306723
          ],
          [
            -78.63931832199995,
            -1.6651252579999345
          ],
          [
            -78.63924365199995,
            -1.6651974849999724
          ],
          [
            -78.63917306199994,
            -1.665273754999929
          ],
          [
            -78.63908496799996,
            -1.665376849999964
          ],
          [
            -78.63900090099999,
            -1.6654832949999365
          ],
          [
            -78.63892098699995,
            -1.665592931999921
          ],
          [
            -78.63884534699997,
            -1.6657055969999384
          ],
          [
            -78.63871944299996,
            -1.6659263029999272
          ],
          [
            -78.63859736499995,
            -1.66614917699997
          ],
          [
            -78.63847915299993,
            -1.666374149999973
          ],
          [
            -78.63838026599996,
            -1.6666127909999828
          ],
          [
            -78.63818982999999,
            -1.6675953659999425
          ],
          [
            -78.63807323899994,
            -1.668196926999935
          ],
          [
            -78.63803384068311,
            -1.6683911281660884
          ]
        ]
      }
    },
    {
      "type": "Feature",
      "properties": {
        "CORREDOR": "ANILLO_VIAL",
        "ESTADO": "CUBIERTO"
      },
      "geometry": {
        "type": "LineString",
        "coordinates": [
          [
            -78.63778350752791,
            -1.6892176261543668
          ],
          [
            -78.63794902299998,
            -1.6891103639999223
          ],
          [
            -78.63862357799997,
            -1.688650311999936
          ],
          [
            -78.63930453199998,
            -1.6881871989999715
          ],
          [
            -78.63948713799995,
            -1.6880642999999464
          ],
          [
            -78.64017608399996,
            -1.68760061199992
          ],
          [
            -78.64076485977985,
            -1.6872060312070374
          ]
        ]
      }
    },
    {
      "type": "Feature",
      "properties": {
        "CORREDOR": "ANILLO_VIAL",
        "ESTADO": "CUBIERTO"
      },
      "geometry": {
        "type": "LineString",
        "coordinates": [
          [
            -78.65675966304985,
            -1.679480127049174
          ],
          [
            -78.65697103099996,
            -1.6792192339999616
          ],
          [
            -78.65698804899995,
            -1.6791982299999335
          ],
          [
            -78.65748288399999,
            -1.6785937209999617
          ],
          [
            -78.65790521899999,
            -1.6780798409999425
          ],
          [
            -78.65864875899996,
            -1.677231785999939
          ],
          [
            -78.65900032899998,
            -1.6768400199999225
          ],
          [
            -78.65917747299996,
            -1.6766377699999624
          ],
          [
            -78.65941370299998,
            -1.6763678049999198
          ],
          [
            -78.65959710499999,
            -1.6761680609999454
          ],
          [
            -78.65985107899996,
            -1.675891960999926
          ],
          [
            -78.65990297199994,
            -1.675833689999931
          ],
          [
            -78.66011939799995,
            -1.6755906589999594
          ],
          [
            -78.66021413199996,
            -1.6754842389999494
          ],
          [
            -78.66033328604216,
            -1.6753498439148593
          ]
        ]
      }
    },
    {
      "type": "Feature",
      "properties": {
        "CORREDOR": "ANILLO_VIAL",
        "ESTADO": "CUBIERTO"
      },
      "geometry": {
        "type": "LineString",
        "coordinates": [
          [
            -78.66229177950731,
            -1.6728701159759078
          ],
          [
            -78.66258122099998,
            -1.6724022509999383
          ],
          [
            -78.66264523299998,
            -1.6722993139999276
          ],
          [
            -78.66279697799996,
            -1.6721135799999662
          ],
          [
            -78.66292759599997,
            -1.6720114199999394
          ],
          [
            -78.66305259699999,
            -1.6719077619999376
          ],
          [
            -78.66306551999998,
            -1.6718970449999806
          ],
          [
            -78.66331316099996,
            -1.6716778629999647
          ],
          [
            -78.66361210299993,
            -1.671417154999975
          ],
          [
            -78.66395184799995,
            -1.671127729999967
          ],
          [
            -78.66467855599996,
            -1.670495036999961
          ],
          [
            -78.66484462812079,
            -1.6703512843063002
          ]
        ]
      }
    },
    {
      "type": "Feature",
      "properties": {
        "CORREDOR": "ANILLO_VIAL",
        "ESTADO": "CUBIERTO"
      },
      "geometry": {
        "type": "LineString",
        "coordinates": [
          [
            -78.66686502799996,
            -1.6656053129999575
          ],
          [
            -78.66676149199998,
            -1.6656943019999677
          ],
          [
            -78.66580243099997,
            -1.6654031079999727
          ],
          [
            -78.66576280299995,
            -1.6652820389999778
          ],
          [
            -78.66576233099995,
            -1.6652815819999698
          ],
          [
            -78.66576120199994,
            -1.6652805229999752
          ],
          [
            -78.66576072699996,
            -1.6652800789999582
          ],
          [
            -78.66575957599997,
            -1.6652790329999356
          ],
          [
            -78.66575909899996,
            -1.6652786019999404
          ],
          [
            -78.66575792599997,
            -1.665277571999971
          ],
          [
            -78.66575744699998,
            -1.6652771519999263
          ],
          [
            -78.66575625399997,
            -1.6652761379999697
          ],
          [
            -78.66575577299994,
            -1.665275728999976
          ],
          [
            -78.66575455799995,
            -1.665274729999961
          ],
          [
            -78.66575407499994,
            -1.6652743339999385
          ],
          [
            -78.66575283999998,
            -1.665273350999937
          ],
          [
            -78.66575235499994,
            -1.665272965999982
          ],
          [
            -78.66575109899998,
            -1.6652720009999487
          ],
          [
            -78.66575061299996,
            -1.665271627999968
          ],
          [
            -78.66574933699997,
            -1.6652706799999402
          ],
          [
            -78.66574884999994,
            -1.6652703179999568
          ],
          [
            -78.66574755299996,
            -1.6652693859999788
          ],
          [
            -78.66574706499995,
            -1.6652690369999792
          ],
          [
            -78.66574574899994,
            -1.6652681229999806
          ],
          [
            -78.66574526099998,
            -1.665267785999951
          ],
          [
            -78.66574392499996,
            -1.6652668899999334
          ],
          [
            -78.66574343599996,
            -1.6652665629999248
          ],
          [
            -78.66574207999997,
            -1.665265685999933
          ],
          [
            -78.66574159199996,
            -1.665265370999976
          ],
          [
            -78.66574021699995,
            -1.6652645139999498
          ],
          [
            -78.66573972799995,
            -1.6652642099999717
          ],
          [
            -78.66573833399997,
            -1.6652633709999745
          ],
          [
            -78.66573784699995,
            -1.6652630789999436
          ],
          [
            -78.66573643399994,
            -1.6652622609999546
          ],
          [
            -78.66573594699997,
            -1.6652619789999747
          ],
          [
            -78.66573451499994,
            -1.6652611809999507
          ],
          [
            -78.66573402999995,
            -1.6652609099999742
          ],
          [
            -78.66573258099999,
            -1.6652601339999284
          ],
          [
            -78.66573209499995,
            -1.6652598739999653
          ],
          [
            -78.66573062699996,
            -1.665259116999941
          ],
          [
            -78.66573014399995,
            -1.665258867999962
          ],
          [
            -78.66572865899997,
            -1.6652581329999487
          ],
          [
            -78.66572817699995,
            -1.6652578949999597
          ],
          [
            -78.66572667599996,
            -1.665257181999955
          ],
          [
            -78.66572619499993,
            -1.6652569539999795
          ],
          [
            -78.66572467599997,
            -1.6652562629999383
          ],
          [
            -78.66572419699997,
            -1.6652560459999668
          ],
          [
            -78.66572266199995,
            -1.6652553789999707
          ],
          [
            -78.66572218499994,
            -1.6652551709999484
          ],
          [
            -78.66572063399997,
            -1.6652545259999598
          ],
          [
            -78.66561378399996,
            -1.6652567399999576
          ],
          [
            -78.66561359499997,
            -1.6652568249999775
          ],
          [
            -78.66561179299998,
            -1.6652576749999652
          ],
          [
            -78.66561160999998,
            -1.6652577609999573
          ],
          [
            -78.66560981699996,
            -1.6652586429999616
          ],
          [
            -78.66560964099995,
            -1.665258729999941
          ],
          [
            -78.66560785699994,
            -1.6652596439999452
          ],
          [
            -78.66560768799997,
            -1.6652597309999337
          ],
          [
            -78.66560591399997,
            -1.6652606769999345
          ],
          [
            -78.66560575099999,
            -1.6652607639999197
          ],
          [
            -78.66560398699994,
            -1.6652617409999408
          ],
          [
            -78.66560383099994,
            -1.6652618269999424
          ],
          [
            -78.66560207799995,
            -1.6652628369999498
          ],
          [
            -78.66560192799994,
            -1.6652629229999483
          ],
          [
            -78.66560018599995,
            -1.6652639639999556
          ],
          [
            -78.66560004399997,
            -1.6652640489999673
          ],
          [
            -78.66559831399996,
            -1.6652651229999238
          ],
          [
            -78.66559817899997,
            -1.665265206999952
          ],
          [
            -78.66559646099995,
            -1.6652663109999286
          ],
          [
            -78.66559633099996,
            -1.6652663939999641
          ],
          [
            -78.66559462699996,
            -1.6652675299999402
          ],
          [
            -78.66559450399996,
            -1.6652676119999752
          ],
          [
            -78.66559281299999,
            -1.6652687789999783
          ],
          [
            -78.66559269699997,
            -1.6652688589999864
          ],
          [
            -78.66559101899998,
            -1.6652700579999757
          ],
          [
            -78.66559090899995,
            -1.6652701359999436
          ],
          [
            -78.66558924699996,
            -1.665271364999973
          ],
          [
            -78.66558914299998,
            -1.6652714419999444
          ],
          [
            -78.66558749599994,
            -1.6652727029999705
          ],
          [
            -78.66558739799996,
            -1.6652727769999254
          ],
          [
            -78.66558576599994,
            -1.6652740679999778
          ],
          [
            -78.66558567499999,
            -1.665274139999956
          ],
          [
            -78.66558405999996,
            -1.6652754619999548
          ],
          [
            -78.66558397399996,
            -1.6652755319999468
          ],
          [
            -78.66558237499999,
            -1.6652768839999865
          ],
          [
            -78.66558229599997,
            -1.665276950999959
          ],
          [
            -78.66558071599997,
            -1.6652783319999505
          ],
          [
            -78.66558064099996,
            -1.6652783969999565
          ],
          [
            -78.66557907699996,
            -1.6652798079999718
          ],
          [
            -78.66557900999999,
            -1.6652798699999547
          ],
          [
            -78.66557746599995,
            -1.6652813109999467
          ],
          [
            -78.66557740299999,
            -1.6652813699999371
          ],
          [
            -78.66557587799997,
            -1.6652828409999594
          ],
          [
            -78.66557581999996,
            -1.6652828959999435
          ],
          [
            -78.66557431399997,
            -1.6652843959999521
          ],
          [
            -78.66557426199996,
            -1.6652844469999772
          ],
          [
            -78.66557277599998,
            -1.665285975999953
          ],
          [
            -78.66557272999997,
            -1.6652860239999616
          ],
          [
            -78.66557126499998,
            -1.6652875809999745
          ],
          [
            -78.66557122199998,
            -1.6652876249999675
          ],
          [
            -78.66556977899995,
            -1.6652892109999569
          ],
          [
            -78.66556974199995,
            -1.6652892519999842
          ],
          [
            -78.66556831999998,
            -1.6652908649999674
          ],
          [
            -78.66556828699999,
            -1.665290901999924
          ],
          [
            -78.66556688799994,
            -1.6652925429999559
          ],
          [
            -78.66556685999996,
            -1.6652925759999566
          ],
          [
            -78.66556548299997,
            -1.665294244999922
          ],
          [
            -78.66556545999998,
            -1.6652942729999747
          ],
          [
            -78.66556410599998,
            -1.6652959689999436
          ],
          [
            -78.66556408699995,
            -1.6652959929999764
          ],
          [
            -78.66556274299995,
            -1.6652977329999274
          ],
          [
            -78.66556142699994,
            -1.6652994969999706
          ],
          [
            -78.66556013899998,
            -1.6653012829999687
          ],
          [
            -78.66555888099998,
            -1.665303088999963
          ],
          [
            -78.66555765199996,
            -1.6653049159999667
          ],
          [
            -78.66540364299993,
            -1.665209797999981
          ],
          [
            -78.66529123799995,
            -1.6651365099999687
          ],
          [
            -78.66519476399998,
            -1.6650654249999612
          ],
          [
            -78.66509626199996,
            -1.664978483999963
          ],
          [
            -78.66505505119477,
            -1.6649304102089248
          ]
        ]
      }
    },
    {
      "type": "Feature",
      "properties": {
        "CORREDOR": "ANILLO_VIAL",
        "ESTADO": "CUBIERTO"
      },
      "geometry": {
        "type": "LineString",
        "coordinates": [
          [
            -78.65375355620502,
            -1.658154095706653
          ],
          [
            -78.65373868699999,
            -1.6581854789999335
          ],
          [
            -78.65366841399998,
            -1.6583466089999752
          ],
          [
            -78.65360319299998,
            -1.6585098769999702
          ],
          [
            -78.65354308699995,
            -1.6586751199999397
          ],
          [
            -78.65348815799996,
            -1.658842176999947
          ],
          [
            -78.65343845599996,
            -1.6590108849999345
          ],
          [
            -78.65341679199997,
            -1.6590786319999344
          ],
          [
            -78.65315299999997,
            -1.6599035589999251
          ],
          [
            -78.65305539499997,
            -1.6601729379999581
          ],
          [
            -78.65289382199995,
            -1.6604934069999346
          ],
          [
            -78.65279957799999,
            -1.6606498309999427
          ],
          [
            -78.65268963299997,
            -1.6607950499999289
          ],
          [
            -78.65268118299997,
            -1.6608055359999407
          ],
          [
            -78.65255955099997,
            -1.6609564749999817
          ],
          [
            -78.65231487299997,
            -1.6611988459999387
          ],
          [
            -78.65213198953762,
            -1.6613554324431674
          ]
        ]
      }
    },
    {
      "type": "Feature",
      "properties": {
        "CORREDOR": "ANILLO_VIAL",
        "ESTADO": "CUBIERTO"
      },
      "geometry": {
        "type": "LineString",
        "coordinates": [
          [
            -78.64880244332488,
            -1.6619020848567194
          ],
          [
            -78.64879303199996,
            -1.661884417999951
          ],
          [
            -78.64838782999993,
            -1.661164199999967
          ],
          [
            -78.64815577899998,
            -1.6607524139999388
          ],
          [
            -78.64715270599999,
            -1.6612618119999614
          ],
          [
            -78.64650934099996,
            -1.6615897259999295
          ],
          [
            -78.64648632999996,
            -1.6616006939999575
          ],
          [
            -78.6455287795884,
            -1.6620570663433933
          ]
        ]
      }
    },
    {
      "type": "Feature",
      "properties": {
        "CORREDOR": "ANILLO_VIAL",
        "ESTADO": "CUBIERTO"
      },
      "geometry": {
        "type": "LineString",
        "coordinates": [
          [
            -78.641870852984,
            -1.6637585027161572
          ],
          [
            -78.64139895099999,
            -1.6639981239999357
          ],
          [
            -78.64115775599998,
            -1.6640657609999585
          ],
          [
            -78.64101571299994,
            -1.664170587999926
          ],
          [
            -78.64022551599999,
            -1.664568258999968
          ],
          [
            -78.63965308699994,
            -1.6648810059999797
          ],
          [
            -78.63956448599998,
            -1.6649349829999591
          ],
          [
            -78.639478985,
            -1.6649938059999245
          ],
          [
            -78.63939684699994,
            -1.6650572959999244
          ],
          [
            -78.63936629273269,
            -1.665083740180096
          ]
        ]
      }
    },
    {
      "type": "Feature",
      "properties": {
        "CORREDOR": "ANILLO_VIAL",
        "ESTADO": "CUBIERTO"
      },
      "geometry": {
        "type": "LineString",
        "coordinates": [
          [
            -78.63722191212273,
            -1.6703718009140955
          ],
          [
            -78.63707323999995,
            -1.6705359379999476
          ],
          [
            -78.63657059099995,
            -1.670958365999973
          ],
          [
            -78.63597102599994,
            -1.6713762359999567
          ],
          [
            -78.63575419399996,
            -1.6715203819999322
          ],
          [
            -78.63547823799996,
            -1.6716953479999657
          ],
          [
            -78.63529872499998,
            -1.6718150959999358
          ],
          [
            -78.63495296799994,
            -1.6720628509999684
          ],
          [
            -78.63464715866428,
            -1.6722897491617672
          ]
        ]
      }
    },
    {
      "type": "Feature",
      "properties": {
        "CORREDOR": "ANILLO_VIAL",
        "ESTADO": "CUBIERTO"
      },
      "geometry": {
        "type": "LineString",
        "coordinates": [
          [
            -78.63202575795141,
            -1.6742884824432955
          ],
          [
            -78.63186139399994,
            -1.6744123889999483
          ],
          [
            -78.63185124599994,
            -1.6744200389999293
          ],
          [
            -78.63140448468133,
            -1.6747758909921302
          ]
        ]
      }
    },
    {
      "type": "Feature",
      "properties": {
        "CORREDOR": "ANILLO_VIAL",
        "ESTADO": "CUBIERTO"
      },
      "geometry": {
        "type": "LineString",
        "coordinates": [
          [
            -78.63115727046504,
            -1.6749786322955842
          ],
          [
            -78.63103903999996,
            -1.6750860229999496
          ],
          [
            -78.63079732599994,
            -1.6753311409999612
          ],
          [
            -78.63058647499997,
            -1.6755911269999617
          ],
          [
            -78.63042334499994,
            -1.6758508179999616
          ],
          [
            -78.63035856499994,
            -1.6759617129999325
          ],
          [
            -78.63029815699997,
            -1.6760750779999407
          ],
          [
            -78.63024221499995,
            -1.6761907409999741
          ],
          [
            -78.63019082499994,
            -1.676308522999931
          ],
          [
            -78.63014406599996,
            -1.6764282439999638
          ],
          [
            -78.63014266599998,
            -1.6764320729999418
          ],
          [
            -78.63013896299998,
            -1.6764421979999666
          ],
          [
            -78.63013649799996,
            -1.6764492009999612
          ],
          [
            -78.63008535499995,
            -1.6766047029999456
          ],
          [
            -78.63004041099998,
            -1.6767621319999721
          ],
          [
            -78.63000173999997,
            -1.6769212379999807
          ],
          [
            -78.62996940099998,
            -1.6770817689999178
          ],
          [
            -78.62995265884724,
            -1.6771860775178997
          ]
        ]
      }
    },
    {
      "type": "Feature",
      "properties": {
        "CORREDOR": "ANILLO_VIAL",
        "ESTADO": "CUBIERTO"
      },
      "geometry": {
        "type": "LineString",
        "coordinates": [
          [
            -78.6299262759974,
            -1.678761000036209
          ],
          [
            -78.62993036899996,
            -1.6789224509999459
          ],
          [
            -78.62996816399995,
            -1.6795584389999556
          ],
          [
            -78.62999976899994,
            -1.6807339949999702
          ],
          [
            -78.63000795999994,
            -1.6809246839999359
          ],
          [
            -78.63006541399994,
            -1.6821057399999382
          ],
          [
            -78.63007605886307,
            -1.6823734324088653
          ]
        ]
      }
    },
    {
      "type": "Feature",
      "properties": {
        "CORREDOR": "ANILLO_VIAL",
        "ESTADO": "CUBIERTO"
      },
      "geometry": {
        "type": "LineString",
        "coordinates": [
          [
            -78.63015363252589,
            -1.6843692029965005
          ],
          [
            -78.63017387699995,
            -1.684912153999963
          ],
          [
            -78.63017630299998,
            -1.685065397999954
          ],
          [
            -78.63021691999995,
            -1.68542788599995
          ],
          [
            -78.63025767999996,
            -1.6856720649999413
          ],
          [
            -78.63029663299994,
            -1.685867414999954
          ],
          [
            -78.63029242599998,
            -1.6862598939999354
          ],
          [
            -78.63040019699997,
            -1.6863825889999482
          ],
          [
            -78.63043990399996,
            -1.686446525999935
          ],
          [
            -78.63046568299995,
            -1.6865042349999746
          ],
          [
            -78.63049544999996,
            -1.6865793889999798
          ],
          [
            -78.63058737999995,
            -1.6868665889999843
          ],
          [
            -78.63071938699994,
            -1.6873474679999216
          ],
          [
            -78.63077010399996,
            -1.6875329769999268
          ],
          [
            -78.63086183999997,
            -1.6878685159999725
          ],
          [
            -78.63087462169185,
            -1.687905641259719
          ]
        ]
      }
    },
    {
      "type": "Feature",
      "properties": {
        "CORREDOR": "ANILLO_VIAL",
        "ESTADO": "CUBIERTO"
      },
      "geometry": {
        "type": "LineString",
        "coordinates": [
          [
            -78.63188715922375,
            -1.6894018247632552
          ],
          [
            -78.63193645099994,
            -1.6894466179999843
          ],
          [
            -78.63207465799996,
            -1.6895479239999587
          ],
          [
            -78.63220733799994,
            -1.6896451799999557
          ],
          [
            -78.63245073899998,
            -1.689777885999944
          ],
          [
            -78.63266337999994,
            -1.6898823829999343
          ],
          [
            -78.63290403999997,
            -1.689967194999944
          ],
          [
            -78.63303771899996,
            -1.6900040579999436
          ],
          [
            -78.63315031999998,
            -1.6900351089999495
          ],
          [
            -78.63327469399997,
            -1.6900610129999403
          ],
          [
            -78.63328527199997,
            -1.6900629149999433
          ],
          [
            -78.63333830999996,
            -1.690072452999972
          ],
          [
            -78.63343021099996,
            -1.690088978999936
          ],
          [
            -78.63360857850034,
            -1.6901022303730544
          ]
        ]
      }
    },
    {
      "type": "Feature",
      "properties": {
        "CORREDOR": "ANILLO_VIAL",
        "ESTADO": "CUBIERTO"
      },
      "geometry": {
        "type": "LineString",
        "coordinates": [
          [
            -78.63421185119377,
            -1.6901470479682261
          ],
          [
            -78.63447844099994,
            -1.6901668529999294
          ],
          [
            -78.63482345999995,
            -1.6901894609999308
          ],
          [
            -78.63501147799997,
            -1.6901923169999655
          ],
          [
            -78.63505696799996,
            -1.6901941699999343
          ],
          [
            -78.63506578499994,
            -1.6901941799999352
          ],
          [
            -78.63508633099997,
            -1.6901942059999504
          ],
          [
            -78.63514017299997,
            -1.6901942719999217
          ],
          [
            -78.63516440399997,
            -1.6901943009999665
          ],
          [
            -78.63521701199994,
            -1.6901943659999534
          ],
          [
            -78.63534380399996,
            -1.6901875379999696
          ],
          [
            -78.63539491918193,
            -1.690183848725505
          ]
        ]
      }
    },
    {
      "type": "Feature",
      "properties": {
        "CORREDOR": "ANILLO_VIAL",
        "ESTADO": "CUBIERTO"
      },
      "geometry": {
        "type": "LineString",
        "coordinates": [
          [
            -78.64102186582119,
            -1.6870315050375486
          ],
          [
            -78.64149217599999,
            -1.6867105939999738
          ],
          [
            -78.64179841999999,
            -1.6865062249999623
          ],
          [
            -78.64202514599998,
            -1.686364309999935
          ],
          [
            -78.64218822999999,
            -1.686266939999946
          ],
          [
            -78.64232909899994,
            -1.6861916339999508
          ],
          [
            -78.64249015299998,
            -1.686116047999977
          ],
          [
            -78.64264701399998,
            -1.6860524529999386
          ],
          [
            -78.64289407599995,
            -1.6859762189999323
          ],
          [
            -78.64319336099999,
            -1.6859126389999792
          ],
          [
            -78.64347550399998,
            -1.6858798199999738
          ],
          [
            -78.64403681799996,
            -1.6858462859999517
          ],
          [
            -78.64440569161228,
            -1.6858242486451285
          ]
        ]
      }
    },
    {
      "type": "Feature",
      "properties": {
        "CORREDOR": "ANILLO_VIAL",
        "ESTADO": "CUBIERTO"
      },
      "geometry": {
        "type": "LineString",
        "coordinates": [
          [
            -78.64570262969389,
            -1.6857472418951693
          ],
          [
            -78.64598148799996,
            -1.6857308299999572
          ],
          [
            -78.64692906799996,
            -1.6856813869999394
          ],
          [
            -78.64732222499998,
            -1.6856606219999468
          ],
          [
            -78.64749724899997,
            -1.6856508349999335
          ],
          [
            -78.64784258099996,
            -1.685631637999954
          ],
          [
            -78.64827956399995,
            -1.6856077329999248
          ],
          [
            -78.64872649799997,
            -1.6855832829999733
          ],
          [
            -78.64872948582486,
            -1.6855831195696525
          ]
        ]
      }
    },
    {
      "type": "Feature",
      "properties": {
        "CORREDOR": "ANILLO_VIAL",
        "ESTADO": "CUBIERTO"
      },
      "geometry": {
        "type": "LineString",
        "coordinates": [
          [
            -78.6487338410694,
            -1.685582881343177
          ],
          [
            -78.64885929799993,
            -1.6855760189999445
          ],
          [
            -78.64889687499993,
            -1.685573962999963
          ],
          [
            -78.6492903786439,
            -1.685551971215299
          ]
        ]
      }
    },
    {
      "type": "Feature",
      "properties": {
        "CORREDOR": "ANILLO_VIAL",
        "ESTADO": "CUBIERTO"
      },
      "geometry": {
        "type": "LineString",
        "coordinates": [
          [
            -78.64943304652238,
            -1.685543465259895
          ],
          [
            -78.64993458199996,
            -1.6855132869999403
          ],
          [
            -78.65010514299996,
            -1.6854999929999435
          ],
          [
            -78.65027512399996,
            -1.6854805859999304
          ],
          [
            -78.65044430799998,
            -1.685455090999939
          ],
          [
            -78.65061248199999,
            -1.6854235419999617
          ],
          [
            -78.65077942999994,
            -1.685385976999946
          ],
          [
            -78.65093788999997,
            -1.6853442759999637
          ],
          [
            -78.65109473399997,
            -1.685296790999924
          ],
          [
            -78.65124975399993,
            -1.685243584999974
          ],
          [
            -78.65140274299995,
            -1.6851847279999705
          ],
          [
            -78.65155349899999,
            -1.685120297999966
          ],
          [
            -78.65170181999997,
            -1.6850503819999363
          ],
          [
            -78.65184751199996,
            -1.6849750709999358
          ],
          [
            -78.65199037699995,
            -1.6848944659999512
          ],
          [
            -78.65213022899997,
            -1.6848086749999434
          ],
          [
            -78.65222849944072,
            -1.6847429955399125
          ]
        ]
      }
    },
    {
      "type": "Feature",
      "properties": {
        "CORREDOR": "ANILLO_VIAL",
        "ESTADO": "CUBIERTO"
      },
      "geometry": {
        "type": "LineString",
        "coordinates": [
          [
            -78.65241020742371,
            -1.6846117350760381
          ],
          [
            -78.65248633899995,
            -1.68455320799995
          ],
          [
            -78.65259923499997,
            -1.6844603159999583
          ],
          [
            -78.65270901999997,
            -1.6843637199999641
          ],
          [
            -78.65272238899996,
            -1.6843515099999355
          ],
          [
            -78.6527790635954,
            -1.6842951207156667
          ]
        ]
      }
    },
    {
      "type": "Feature",
      "properties": {
        "CORREDOR": "ANILLO_VIAL",
        "ESTADO": "CUBIERTO"
      },
      "geometry": {
        "type": "LineString",
        "coordinates": [
          [
            -78.65475572539727,
            -1.681935630952961
          ],
          [
            -78.65478451880743,
            -1.6819005110665024
          ]
        ]
      }
    },
    {
      "type": "Feature",
      "properties": {
        "CORREDOR": "ANILLO_VIAL",
        "ESTADO": "CUBIERTO"
      },
      "geometry": {
        "type": "LineString",
        "coordinates": [
          [
            -78.65515685464314,
            -1.681446365339236
          ],
          [
            -78.65556199499999,
            -1.6809522059999717
          ],
          [
            -78.65579731499997,
            -1.6806670719999428
          ],
          [
            -78.65604058699995,
            -1.6803711199999682
          ],
          [
            -78.65632661301736,
            -1.6800159457150086
          ]
        ]
      }
    },
    {
      "type": "Feature",
      "properties": {
        "CORREDOR": "ANILLO_VIAL",
        "ESTADO": "CUBIERTO"
      },
      "geometry": {
        "type": "LineString",
        "coordinates": [
          [
            -78.66543135374526,
            -1.6698429265160841
          ],
          [
            -78.66552150299998,
            -1.6697620589999298
          ],
          [
            -78.66602907499998,
            -1.66931680099998
          ],
          [
            -78.66677769799998,
            -1.6686666739999452
          ],
          [
            -78.66730921099997,
            -1.6682097859999712
          ],
          [
            -78.66743644099995,
            -1.6681004179999341
          ],
          [
            -78.66764585399994,
            -1.6679191069999373
          ],
          [
            -78.66779842299997,
            -1.6677584119999602
          ],
          [
            -78.66794617299996,
            -1.6675508429999506
          ],
          [
            -78.66802841999998,
            -1.6673974249999344
          ],
          [
            -78.66804276254003,
            -1.667364026243417
          ]
        ]
      }
    },
    {
      "type": "Feature",
      "properties": {
        "CORREDOR": "ANILLO_VIAL",
        "ESTADO": "CUBIERTO"
      },
      "geometry": {
        "type": "LineString",
        "coordinates": [
          [
            -78.66821430650106,
            -1.6668031997050974
          ],
          [
            -78.66822858999996,
            -1.6667049129999254
          ],
          [
            -78.66856066774605,
            -1.664419778479676
          ]
        ]
      }
    },
    {
      "type": "Feature",
      "properties": {
        "CORREDOR": "ANILLO_VIAL",
        "ESTADO": "CUBIERTO"
      },
      "geometry": {
        "type": "LineString",
        "coordinates": [
          [
            -78.66853184177185,
            -1.664377084580172
          ],
          [
            -78.66675445999994,
            -1.6657054099999362
          ]
        ]
      }
    },
    {
      "type": "Feature",
      "properties": {
        "CORREDOR": "ANILLO_VIAL",
        "ESTADO": "CUBIERTO"
      },
      "geometry": {
        "type": "LineString",
        "coordinates": [
          [
            -78.6455287795884,
            -1.6620570663433933
          ],
          [
            -78.64547966399994,
            -1.6620804749999212
          ],
          [
            -78.64444408993744,
            -1.6625491476556622
          ]
        ]
      }
    },
    {
      "type": "Feature",
      "properties": {
        "CORREDOR": "ANILLO_VIAL",
        "ESTADO": "CUBIERTO"
      },
      "geometry": {
        "type": "LineString",
        "coordinates": [
          [
            -78.6419876681515,
            -1.6636991865416815
          ],
          [
            -78.641870852984,
            -1.6637585027161572
          ]
        ]
      }
    },
    {
      "type": "Feature",
      "properties": {
        "CORREDOR": "ANILLO_VIAL",
        "ESTADO": "CUBIERTO"
      },
      "geometry": {
        "type": "LineString",
        "coordinates": [
          [
            -78.6342609509636,
            -1.6725828480807199
          ],
          [
            -78.63401527999997,
            -1.6727717349999776
          ],
          [
            -78.63350729699994,
            -1.6731604819999584
          ],
          [
            -78.63287036899999,
            -1.6736472309999553
          ],
          [
            -78.63236753499996,
            -1.6740308319999695
          ],
          [
            -78.63202575795141,
            -1.6742884824432955
          ]
        ]
      }
    },
    {
      "type": "Feature",
      "properties": {
        "CORREDOR": "ANILLO_VIAL",
        "ESTADO": "CUBIERTO"
      },
      "geometry": {
        "type": "LineString",
        "coordinates": [
          [
            -78.62995265884724,
            -1.6771860775178997
          ],
          [
            -78.62994344699996,
            -1.6772434699999565
          ],
          [
            -78.62992391899996,
            -1.6774060829999353
          ],
          [
            -78.62991084699996,
            -1.6775693509999379
          ],
          [
            -78.62990777099998,
            -1.677628335999942
          ],
          [
            -78.62990448799997,
            -1.6777273679999711
          ],
          [
            -78.62990357999996,
            -1.6778327599999376
          ],
          [
            -78.62990422199994,
            -1.677891078999948
          ],
          [
            -78.62991351596398,
            -1.6782576773594822
          ]
        ]
      }
    },
    {
      "type": "Feature",
      "properties": {
        "CORREDOR": "ANILLO_VIAL",
        "ESTADO": "CUBIERTO"
      },
      "geometry": {
        "type": "LineString",
        "coordinates": [
          [
            -78.63088817637195,
            -1.6879450117162142
          ],
          [
            -78.63093416199996,
            -1.688078579999969
          ],
          [
            -78.63101602799998,
            -1.6882617029999587
          ],
          [
            -78.63116635699998,
            -1.6885415649999804
          ],
          [
            -78.63139560199994,
            -1.688880415999963
          ],
          [
            -78.63172763799997,
            -1.6892568619999826
          ],
          [
            -78.63188715922375,
            -1.6894018247632552
          ]
        ]
      }
    },
    {
      "type": "Feature",
      "properties": {
        "CORREDOR": "ANILLO_VIAL",
        "ESTADO": "CUBIERTO"
      },
      "geometry": {
        "type": "LineString",
        "coordinates": [
          [
            -78.63539491918193,
            -1.690183848725505
          ],
          [
            -78.63544045699996,
            -1.690180561999974
          ],
          [
            -78.63544601999996,
            -1.6901797779999634
          ],
          [
            -78.63558455099997,
            -1.690160253999982
          ],
          [
            -78.63559853899994,
            -1.6901582819999634
          ],
          [
            -78.63576602899998,
            -1.6901376699999633
          ],
          [
            -78.63576795399996,
            -1.690137432999965
          ],
          [
            -78.63577413499996,
            -1.6901364259999743
          ],
          [
            -78.63591538499998,
            -1.6901147349999568
          ],
          [
            -78.63597039599995,
            -1.6900998879999647
          ],
          [
            -78.63631025299998,
            -1.6900081649999303
          ],
          [
            -78.63660999699994,
            -1.6899011149999486
          ],
          [
            -78.63661266199995,
            -1.6899001619999556
          ],
          [
            -78.63662051999995,
            -1.6898973559999593
          ],
          [
            -78.63664221499994,
            -1.689888251999943
          ],
          [
            -78.63688445199995,
            -1.6897715189999702
          ],
          [
            -78.63709876099995,
            -1.6896552199999577
          ],
          [
            -78.63729288399998,
            -1.6895355739999296
          ],
          [
            -78.63737105499996,
            -1.6894849159999725
          ],
          [
            -78.63739951499997,
            -1.68946647199993
          ],
          [
            -78.63764850187309,
            -1.6893051164160737
          ]
        ]
      }
    },
    {
      "type": "Feature",
      "properties": {
        "CORREDOR": "ANILLO_VIAL",
        "ESTADO": "CUBIERTO"
      },
      "geometry": {
        "type": "LineString",
        "coordinates": [
          [
            -78.6451418506902,
            -1.685780268585356
          ],
          [
            -78.64516748699998,
            -1.6857787369999562
          ],
          [
            -78.64570262969389,
            -1.6857472418951693
          ]
        ]
      }
    },
    {
      "type": "Feature",
      "properties": {
        "CORREDOR": "ANILLO_VIAL",
        "ESTADO": "CUBIERTO"
      },
      "geometry": {
        "type": "LineString",
        "coordinates": [
          [
            -78.6492903786439,
            -1.685551971215299
          ],
          [
            -78.64930872299999,
            -1.685550945999984
          ],
          [
            -78.64943304652238,
            -1.685543465259895
          ]
        ]
      }
    },
    {
      "type": "Feature",
      "properties": {
        "CORREDOR": "ANILLO_VIAL",
        "ESTADO": "CUBIERTO"
      },
      "geometry": {
        "type": "LineString",
        "coordinates": [
          [
            -78.6527790635954,
            -1.6842951207156667
          ],
          [
            -78.65284614499996,
            -1.6842283769999604
          ],
          [
            -78.65296658999995,
            -1.6841019619999509
          ],
          [
            -78.65308363799994,
            -1.6839723559999682
          ],
          [
            -78.65319720499997,
            -1.6838396519999668
          ],
          [
            -78.65364101199998,
            -1.683295766999956
          ],
          [
            -78.65370683799996,
            -1.683215998999967
          ],
          [
            -78.65415980599994,
            -1.6826670869999634
          ],
          [
            -78.65418040099996,
            -1.6826421299999748
          ],
          [
            -78.65450050399994,
            -1.6822469279999313
          ],
          [
            -78.65462579299998,
            -1.6820941119999544
          ],
          [
            -78.65475572539727,
            -1.681935630952961
          ]
        ]
      }
    },
    {
      "type": "Feature",
      "properties": {
        "CORREDOR": "ANILLO_VIAL",
        "ESTADO": "CUBIERTO"
      },
      "geometry": {
        "type": "LineString",
        "coordinates": [
          [
            -78.66033328604216,
            -1.6753498439148593
          ],
          [
            -78.66071724699998,
            -1.6749167699999201
          ],
          [
            -78.66119507899998,
            -1.6743908329999575
          ],
          [
            -78.66120848599996,
            -1.6743759769999493
          ],
          [
            -78.66171129699995,
            -1.6738188219999353
          ],
          [
            -78.66175987099996,
            -1.6737465289999645
          ],
          [
            -78.66176278399996,
            -1.6737417149999414
          ],
          [
            -78.66221689699995,
            -1.6729911589999262
          ],
          [
            -78.66228089861595,
            -1.6728877042783505
          ]
        ]
      }
    }
  ]
}