{
  "type": "FeatureCollection",
  "features": [
    {
      "type": "Feature",
      "properties": {
        "CORREDOR": "BOULEVARD_MACAJI_BELLAVISTA",
        "ESTADO": "CUBIERTO"
      },
      "geometry": {
        "type": "LineString",
        "coordinates": [
          [
            -78.66345621259109,
            -1.666552654011977
          ],
          [
            -78.66322607432654,
            -1.6666564352856883
          ],
          [
            -78.66294644879035,
            -1.666777250097304
          ],
          [
            -78.66290835797042,
            -1.6667895708676055
          ],
          [
            -78.66239267657731,
            -1.666956384819066
          ],
          [
            -78.66239101580447,
            -1.666952421651016
          ],
          [
            -78.66232374667025,
            -1.6669736369175518
          ],
          [
            -78.66179169717839,
            -1.6671414344124489
          ],
          [
            -78.6617773282095,
            -1.6671457924336455
          ],
          [
            -78.66176024539861,
            -1.667150976147729
          ],
          [
            -78.66045504621897,
            -1.6675469795409001
          ],
          [
            -78.66012474693738,
            -1.6676471936854185
          ]
        ]
      }
    },
    {
      "type": "Feature",
      "properties": {
        "CORREDOR": "BOULEVARD_MACAJI_BELLAVISTA",
        "ESTADO": "CUBIERTO"
      },
      "geometry": {
        "type": "LineString",
        "coordinates": [
          [
            -78.65848003755394,
            -1.668140079710204
          ],
          [
            -78.65842436918221,
            -1.6681561206800442
          ],
          [
            -78.6578416254014,
            -1.6683257826941342
          ],
          [
            -78.65775897905742,
            -1.6683517557864147
          ],
          [
            -78.65744097995923,
            -1.668451685734979
          ],
          [
            -78.6574166171322,
            -1.6684593429374963
          ],
          [
            -78.6573025216892,
            -1.6684911260393875
          ],
          [
            -78.6567485705797,
            -1.6686454518779
          ],
          [
            -78.65607380855221,
            -1.6688474621018832
          ],
          [
            -78.65602990132027,
            -1.668884066933341
          ],
          [
            -78.6560048832764,
            -1.668904926598316
          ],
          [
            -78.65606543966514,
            -1.6689903116469484
          ],
          [
            -78.6568134598098,
            -1.6687935654408008
          ],
          [
            -78.65685978599302,
            -1.6687813804245908
          ],
          [
            -78.65708829397063,
            -1.6687420933621662
          ],
          [
            -78.65720585200188,
            -1.6687098534281861
          ],
          [
            -78.65748013043049,
            -1.668634635275451
          ],
          [
            -78.65761007077997,
            -1.6686053001140495
          ],
          [
            -78.65763414622316,
            -1.6685998636055102
          ],
          [
            -78.65817524812226,
            -1.6684684908309662
          ],
          [
            -78.65838783410537,
            -1.6684168796861947
          ],
          [
            -78.65853456200169,
            -1.668381891917666
          ]
        ]
      }
    },
    {
      "type": "Feature",
      "properties": {
        "CORREDOR": "BOULEVARD_MACAJI_BELLAVISTA",
        "ESTADO": "CUBIERTO"
      },
      "geometry": {
        "type": "LineString",
        "coordinates": [
          [
            -78.66018599209754,
            -1.667975289910306
          ],
          [
            -78.66066805232352,
            -1.6678378946603039
          ],
          [
            -78.66189241401509,
            -1.6674889275125824
          ],
          [
            -78.66190691477378,
            -1.6674847938350572
          ],
          [
            -78.6619183683693,
            -1.6674815288419622
          ],
          [
            -78.6630369891226,
            -1.6671194195286243
          ],
          [
            -78.66307305981566,
            -1.6671077408789603
          ],
          [
            -78.66363154811525,
            -1.666950666517358
          ]
        ]
      }
    },
    {
      "type": "Feature",
      "properties": {
        "CORREDOR": "BOULEVARD_MACAJI_BELLAVISTA",
        "ESTADO": "CUBIERTO"
      },
      "geometry": {
        "type": "LineString",
        "coordinates": [
          [
            -78.65601493845074,
            -1.668920402753821
          ],
          [
            -78.65523564984252,
            -1.6691921154123794
          ],
          [
            -78.65425824480509,
            -1.6699469676954963
          ],
          [
            -78.65374407691408,
            -1.6704146986728965
          ],
          [
            -78.65374396450483,
            -1.6704148015893816
          ],
          [
            -78.65374334940232,
            -1.6704153640180264
          ],
          [
            -78.65311898315117,
            -1.6709863986315932
          ],
          [
            -78.65311874214393,
            -1.6709866207161386
          ],
          [
            -78.65267419152703,
            -1.6713910459515788
          ],
          [
            -78.65258829789146,
            -1.671469186725416
          ],
          [
            -78.65254195001283,
            -1.6715011664157162
          ],
          [
            -78.65253801853906,
            -1.6715038789904706
          ],
          [
            -78.65198879565087,
            -1.671993591140784
          ],
          [
            -78.65197632783837,
            -1.6720044697547853
          ],
          [
            -78.65197622199538,
            -1.6720043385531271
          ],
          [
            -78.65196984030081,
            -1.6719961934200018
          ],
          [
            -78.65196963077666,
            -1.6719963793835515
          ],
          [
            -78.6514288719443,
            -1.6724720491162648
          ],
          [
            -78.65139466811438,
            -1.6725010006186942
          ],
          [
            -78.65089811147845,
            -1.67292461884374
          ],
          [
            -78.65086664511144,
            -1.6729630742279489
          ],
          [
            -78.65083806826915,
            -1.6729980013228818
          ],
          [
            -78.65037518521777,
            -1.6734063140497613
          ],
          [
            -78.65031777158883,
            -1.6734568095819684
          ],
          [
            -78.64976745955119,
            -1.6739408368479354
          ]
        ]
      }
    },
    {
      "type": "Feature",
      "properties": {
        "CORREDOR": "BOULEVARD_MACAJI_BELLAVISTA",
        "ESTADO": "CUBIERTO"
      },
      "geometry": {
        "type": "LineString",
        "coordinates": [
          [
            -78.64223310767633,
            -1.6648408928831897
          ],
          [
            -78.64245676048951,
            -1.6650177279821128
          ],
          [
            -78.64245949238023,
            -1.6650213380474959
          ],
          [
            -78.64270271503477,
            -1.6653427045177185
          ],
          [
            -78.64290205346805,
            -1.6656060856052817
          ],
          [
            -78.64339432512472,
            -1.6661794654989999
          ],
          [
            -78.6434030695259,
            -1.6661896509424472
          ],
          [
            -78.64343467180562,
            -1.666230021647092
          ],
          [
            -78.64343468974558,
            -1.666230043363604
          ],
          [
            -78.64389386737764,
            -1.6668166103750006
          ],
          [
            -78.64407213734928,
            -1.6670378601712985
          ],
          [
            -78.64423750001936,
            -1.6672430926457775
          ],
          [
            -78.64427913355209,
            -1.6672947622526821
          ],
          [
            -78.64453941273419,
            -1.6676132237638992
          ]
        ]
      }
    },
    {
      "type": "Feature",
      "properties": {
        "CORREDOR": "BOULEVARD_MACAJI_BELLAVISTA",
        "ESTADO": "CUBIERTO"
      },
      "geometry": {
        "type": "LineString",
        "coordinates": [
          [
            -78.64585517215347,
            -1.6692271981977589
          ],
          [
            -78.64595919591576,
            -1.6693506408512981
          ]
        ]
      }
    },
    {
      "type": "Feature",
      "properties": {
        "CORREDOR": "BOULEVARD_MACAJI_BELLAVISTA",
        "ESTADO": "CUBIERTO"
      },
      "geometry": {
        "type": "LineString",
        "coordinates": [
          [
            -78.6459591977102,
            -1.6693506426613702
          ],
          [
            -78.64644697180357,
            -1.6699348356838633
          ],
          [
            -78.64690495507743,
            -1.6704798463211619
          ],
          [
            -78.64739252328442,
            -1.6710592613302524
          ],
          [
            -78.64764702233575,
            -1.671380635736137
          ],
          [
            -78.64786428029308,
            -1.671654983029592
          ],
          [
            -78.64834000073758,
            -1.6722099991507051
          ],
          [
            -78.64880451288127,
            -1.672788806848401
          ],
          [
            -78.64880451332115,
            -1.6727888073660795
          ]
        ]
      }
    },
    {
      "type": "Feature",
      "properties": {
        "CORREDOR": "BOULEVARD_MACAJI_BELLAVISTA",
        "ESTADO": "CUBIERTO"
      },
      "geometry": {
        "type": "LineString",
        "coordinates": [
          [
            -78.64880451332115,
            -1.6727888073660795
          ],
          [
            -78.64928177268148,
            -1.6733504730659154
          ],
          [
            -78.64929208502602,
            -1.673362609396624
          ],
          [
            -78.64932808390638,
            -1.6734088613719333
          ],
          [
            -78.64976046882002,
            -1.6739643720196185
          ],
          [
            -78.65023261646213,
            -1.6745240872986504
          ],
          [
            -78.65035356210265,
            -1.6746681507627559
          ],
          [
            -78.65071221000669,
            -1.6750953499639432
          ],
          [
            -78.65092686469346,
            -1.6753560844312623
          ]
        ]
      }
    },
    {
      "type": "Feature",
      "properties": {
        "CORREDOR": "BOULEVARD_MACAJI_BELLAVISTA",
        "ESTADO": "CUBIERTO"
      },
      "geometry": {
        "type": "LineString",
        "coordinates": [
          [
            -78.64126562490735,
            -1.67936382321446
          ],
          [
            -78.64183534333546,
            -1.6788638505895026
          ],
          [
            -78.6418480046228,
            -1.6788527382933647
          ],
          [
            -78.64185187494706,
            -1.6788493423190138
          ],
          [
            -78.64185533803557,
            -1.6788462797530594
          ]
        ]
      }
    },
    {
      "type": "Feature",
      "properties": {
        "CORREDOR": "BOULEVARD_MACAJI_BELLAVISTA",
        "ESTADO": "CUBIERTO"
      },
      "geometry": {
        "type": "LineString",
        "coordinates": [
          [
            -78.64185533803557,
            -1.6788462797530594
          ],
          [
            -78.6425484256086,
            -1.6782333504399467
          ],
          [
            -78.64257455590138,
            -1.6782103475523855
          ]
        ]
      }
    },
    {
      "type": "Feature",
      "properties": {
        "CORREDOR": "BOULEVARD_MACAJI_BELLAVISTA",
        "ESTADO": "CUBIERTO"
      },
      "geometry": {
        "type": "LineString",
        "coordinates": [
          [
            -78.64350074465143,
            -1.6773950086690501
          ],
          [
            -78.64428371252967,
            -1.6767057477992358
          ],
          [
            -78.64485871206558,
            -1.6762204777076821
          ],
          [
            -78.64541996337496,
            -1.6757371501820189
          ],
          [
            -78.64543114516516,
            -1.6757275203103066
          ],
          [
            -78.64655174872912,
            -1.6747573575386119
          ],
          [
            -78.64675414559558,
            -1.6745891642846298
          ],
          [
            -78.64712799348318,
            -1.674271210735301
          ],
          [
            -78.6476658129083,
            -1.6737938314473924
          ],
          [
            -78.64769007910758,
            -1.6737722561654866
          ],
          [
            -78.64824689943903,
            -1.6732771997702913
          ],
          [
            -78.64880451288019,
            -1.6727888077523558
          ],
          [
            -78.64880451332115,
            -1.6727888073660795
          ]
        ]
      }
    },
    {
      "type": "Feature",
      "properties": {
        "CORREDOR": "BOULEVARD_MACAJI_BELLAVISTA",
        "ESTADO": "CUBIERTO"
      },
      "geometry": {
        "type": "LineString",
        "coordinates": [
          [
            -78.64880451332115,
            -1.6727888073660795
          ],
          [
            -78.64935967218142,
            -1.6723024913262534
          ],
          [
            -78.6493906003842,
            -1.6722753990069175
          ],
          [
            -78.64943900043697,
            -1.6722332000005795
          ],
          [
            -78.64993019281275,
            -1.6718027455668896
          ],
          [
            -78.6504874650932,
            -1.6713143831038844
          ],
          [
            -78.65103701275024,
            -1.6708327895833557
          ],
          [
            -78.65103036870852,
            -1.6708246866283047
          ],
          [
            -78.65159631422915,
            -1.6703463665526153
          ],
          [
            -78.65159456334925,
            -1.6703441840949032
          ],
          [
            -78.65167001336434,
            -1.6702780634002785
          ],
          [
            -78.65215215599244,
            -1.6698555392330603
          ],
          [
            -78.65221063299005,
            -1.6698042935171185
          ],
          [
            -78.6524190027987,
            -1.669621689981112
          ],
          [
            -78.65243544523632,
            -1.669607280727093
          ],
          [
            -78.6527734517164,
            -1.6693110685304413
          ],
          [
            -78.6528017855756,
            -1.6692862391354306
          ],
          [
            -78.65331873162486,
            -1.6688332154700567
          ],
          [
            -78.65365189266757,
            -1.6685489707963672
          ],
          [
            -78.65393143133156,
            -1.6683104743381734
          ],
          [
            -78.65393198705303,
            -1.668309989577887
          ],
          [
            -78.653935783581,
            -1.6683066802119093
          ],
          [
            -78.65433071687,
            -1.6679624094012606
          ],
          [
            -78.654331039692,
            -1.6679621277525292
          ],
          [
            -78.65483366571186,
            -1.6674899169967128
          ],
          [
            -78.65484134301785,
            -1.6675001418795243
          ],
          [
            -78.65487644294406,
            -1.667468365409573
          ],
          [
            -78.65488479977007,
            -1.6674607993244386
          ],
          [
            -78.65490938649381,
            -1.6674369813830008
          ],
          [
            -78.6549295997854,
            -1.66741740049051
          ],
          [
            -78.65538040567348,
            -1.6670247661621718
          ],
          [
            -78.65540491220538,
            -1.667003422247421
          ],
          [
            -78.65595297879969,
            -1.6665260761915912
          ],
          [
            -78.65596396370763,
            -1.6665165082490507
          ],
          [
            -78.65653051454092,
            -1.6660230335760338
          ],
          [
            -78.65654634535542,
            -1.666009244492249
          ],
          [
            -78.656555378153,
            -1.6660012868713252
          ],
          [
            -78.65663343053232,
            -1.6659325211159013
          ]
        ]
      }
    },
    {
      "type": "Feature",
      "properties": {
        "CORREDOR": "BOULEVARD_MACAJI_BELLAVISTA",
        "ESTADO": "CUBIERTO"
      },
      "geometry": {
        "type": "LineString",
        "coordinates": [
          [
            -78.65710987393577,
            -1.665512764334647
          ],
          [
            -78.65828592450374,
            -1.6644766363961663
          ],
          [
            -78.658289130815,
            -1.6644801964245726
          ]
        ]
      }
    },
    {
      "type": "Feature",
      "properties": {
        "CORREDOR": "BOULEVARD_MACAJI_BELLAVISTA",
        "ESTADO": "CUBIERTO"
      },
      "geometry": {
        "type": "LineString",
        "coordinates": [
          [
            -78.6423445896625,
            -1.6794157360457025
          ],
          [
            -78.64185533803557,
            -1.6788462797530594
          ]
        ]
      }
    },
    {
      "type": "Feature",
      "properties": {
        "CORREDOR": "BOULEVARD_MACAJI_BELLAVISTA",
        "ESTADO": "CUBIERTO"
      },
      "geometry": {
        "type": "LineString",
        "coordinates": [
          [
            -78.64185533803557,
            -1.6788462797530594
          ],
          [
            -78.6418531787671,
            -1.67884376650846
          ],
          [
            -78.64142925891086,
            -1.6783472218775441
          ],
          [
            -78.64140914140742,
            -1.6783219491366002
          ],
          [
            -78.64136636111729,
            -1.678270257065633
          ],
          [
            -78.64090744520419,
            -1.6777157548357837
          ],
          [
            -78.64090387337974,
            -1.677711438644818
          ],
          [
            -78.64083620659568,
            -1.6776294509505698
          ]
        ]
      }
    },
    {
      "type": "Feature",
      "properties": {
        "CORREDOR": "BOULEVARD_MACAJI_BELLAVISTA",
        "ESTADO": "CUBIERTO"
      },
      "geometry": {
        "type": "LineString",
        "coordinates": [
          [
            -78.66677629360314,
            -1.665828474924947
          ],
          [
            -78.6667529765066,
            -1.6658306320272047
          ],
          [
            -78.6667310485401,
            -1.6658286732023604
          ],
          [
            -78.66670978799499,
            -1.6658229139798093
          ],
          [
            -78.66668984324193,
            -1.6658135277908401
          ],
          [
            -78.66667182479405,
            -1.6658007974018898
          ],
          [
            -78.66665627566415,
            -1.6657851139752822
          ],
          [
            -78.66664366870157,
            -1.6657669499469574
          ],
          [
            -78.66663438862636,
            -1.665746859004976
          ],
          [
            -78.66662871588747,
            -1.6657254525671414
          ],
          [
            -78.6666285094007,
            -1.6657230586090828
          ],
          [
            -78.66662831184455,
            -1.6657229987116027
          ],
          [
            -78.66628845318317,
            -1.6656193584594337
          ],
          [
            -78.66597844079469,
            -1.665524819687758
          ],
          [
            -78.66586716939872,
            -1.6654908885268522
          ],
          [
            -78.66576844466556,
            -1.6654691117256004
          ],
          [
            -78.66574468301177,
            -1.665463569184655
          ],
          [
            -78.66573808311512,
            -1.665468206813832
          ],
          [
            -78.66571909242671,
            -1.6654770918849346
          ],
          [
            -78.66569885447066,
            -1.6654825223063758
          ],
          [
            -78.66567798747299,
            -1.6654843333889473
          ],
          [
            -78.6656571265954,
            -1.6654824725559172
          ],
          [
            -78.66563690148415,
            -1.6654769938923166
          ],
          [
            -78.66561792997548,
            -1.6654680635613357
          ],
          [
            -78.66560078845926,
            -1.6654559534410334
          ],
          [
            -78.66558599751671,
            -1.6654410320676385
          ],
          [
            -78.66558121498188,
            -1.6654341435449047
          ],
          [
            -78.66553511459566,
            -1.6654665446850663
          ],
          [
            -78.66538901690677,
            -1.6655692258806916
          ],
          [
            -78.66489103220998,
            -1.6658371287509708
          ],
          [
            -78.66465442585799,
            -1.6659644172296688
          ],
          [
            -78.66459237458928,
            -1.665996588651942
          ],
          [
            -78.66416627702503,
            -1.6662175234673628
          ],
          [
            -78.66402669177509,
            -1.6662898993933246
          ],
          [
            -78.66394526667479,
            -1.666332116035142
          ],
          [
            -78.6636722121488,
            -1.6664552485607658
          ],
          [
            -78.66345621259109,
            -1.666552654011977
          ]
        ]
      }
    },
    {
      "type": "Feature",
      "properties": {
        "CORREDOR": "BOULEVARD_MACAJI_BELLAVISTA",
        "ESTADO": "CUBIERTO"
      },
      "geometry": {
        "type": "LineString",
        "coordinates": [
          [
            -78.66012474693738,
            -1.6676471936854185
          ],
          [
            -78.65999519986218,
            -1.6676864987694524
          ],
          [
            -78.65988996373925,
            -1.6677202254255414
          ],
          [
            -78.65899326891116,
            -1.6679921891800642
          ],
          [
            -78.65873794641813,
            -1.668065762642334
          ],
          [
            -78.65848003755394,
            -1.668140079710204
          ]
        ]
      }
    },
    {
      "type": "Feature",
      "properties": {
        "CORREDOR": "BOULEVARD_MACAJI_BELLAVISTA",
        "ESTADO": "CUBIERTO"
      },
      "geometry": {
        "type": "LineString",
        "coordinates": [
          [
            -78.65853456200169,
            -1.668381891917666
          ],
          [
            -78.6589809353379,
            -1.668275452570144
          ],
          [
            -78.6599108107454,
            -1.6680537214031164
          ],
          [
            -78.659954619411,
            -1.6680412349394436
          ],
          [
            -78.66018599209754,
            -1.667975289910306
          ]
        ]
      }
    },
    {
      "type": "Feature",
      "properties": {
        "CORREDOR": "BOULEVARD_MACAJI_BELLAVISTA",
        "ESTADO": "CUBIERTO"
      },
      "geometry": {
        "type": "LineString",
        "coordinates": [
          [
            -78.66363154811525,
            -1.666950666517358
          ],
          [
            -78.66484645089962,
            -1.666608975265279
          ],
          [
            -78.66667147800146,
            -1.6658786785056423
          ],
          [
            -78.66677629360314,
            -1.665828474924947
          ]
        ]
      }
    },
    {
      "type": "Feature",
      "properties": {
        "CORREDOR": "BOULEVARD_MACAJI_BELLAVISTA",
        "ESTADO": "CUBIERTO"
      },
      "geometry": {
        "type": "LineString",
        "coordinates": [
          [
            -78.64124423777007,
            -1.6641332339818327
          ],
          [
            -78.6414763395219,
            -1.6642927303013628
          ],
          [
            -78.64197319797665,
            -1.6646341695319462
          ],
          [
            -78.6419970936395,
            -1.664654284149432
          ],
          [
            -78.64223310767633,
            -1.6648408928831897
          ]
        ]
      }
    },
    {
      "type": "Feature",
      "properties": {
        "CORREDOR": "BOULEVARD_MACAJI_BELLAVISTA",
        "ESTADO": "CUBIERTO"
      },
      "geometry": {
        "type": "LineString",
        "coordinates": [
          [
            -78.65128348597166,
            -1.6757901570521434
          ],
          [
            -78.6513430262545,
            -1.6758629944669303
          ],
          [
            -78.65163071602909,
            -1.6762149170434468
          ],
          [
            -78.65170050003964,
            -1.6763002989488862
          ],
          [
            -78.65207645034012,
            -1.6767555225001138
          ],
          [
            -78.65212195112034,
            -1.6768111438717543
          ],
          [
            -78.65255087989371,
            -1.6773354742835742
          ],
          [
            -78.6525777752905,
            -1.6773683530705883
          ],
          [
            -78.65300289487108,
            -1.6778946750680857
          ],
          [
            -78.65304119930404,
            -1.6779420997233658
          ],
          [
            -78.65321928991685,
            -1.6781415228646799
          ]
        ]
      }
    },
    {
      "type": "Feature",
      "properties": {
        "CORREDOR": "BOULEVARD_MACAJI_BELLAVISTA",
        "ESTADO": "CUBIERTO"
      },
      "geometry": {
        "type": "LineString",
        "coordinates": [
          [
            -78.65340621454583,
            -1.6783508384173267
          ],
          [
            -78.65350421153917,
            -1.678460574346321
          ],
          [
            -78.65358847289093,
            -1.678563642635479
          ]
        ]
      }
    },
    {
      "type": "Feature",
      "properties": {
        "CORREDOR": "BOULEVARD_MACAJI_BELLAVISTA",
        "ESTADO": "CUBIERTO"
      },
      "geometry": {
        "type": "LineString",
        "coordinates": [
          [
            -78.65373263940417,
            -1.6787399867806652
          ],
          [
            -78.65396711312927,
            -1.6790267945039565
          ],
          [
            -78.65450095194987,
            -1.6796833919466472
          ],
          [
            -78.65453339949475,
            -1.6797232994808458
          ],
          [
            -78.65488591070128,
            -1.6801647828948134
          ],
          [
            -78.65492999994957,
            -1.6802199995499816
          ],
          [
            -78.65521643631227,
            -1.68056014324642
          ],
          [
            -78.65552216880815,
            -1.6808968445673311
          ]
        ]
      }
    },
    {
      "type": "Feature",
      "properties": {
        "CORREDOR": "BOULEVARD_MACAJI_BELLAVISTA",
        "ESTADO": "CUBIERTO"
      },
      "geometry": {
        "type": "LineString",
        "coordinates": [
          [
            -78.64083620659568,
            -1.6776294509505698
          ],
          [
            -78.64046617776886,
            -1.677181109714094
          ],
          [
            -78.64040297343163,
            -1.6769207280953544
          ],
          [
            -78.64036817459399,
            -1.6768037315752897
          ],
          [
            -78.64030557263506,
            -1.6766838312767363
          ],
          [
            -78.64004853600257,
            -1.6763814456136674
          ],
          [
            -78.64004164688676,
            -1.6763733025877934
          ],
          [
            -78.63999555564611,
            -1.6763188248979732
          ]
        ]
      }
    },
    {
      "type": "Feature",
      "properties": {
        "CORREDOR": "BOULEVARD_MACAJI_BELLAVISTA",
        "ESTADO": "CUBIERTO"
      },
      "geometry": {
        "type": "LineString",
        "coordinates": [
          [
            -78.63984659370549,
            -1.6761427588554134
          ],
          [
            -78.63967103671432,
            -1.6759352587102332
          ],
          [
            -78.63966540792082,
            -1.6759285996978972
          ],
          [
            -78.6391746642134,
            -1.675348067675879
          ],
          [
            -78.63917139458141,
            -1.6753441993158584
          ],
          [
            -78.63894760852648,
            -1.6750806778891043
          ]
        ]
      }
    },
    {
      "type": "Feature",
      "properties": {
        "CORREDOR": "BOULEVARD_MACAJI_BELLAVISTA",
        "ESTADO": "CUBIERTO"
      },
      "geometry": {
        "type": "LineString",
        "coordinates": [
          [
            -78.63597102599094,
            -1.671376235663872
          ],
          [
            -78.63616199025896,
            -1.6716311467991765
          ],
          [
            -78.63642871446014,
            -1.6719871861047606
          ],
          [
            -78.63667452319287,
            -1.6723153069672594
          ],
          [
            -78.63691489484204,
            -1.6726560196805254
          ],
          [
            -78.6369260903184,
            -1.6726701719393198
          ],
          [
            -78.63719561860486,
            -1.6730108956835972
          ],
          [
            -78.63753004397154,
            -1.6734091137918006
          ]
        ]
      }
    },
    {
      "type": "Feature",
      "properties": {
        "CORREDOR": "BOULEVARD_MACAJI_BELLAVISTA",
        "ESTADO": "CUBIERTO"
      },
      "geometry": {
        "type": "LineString",
        "coordinates": [
          [
            -78.64453941273419,
            -1.6676132237638992
          ],
          [
            -78.64458997974128,
            -1.6676750944278316
          ],
          [
            -78.64460509571637,
            -1.667693589486236
          ],
          [
            -78.64498302386657,
            -1.668155998615536
          ],
          [
            -78.64546785627611,
            -1.6687675791871268
          ],
          [
            -78.64585517215347,
            -1.6692271981977589
          ]
        ]
      }
    },
    {
      "type": "Feature",
      "properties": {
        "CORREDOR": "BOULEVARD_MACAJI_BELLAVISTA",
        "ESTADO": "CUBIERTO"
      },
      "geometry": {
        "type": "LineString",
        "coordinates": [
          [
            -78.6509275173385,
            -1.6753568771791894
          ],
          [
            -78.65118006655702,
            -1.6756636409797347
          ],
          [
            -78.65128348597166,
            -1.6757901570521434
          ]
        ]
      }
    },
    {
      "type": "Feature",
      "properties": {
        "CORREDOR": "BOULEVARD_MACAJI_BELLAVISTA",
        "ESTADO": "CUBIERTO"
      },
      "geometry": {
        "type": "LineString",
        "coordinates": [
          [
            -78.65358847289093,
            -1.678563642635479
          ],
          [
            -78.65373263940417,
            -1.6787399867806652
          ]
        ]
      }
    },
    {
      "type": "Feature",
      "properties": {
        "CORREDOR": "BOULEVARD_MACAJI_BELLAVISTA",
        "ESTADO": "CUBIERTO"
      },
      "geometry": {
        "type": "LineString",
        "coordinates": [
          [
            -78.64257455590138,
            -1.6782103475523855
          ],
          [
            -78.64336873762184,
            -1.677511216712223
          ]
        ]
      }
    },
    {
      "type": "Feature",
      "properties": {
        "CORREDOR": "BOULEVARD_MACAJI_BELLAVISTA",
        "ESTADO": "CUBIERTO"
      },
      "geometry": {
        "type": "LineString",
        "coordinates": [
          [
            -78.63894760852648,
            -1.6750806778891043
          ],
          [
            -78.63868152880416,
            -1.674767353152004
          ]
        ]
      }
    },
    {
      "type": "Feature",
      "properties": {
        "CORREDOR": "BOULEVARD_MACAJI_BELLAVISTA",
        "ESTADO": "CUBIERTO"
      },
      "geometry": {
        "type": "LineString",
        "coordinates": [
          [
            -78.63868152880416,
            -1.674767353152004
          ],
          [
            -78.6386814642184,
            -1.674767277141742
          ]
        ]
      }
    },
    {
      "type": "Feature",
      "properties": {
        "CORREDOR": "BOULEVARD_MACAJI_BELLAVISTA",
        "ESTADO": "CUBIERTO"
      },
      "geometry": {
        "type": "LineString",
        "coordinates": [
          [
            -78.63753004397154,
            -1.6734091137918006
          ],
          [
            -78.6376770692125,
            -1.6735841845860395
          ],
          [
            -78.63818009366454,
            -1.6741631930109915
          ],
          [
            -78.6386830907083,
            -1.6747660370849209
          ],
          [
            -78.63868152880416,
            -1.674767353152004
          ]
        ]
      }
    }
  ]
}