{
  "type": "FeatureCollection",
  "features": [
    {
      "type": "Feature",
      "properties": {
        "CORREDOR": "CICLOVIAS",
        "ESTADO": "CUBIERTO"
      },
      "geometry": {
        "type": "LineString",
        "coordinates": [
          [
            -78.65186773796498,
            -1.6670304482635379
          ],
          [
            -78.64930461784868,
            -1.6692979459666677
          ]
        ]
      }
    },
    {
      "type": "Feature",
      "properties": {
        "CORREDOR": "CICLOVIAS",
        "ESTADO": "CUBIERTO"
      },
      "geometry": {
        "type": "LineString",
        "coordinates": [
          [
            -78.6490824680795,
            -1.6694944729074905
          ],
          [
            -78.6479506719593,
            -1.6704957254145922
          ],
          [
            -78.64559027640901,
            -1.6726028642879007
          ]
        ]
      }
    },
    {
      "type": "Feature",
      "properties": {
        "CORREDOR": "CICLOVIAS",
        "ESTADO": "CUBIERTO"
      },
      "geometry": {
        "type": "LineString",
        "coordinates": [
          [
            -78.64528783036668,
            -1.672872858635096
          ],
          [
            -78.64175851233885,
            -1.6760234729830987
          ],
          [
            -78.64164872060498,
            -1.6761175983161047
          ]
        ]
      }
    },
    {
      "type": "Feature",
      "properties": {
        "CORREDOR": "CICLOVIAS",
        "ESTADO": "CUBIERTO"
      },
      "geometry": {
        "type": "LineString",
        "coordinates": [
          [
            -78.65935412962136,
            -1.676318609024457
          ],
          [
            -78.65936048003348,
            -1.676254088933707
          ],
          [
            -78.65924807092098,
            -1.6760960499927164
          ],
          [
            -78.65839197314044,
            -1.6750027891897858
          ]
        ]
      }
    },
    {
      "type": "Feature",
      "properties": {
        "CORREDOR": "CICLOVIAS",
        "ESTADO": "CUBIERTO"
      },
      "geometry": {
        "type": "LineString",
        "coordinates": [
          [
            -78.657228144867,
            -1.6735589922575425
          ],
          [
            -78.65689590840948,
            -1.6731512841550236
          ],
          [
            -78.65437186814651,
            -1.6699965590342032
          ],
          [
            -78.65291552508089,
            -1.668216880731826
          ],
          [
            -78.65173505792569,
            -1.6668040594112254
          ],
          [
            -78.64958686689741,
            -1.6641931330245703
          ],
          [
            -78.64930089971736,
            -1.6643385270681892
          ],
          [
            -78.64929718607867,
            -1.6637660971982127
          ],
          [
            -78.6492948093502,
            -1.6636764740904275
          ],
          [
            -78.6492444619173,
            -1.6636469193482233
          ],
          [
            -78.64921600397736,
            -1.663587833225265
          ],
          [
            -78.64923785868591,
            -1.6635345746980494
          ],
          [
            -78.64927098165187,
            -1.663475161972916
          ],
          [
            -78.64931007273802,
            -1.6634454351680175
          ],
          [
            -78.64922078468491,
            -1.6629149150829412
          ],
          [
            -78.6491321217976,
            -1.6627030610455957
          ],
          [
            -78.64889709919328,
            -1.6622213690885406
          ],
          [
            -78.64875058733506,
            -1.661964443290397
          ]
        ]
      }
    },
    {
      "type": "Feature",
      "properties": {
        "CORREDOR": "CICLOVIAS",
        "ESTADO": "CUBIERTO"
      },
      "geometry": {
        "type": "LineString",
        "coordinates": [
          [
            -78.64638278124501,
            -1.65857980560288
          ],
          [
            -78.64620767506483,
            -1.6583623263655145
          ],
          [
            -78.64606105119773,
            -1.658216577689288
          ],
          [
            -78.64593973327615,
            -1.6580561311628013
          ],
          [
            -78.64584766994918,
            -1.6579495556959922
          ],
          [
            -78.64565475277718,
            -1.6576185292277525
          ],
          [
            -78.64557944536365,
            -1.6574274376790419
          ],
          [
            -78.6454590806049,
            -1.6571612891861027
          ],
          [
            -78.64531559288801,
            -1.6565295659157773
          ],
          [
            -78.64513019708549,
            -1.655735247819938
          ],
          [
            -78.64495359480264,
            -1.6548164530587126
          ],
          [
            -78.64488237205083,
            -1.6546106149553357
          ],
          [
            -78.64476529372281,
            -1.6542920892003876
          ],
          [
            -78.64455764413091,
            -1.6539263736635603
          ],
          [
            -78.64442081277996,
            -1.6536327582266002
          ],
          [
            -78.64426943880899,
            -1.6533264592448476
          ],
          [
            -78.64413239635357,
            -1.653097580409945
          ],
          [
            -78.64406855496603,
            -1.652981419136415
          ]
        ]
      }
    },
    {
      "type": "Feature",
      "properties": {
        "CORREDOR": "CICLOVIAS",
        "ESTADO": "CUBIERTO"
      },
      "geometry": {
        "type": "LineString",
        "coordinates": [
          [
            -78.68117541877145,
            -1.6472238421097252
          ],
          [
            -78.68040118835006,
            -1.6478623011579963
          ],
          [
            -78.67978482929229,
            -1.6484617524001017
          ],
          [
            -78.67845787010505,
            -1.649536963941947
          ]
        ]
      }
    },
    {
      "type": "Feature",
      "properties": {
        "CORREDOR": "CICLOVIAS",
        "ESTADO": "CUBIERTO"
      },
      "geometry": {
        "type": "LineString",
        "coordinates": [
          [
            -78.67164279993776,
            -1.6551227272361853
          ],
          [
            -78.67069942275826,
            -1.6558769105487277
          ],
          [
            -78.6708705706448,
            -1.6560130713608066
          ],
          [
            -78.67040410105945,
            -1.6563419532540027
          ],
          [
            -78.66894285432765,
            -1.657413317100209
          ]
        ]
      }
    },
    {
      "type": "Feature",
      "properties": {
        "CORREDOR": "CICLOVIAS",
        "ESTADO": "CUBIERTO"
      },
      "geometry": {
        "type": "LineString",
        "coordinates": [
          [
            -78.65711606006833,
            -1.6561512584147324
          ],
          [
            -78.65724016001171,
            -1.6556611910560577
          ],
          [
            -78.65746179531669,
            -1.6551038743798725
          ],
          [
            -78.6577366376071,
            -1.6546371672016789
          ],
          [
            -78.65774953185701,
            -1.6546127842498706
          ]
        ]
      }
    },
    {
      "type": "Feature",
      "properties": {
        "CORREDOR": "CICLOVIAS",
        "ESTADO": "CUBIERTO"
      },
      "geometry": {
        "type": "LineString",
        "coordinates": [
          [
            -78.66217064993374,
            -1.644773515157981
          ],
          [
            -78.66242581392544,
            -1.6444082030351714
          ],
          [
            -78.66254549082632,
            -1.6441694373088098
          ],
          [
            -78.66270034230789,
            -1.6437212104042223
          ],
          [
            -78.66283709719407,
            -1.6437551518849873
          ],
          [
            -78.66281355101279,
            -1.6439823002064267
          ],
          [
            -78.66262336480894,
            -1.6443590684405964
          ],
          [
            -78.66236150221799,
            -1.6448624251737873
          ]
        ]
      }
    },
    {
      "type": "Feature",
      "properties": {
        "CORREDOR": "CICLOVIAS",
        "ESTADO": "CUBIERTO"
      },
      "geometry": {
        "type": "LineString",
        "coordinates": [
          [
            -78.65792506314543,
            -1.6546838839287086
          ],
          [
            -78.65752987130828,
            -1.655410804981238
          ],
          [
            -78.65735075833798,
            -1.6560996248430282
          ]
        ]
      }
    },
    {
      "type": "Feature",
      "properties": {
        "CORREDOR": "CICLOVIAS",
        "ESTADO": "CUBIERTO"
      },
      "geometry": {
        "type": "LineString",
        "coordinates": [
          [
            -78.64559027640901,
            -1.6726028642879007
          ],
          [
            -78.645590276409,
            -1.6726028642879007
          ]
        ]
      }
    },
    {
      "type": "Feature",
      "properties": {
        "CORREDOR": "CICLOVIAS",
        "ESTADO": "CUBIERTO"
      },
      "geometry": {
        "type": "LineString",
        "coordinates": [
          [
            -78.64164872060498,
            -1.6761175983161047
          ],
          [
            -78.64164872060498,
            -1.6761175983161047
          ]
        ]
      }
    },
    {
      "type": "Feature",
      "properties": {
        "CORREDOR": "CICLOVIAS",
        "ESTADO": "CUBIERTO"
      },
      "geometry": {
        "type": "LineString",
        "coordinates": [
          [
            -78.64133510765323,
            -1.6763864610568262
          ],
          [
            -78.63990504788978,
            -1.677612459124487
          ]
        ]
      }
    },
    {
      "type": "Feature",
      "properties": {
        "CORREDOR": "CICLOVIAS",
        "ESTADO": "CUBIERTO"
      },
      "geometry": {
        "type": "LineString",
        "coordinates": [
          [
            -78.63790110283571,
            -1.6789139382354983
          ],
          [
            -78.63715167078114,
            -1.6790822622084196
          ],
          [
            -78.63625469797127,
            -1.6792900346172217
          ],
          [
            -78.63558008987641,
            -1.6794637122701046
          ]
        ]
      }
    },
    {
      "type": "Feature",
      "properties": {
        "CORREDOR": "CICLOVIAS",
        "ESTADO": "CUBIERTO"
      },
      "geometry": {
        "type": "LineString",
        "coordinates": [
          [
            -78.6353488257601,
            -1.6795232510659388
          ],
          [
            -78.63501285262886,
            -1.679609747054745
          ]
        ]
      }
    },
    {
      "type": "Feature",
      "properties": {
        "CORREDOR": "CICLOVIAS",
        "ESTADO": "CUBIERTO"
      },
      "geometry": {
        "type": "LineString",
        "coordinates": [
          [
            -78.63178736463762,
            -1.6804401416206387
          ],
          [
            -78.63017338633144,
            -1.6808556536154748
          ]
        ]
      }
    },
    {
      "type": "Feature",
      "properties": {
        "CORREDOR": "CICLOVIAS",
        "ESTADO": "CUBIERTO"
      },
      "geometry": {
        "type": "LineString",
        "coordinates": [
          [
            -78.65839197314044,
            -1.6750027891897858
          ],
          [
            -78.65839197314043,
            -1.6750027891897858
          ]
        ]
      }
    },
    {
      "type": "Feature",
      "properties": {
        "CORREDOR": "CICLOVIAS",
        "ESTADO": "CUBIERTO"
      },
      "geometry": {
        "type": "LineString",
        "coordinates": [
          [
            -78.657228144867,
            -1.6735589922575425
          ],
          [
            -78.657228144867,
            -1.6735589922575425
          ]
        ]
      }
    },
    {
      "type": "Feature",
      "properties": {
        "CORREDOR": "CICLOVIAS",
        "ESTADO": "CUBIERTO"
      },
      "geometry": {
        "type": "LineString",
        "coordinates": [
          [
            -78.64875058733506,
            -1.661964443290397
          ],
          [
            -78.64867527594429,
            -1.661832375909467
          ],
          [
            -78.64832285156069,
            -1.6612237788064002
          ],
          [
            -78.64811549061213,
            -1.66083646377404
          ],
          [
            -78.64797393204776,
            -1.6606298591853164
          ],
          [
            -78.64754710441171,
            -1.660006015900979
          ],
          [
            -78.64711111221976,
            -1.6594629973947541
          ],
          [
            -78.64710749695531,
            -1.6594586837018732
          ]
        ]
      }
    },
    {
      "type": "Feature",
      "properties": {
        "CORREDOR": "CICLOVIAS",
        "ESTADO": "CUBIERTO"
      },
      "geometry": {
        "type": "LineString",
        "coordinates": [
          [
            -78.64638278124501,
            -1.65857980560288
          ],
          [
            -78.64638278124501,
            -1.65857980560288
          ]
        ]
      }
    },
    {
      "type": "Feature",
      "properties": {
        "CORREDOR": "CICLOVIAS",
        "ESTADO": "CUBIERTO"
      },
      "geometry": {
        "type": "LineString",
        "coordinates": [
          [
            -78.64930461784868,
            -1.6692979459666677
          ],
          [
            -78.64930461784868,
            -1.6692979459666677
          ]
        ]
      }
    },
    {
      "type": "Feature",
      "properties": {
        "CORREDOR": "CICLOVIAS",
        "ESTADO": "CUBIERTO"
      },
      "geometry": {
        "type": "LineString",
        "coordinates": [
          [
            -78.6490824680795,
            -1.6694944729074905
          ],
          [
            -78.6490824680795,
            -1.6694944729074905
          ]
        ]
      }
    },
    {
      "type": "Feature",
      "properties": {
        "CORREDOR": "CICLOVIAS",
        "ESTADO": "CUBIERTO"
      },
      "geometry": {
        "type": "LineString",
        "coordinates": [
          [
            -78.64930461784868,
            -1.6692979459666677
          ],
          [
            -78.6490824680795,
            -1.6694944729074905
          ]
        ]
      }
    },
    {
      "type": "Feature",
      "properties": {
        "CORREDOR": "CICLOVIAS",
        "ESTADO": "CUBIERTO"
      },
      "geometry": {
        "type": "LineString",
        "coordinates": [
          [
            -78.645590276409,
            -1.6726028642879007
          ],
          [
            -78.645590276409,
            -1.6726028642879007
          ]
        ]
      }
    },
    {
      "type": "Feature",
      "properties": {
        "CORREDOR": "CICLOVIAS",
        "ESTADO": "CUBIERTO"
      },
      "geometry": {
        "type": "LineString",
        "coordinates": [
          [
            -78.64164872060498,
            -1.6761175983161047
          ],
          [
            -78.64133510765323,
            -1.6763864610568262
          ]
        ]
      }
    },
    {
      "type": "Feature",
      "properties": {
        "CORREDOR": "CICLOVIAS",
        "ESTADO": "CUBIERTO"
      },
      "geometry": {
        "type": "LineString",
        "coordinates": [
          [
            -78.63558008987641,
            -1.6794637122701046
          ],
          [
            -78.6353488257601,
            -1.6795232510659388
          ]
        ]
      }
    },
    {
      "type": "Feature",
      "properties": {
        "CORREDOR": "CICLOVIAS",
        "ESTADO": "CUBIERTO"
      },
      "geometry": {
        "type": "LineString",
        "coordinates": [
          [
            -78.65839197314043,
            -1.6750027891897858
          ],
          [
            -78.65807932111225,
            -1.6746035238455645
          ],
          [
            -78.657228144867,
            -1.6735589922575425
          ]
        ]
      }
    },
    {
      "type": "Feature",
      "properties": {
        "CORREDOR": "CICLOVIAS",
        "ESTADO": "CUBIERTO"
      },
      "geometry": {
        "type": "LineString",
        "coordinates": [
          [
            -78.64638278124501,
            -1.65857980560288
          ],
          [
            -78.64638278124501,
            -1.65857980560288
          ]
        ]
      }
    }
  ]
}