{
  "type": "FeatureCollection",
  "features": [
    {
      "type": "Feature",
      "properties": {
        "CORREDOR": "QUEBRADA_LAS_ABRAS",
        "ESTADO": "CUBIERTO"
      },
      "geometry": {
        "type": "LineString",
        "coordinates": [
          [
            -78.67563665717196,
            -1.634485735653073
          ],
          [
            -78.67563747600462,
            -1.634496045999905
          ],
          [
            -78.67565285900463,
            -1.6345474659999317
          ],
          [
            -78.67565638300465,
            -1.6345821369999078
          ],
          [
            -78.6756325430046,
            -1.6346538339999335
          ],
          [
            -78.67557195300462,
            -1.6346597409998995
          ],
          [
            -78.6755090410046,
            -1.6346190229999589
          ],
          [
            -78.67546866400458,
            -1.6346094129999142
          ],
          [
            -78.67543525600463,
            -1.6346337609999597
          ],
          [
            -78.67537820600462,
            -1.6346604709999348
          ],
          [
            -78.67532781600461,
            -1.6346814519999227
          ],
          [
            -78.67528503700461,
            -1.6346938339999189
          ],
          [
            -78.67522798500461,
            -1.6347224569999426
          ],
          [
            -78.67521203678294,
            -1.634726449617807
          ]
        ]
      }
    },
    {
      "type": "Feature",
      "properties": {
        "CORREDOR": "QUEBRADA_LAS_ABRAS",
        "ESTADO": "CUBIERTO"
      },
      "geometry": {
        "type": "LineString",
        "coordinates": [
          [
            -78.67513998230653,
            -1.6348443707010005
          ],
          [
            -78.67514100100465,
            -1.6348514599999244
          ],
          [
            -78.67514097700463,
            -1.6348726189999392
          ],
          [
            -78.67514161853008,
            -1.634899685713388
          ]
        ]
      }
    },
    {
      "type": "Feature",
      "properties": {
        "CORREDOR": "QUEBRADA_LAS_ABRAS",
        "ESTADO": "CUBIERTO"
      },
      "geometry": {
        "type": "LineString",
        "coordinates": [
          [
            -78.67515171726949,
            -1.6349462410756652
          ],
          [
            -78.67516369500467,
            -1.6349504659999514
          ],
          [
            -78.67517828800466,
            -1.6349659039999078
          ],
          [
            -78.67517934400463,
            -1.6349780979999549
          ],
          [
            -78.6751889460046,
            -1.634995323999915
          ],
          [
            -78.67520246700464,
            -1.6350129119999603
          ],
          [
            -78.67520779800465,
            -1.6350254699999278
          ],
          [
            -78.6752049300046,
            -1.6350408869999198
          ],
          [
            -78.6752074168968,
            -1.635051141452436
          ]
        ]
      }
    },
    {
      "type": "Feature",
      "properties": {
        "CORREDOR": "QUEBRADA_LAS_ABRAS",
        "ESTADO": "CUBIERTO"
      },
      "geometry": {
        "type": "LineString",
        "coordinates": [
          [
            -78.67521529348848,
            -1.6350616592732738
          ],
          [
            -78.67523661500465,
            -1.6350681799999285
          ],
          [
            -78.67526404200464,
            -1.635080045999896
          ],
          [
            -78.67528647400464,
            -1.6350969269999105
          ],
          [
            -78.67530207400458,
            -1.6351106009999192
          ],
          [
            -78.67532734500465,
            -1.6351391059999054
          ],
          [
            -78.67535445600464,
            -1.6351696879999293
          ],
          [
            -78.67536652500462,
            -1.635211301999941
          ],
          [
            -78.6753679130046,
            -1.6352442969999101
          ],
          [
            -78.67535579100459,
            -1.6352750339999376
          ],
          [
            -78.67536423700459,
            -1.6353418379999023
          ],
          [
            -78.67535991900462,
            -1.6353776949999201
          ],
          [
            -78.67534990300464,
            -1.6354106769999104
          ],
          [
            -78.67534060500465,
            -1.6354386379998866
          ],
          [
            -78.67532866200463,
            -1.6354551459999542
          ],
          [
            -78.67529312000461,
            -1.6355121829999284
          ],
          [
            -78.67528848200465,
            -1.6355196259999403
          ],
          [
            -78.67526888200462,
            -1.6355473539998908
          ],
          [
            -78.67525920600464,
            -1.6355662129999313
          ],
          [
            -78.67525704400464,
            -1.635587010999895
          ],
          [
            -78.67524776100466,
            -1.6356020619999523
          ],
          [
            -78.67524417700464,
            -1.6356192719999056
          ],
          [
            -78.67524201000465,
            -1.6356443729999117
          ],
          [
            -78.67524840300463,
            -1.6356630279999278
          ],
          [
            -78.67523481300464,
            -1.6356847729999633
          ],
          [
            -78.67523194800464,
            -1.6357168029999518
          ],
          [
            -78.67522693300464,
            -1.6357397489999017
          ],
          [
            -78.67521469700462,
            -1.6357609169999547
          ],
          [
            -78.67521610400463,
            -1.6357766979999602
          ],
          [
            -78.67521607700462,
            -1.6358006059999526
          ],
          [
            -78.67521415700465,
            -1.635817339999941
          ],
          [
            -78.67519655400463,
            -1.6358364459999155
          ],
          [
            -78.67518616900465,
            -1.635841899999911
          ],
          [
            -78.67517847900461,
            -1.6358526819999408
          ],
          [
            -78.6751784630046,
            -1.6358670269999234
          ],
          [
            -78.67519697700462,
            -1.6358818719999237
          ],
          [
            -78.67520931500461,
            -1.63589527499991
          ],
          [
            -78.67520834600462,
            -1.6359120089999557
          ],
          [
            -78.67520214500465,
            -1.6359325629999109
          ],
          [
            -78.67520164000463,
            -1.6359583829999358
          ],
          [
            -78.67520066600461,
            -1.6359794209999148
          ],
          [
            -78.67519351900462,
            -1.6359961489998986
          ],
          [
            -78.67517780700463,
            -1.6360238639999694
          ],
          [
            -78.67517681800462,
            -1.636057333999887
          ],
          [
            -78.67517558523969,
            -1.6360607333708335
          ]
        ]
      }
    },
    {
      "type": "Feature",
      "properties": {
        "CORREDOR": "QUEBRADA_LAS_ABRAS",
        "ESTADO": "CUBIERTO"
      },
      "geometry": {
        "type": "LineString",
        "coordinates": [
          [
            -78.67378414090307,
            -1.6382295864059988
          ],
          [
            -78.67374649500465,
            -1.6382228059999067
          ],
          [
            -78.67370088400465,
            -1.6382184499999004
          ],
          [
            -78.67362973221367,
            -1.6382183659849514
          ]
        ]
      }
    },
    {
      "type": "Feature",
      "properties": {
        "CORREDOR": "QUEBRADA_LAS_ABRAS",
        "ESTADO": "CUBIERTO"
      },
      "geometry": {
        "type": "LineString",
        "coordinates": [
          [
            -78.67361792481378,
            -1.638222509250865
          ],
          [
            -78.6735788665299,
            -1.638237260413209
          ]
        ]
      }
    },
    {
      "type": "Feature",
      "properties": {
        "CORREDOR": "QUEBRADA_LAS_ABRAS",
        "ESTADO": "CUBIERTO"
      },
      "geometry": {
        "type": "LineString",
        "coordinates": [
          [
            -78.67327808740295,
            -1.6385911291490858
          ],
          [
            -78.67317071300462,
            -1.6385503769999086
          ],
          [
            -78.6731219497924,
            -1.6385360191945162
          ]
        ]
      }
    },
    {
      "type": "Feature",
      "properties": {
        "CORREDOR": "QUEBRADA_LAS_ABRAS",
        "ESTADO": "CUBIERTO"
      },
      "geometry": {
        "type": "LineString",
        "coordinates": [
          [
            -78.67298331261199,
            -1.638572941057183
          ],
          [
            -78.67296944700466,
            -1.6385829709999225
          ],
          [
            -78.67295648200465,
            -1.638596580999935
          ],
          [
            -78.67293489600468,
            -1.6386192409999232
          ],
          [
            -78.67290316100464,
            -1.638635699999927
          ],
          [
            -78.67288212000464,
            -1.638648944999921
          ],
          [
            -78.67285929500467,
            -1.638663979999901
          ],
          [
            -78.67282470000467,
            -1.6386868919999378
          ],
          [
            -78.67280743300465,
            -1.6386959209999352
          ],
          [
            -78.67277406500465,
            -1.6387133699999101
          ],
          [
            -78.67274732600467,
            -1.6387233809999602
          ],
          [
            -78.67271595300468,
            -1.6387344609999313
          ],
          [
            -78.67267851900469,
            -1.6387480449999001
          ],
          [
            -78.67265178000466,
            -1.6387573379999223
          ],
          [
            -78.67263553200466,
            -1.638761726999953
          ],
          [
            -78.67262005300462,
            -1.6387659079999046
          ],
          [
            -78.67260753500464,
            -1.6387680689999673
          ],
          [
            -78.67258084500467,
            -1.6387726759999572
          ],
          [
            -78.67255564000466,
            -1.6387804469999037
          ],
          [
            -78.67254023800463,
            -1.6387826649999133
          ],
          [
            -78.67250043500468,
            -1.63879038799994
          ],
          [
            -78.67247296136286,
            -1.6387890874971853
          ]
        ]
      }
    },
    {
      "type": "Feature",
      "properties": {
        "CORREDOR": "QUEBRADA_LAS_ABRAS",
        "ESTADO": "CUBIERTO"
      },
      "geometry": {
        "type": "LineString",
        "coordinates": [
          [
            -78.67217177404757,
            -1.6389343692694434
          ],
          [
            -78.67216376000468,
            -1.638939923999925
          ],
          [
            -78.67213410000466,
            -1.6389696839999297
          ],
          [
            -78.6721170960047,
            -1.639007793999931
          ],
          [
            -78.67208741200466,
            -1.6390272489999549
          ],
          [
            -78.67204811800467,
            -1.6390761619999428
          ],
          [
            -78.6720168010047,
            -1.639129506999938
          ],
          [
            -78.67200735400468,
            -1.639152797999921
          ],
          [
            -78.67199248100465,
            -1.6391510629999195
          ],
          [
            -78.67197337700468,
            -1.639179768999936
          ],
          [
            -78.67190884100464,
            -1.6392154499999152
          ],
          [
            -78.67186508100467,
            -1.6392546079999126
          ],
          [
            -78.67185284400466,
            -1.63926499899993
          ],
          [
            -78.67181750800466,
            -1.6393042809999134
          ],
          [
            -78.6718031750047,
            -1.639313574999929
          ],
          [
            -78.67179900700467,
            -1.6393211639999417
          ],
          [
            -78.67179249100467,
            -1.63933612199993
          ],
          [
            -78.67179060400467,
            -1.639340453999925
          ],
          [
            -78.6717670010047,
            -1.6393362409999277
          ],
          [
            -78.67169197200468,
            -1.6393854219999646
          ],
          [
            -78.67166973100467,
            -1.6394005439999362
          ],
          [
            -78.67165196500464,
            -1.639414588999939
          ],
          [
            -78.67161874000472,
            -1.6394350649999199
          ],
          [
            -78.67157357800465,
            -1.6394541379999428
          ],
          [
            -78.67153048800466,
            -1.6394463929999197
          ],
          [
            -78.67152004000468,
            -1.6394388149999353
          ],
          [
            -78.6714543330047,
            -1.6394377409998804
          ],
          [
            -78.67141390181459,
            -1.6394303897422813
          ]
        ]
      }
    },
    {
      "type": "Feature",
      "properties": {
        "CORREDOR": "QUEBRADA_LAS_ABRAS",
        "ESTADO": "CUBIERTO"
      },
      "geometry": {
        "type": "LineString",
        "coordinates": [
          [
            -78.67136459644168,
            -1.6394137508945184
          ],
          [
            -78.67136218100467,
            -1.63941276899988
          ],
          [
            -78.67134128200469,
            -1.639405571999912
          ],
          [
            -78.67133467769374,
            -1.6393977111872793
          ]
        ]
      }
    },
    {
      "type": "Feature",
      "properties": {
        "CORREDOR": "QUEBRADA_LAS_ABRAS",
        "ESTADO": "CUBIERTO"
      },
      "geometry": {
        "type": "LineString",
        "coordinates": [
          [
            -78.67129656286164,
            -1.6391015682697
          ],
          [
            -78.67128780300472,
            -1.6390970949999366
          ],
          [
            -78.67127476200466,
            -1.6390753229999102
          ],
          [
            -78.67126812938498,
            -1.6390674950298787
          ]
        ]
      }
    },
    {
      "type": "Feature",
      "properties": {
        "CORREDOR": "QUEBRADA_LAS_ABRAS",
        "ESTADO": "CUBIERTO"
      },
      "geometry": {
        "type": "LineString",
        "coordinates": [
          [
            -78.67089861471572,
            -1.6387202648575518
          ],
          [
            -78.6708953480047,
            -1.638715888999941
          ],
          [
            -78.6708837180047,
            -1.638705833999936
          ],
          [
            -78.67088120300471,
            -1.6387025629998677
          ],
          [
            -78.6708566750047,
            -1.6386706579999077
          ],
          [
            -78.67084244000468,
            -1.6386529489999357
          ],
          [
            -78.67083399800472,
            -1.6386435429998858
          ],
          [
            -78.67082654300468,
            -1.6386352379999367
          ],
          [
            -78.6708130130047,
            -1.6386251809999082
          ],
          [
            -78.67079924100466,
            -1.6386184709999296
          ],
          [
            -78.67078451800467,
            -1.6386124759999117
          ],
          [
            -78.67076884800471,
            -1.6386033729999074
          ],
          [
            -78.67075507300468,
            -1.6385992929999285
          ],
          [
            -78.67073796400469,
            -1.638602858999928
          ],
          [
            -78.67072869200467,
            -1.6386083469999204
          ],
          [
            -78.67071633800472,
            -1.6386083319999192
          ],
          [
            -78.6707029120047,
            -1.6386100849999012
          ],
          [
            -78.67069637800466,
            -1.6386109389999226
          ],
          [
            -78.6706759290047,
            -1.638626215999962
          ],
          [
            -78.67066069900467,
            -1.63864759599992
          ],
          [
            -78.67064678400469,
            -1.6386619249999406
          ],
          [
            -78.6706275200047,
            -1.6386794739999455
          ],
          [
            -78.67061680800471,
            -1.6386970339999234
          ],
          [
            -78.6706078720047,
            -1.6387206929998857
          ],
          [
            -78.67059681100469,
            -1.638732513999956
          ],
          [
            -78.67057182900469,
            -1.6387640439999367
          ],
          [
            -78.67055470100465,
            -1.6387826719998961
          ],
          [
            -78.67053472300469,
            -1.6388016559999192
          ],
          [
            -78.67052508500468,
            -1.6388156309999076
          ],
          [
            -78.67050275100469,
            -1.6388313739999105
          ],
          [
            -78.67048420200469,
            -1.6388383129999413
          ],
          [
            -78.67046751200469,
            -1.6388307179999226
          ],
          [
            -78.67043273700466,
            -1.6388162639999309
          ],
          [
            -78.6704215960047,
            -1.6387942549999244
          ],
          [
            -78.67041852700473,
            -1.63877799399994
          ],
          [
            -78.67039834900471,
            -1.6387638649998992
          ],
          [
            -78.6703809960047,
            -1.6387722119999222
          ],
          [
            -78.6703669700047,
            -1.638779367999959
          ],
          [
            -78.67035403043943,
            -1.6387818159065268
          ]
        ]
      }
    },
    {
      "type": "Feature",
      "properties": {
        "CORREDOR": "QUEBRADA_LAS_ABRAS",
        "ESTADO": "CUBIERTO"
      },
      "geometry": {
        "type": "LineString",
        "coordinates": [
          [
            -78.67027796167966,
            -1.6387902232632896
          ],
          [
            -78.6702560130047,
            -1.6387864109999297
          ],
          [
            -78.67023821100469,
            -1.638771805999926
          ],
          [
            -78.67022383841969,
            -1.63876008861462
          ]
        ]
      }
    },
    {
      "type": "Feature",
      "properties": {
        "CORREDOR": "QUEBRADA_LAS_ABRAS",
        "ESTADO": "CUBIERTO"
      },
      "geometry": {
        "type": "LineString",
        "coordinates": [
          [
            -78.67014381103466,
            -1.6387587369747572
          ],
          [
            -78.67014081800468,
            -1.6387594989999146
          ],
          [
            -78.67011017100471,
            -1.6387592239999214
          ],
          [
            -78.6701009040047,
            -1.6387604079998928
          ],
          [
            -78.67004479700469,
            -1.6387682619999158
          ],
          [
            -78.6700084430047,
            -1.6387714469999373
          ],
          [
            -78.6699802950047,
            -1.6387678279999347
          ],
          [
            -78.6699520930047,
            -1.638760202999932
          ],
          [
            -78.66994965600472,
            -1.6387595439998817
          ],
          [
            -78.66993149000467,
            -1.6387523499999097
          ],
          [
            -78.66990157000473,
            -1.6387390459999425
          ],
          [
            -78.66986774600471,
            -1.6387124689999137
          ],
          [
            -78.66984104000466,
            -1.6386937889999331
          ],
          [
            -78.66981861200472,
            -1.6386740389999561
          ],
          [
            -78.6697990320047,
            -1.6386560849999585
          ],
          [
            -78.66977410000472,
            -1.6386449379999524
          ],
          [
            -78.66975094600471,
            -1.638635945999943
          ],
          [
            -78.66974239700468,
            -1.6386323489999655
          ],
          [
            -78.66972065600473,
            -1.6386351929999448
          ],
          [
            -78.66970675600471,
            -1.6386358939999235
          ],
          [
            -78.6696942900047,
            -1.6386301409999204
          ],
          [
            -78.66969109400472,
            -1.6386200959999357
          ],
          [
            -78.6696754270047,
            -1.6386089609998926
          ],
          [
            -78.66965477000473,
            -1.6385981779999137
          ],
          [
            -78.66963802600469,
            -1.6385938549999193
          ],
          [
            -78.66961807000472,
            -1.638593113999913
          ],
          [
            -78.66960061700469,
            -1.6385855629999118
          ],
          [
            -78.66958173600469,
            -1.6385798019999025
          ],
          [
            -78.66956107000475,
            -1.6385769089999163
          ],
          [
            -78.66954646100474,
            -1.638575098999938
          ],
          [
            -78.66953612900468,
            -1.638573293999952
          ],
          [
            -78.66952294900467,
            -1.6385678989999326
          ],
          [
            -78.66951155500472,
            -1.6385596379999137
          ],
          [
            -78.66949445600466,
            -1.6385535209998974
          ],
          [
            -78.66948092100468,
            -1.638547766999929
          ],
          [
            -78.6694720140047,
            -1.638545963999907
          ],
          [
            -78.66945739700473,
            -1.6385506089999062
          ],
          [
            -78.66944029200468,
            -1.638550229999924
          ],
          [
            -78.66942354600471,
            -1.6385473409999196
          ],
          [
            -78.66940858000473,
            -1.6385466069999333
          ],
          [
            -78.6693925440047,
            -1.63854622899989
          ],
          [
            -78.6693811390047,
            -1.638546932999901
          ],
          [
            -78.6693743620047,
            -1.6385523039999539
          ],
          [
            -78.6693604630047,
            -1.6385530049999337
          ],
          [
            -78.66932945400471,
            -1.6385565549999204
          ],
          [
            -78.66931091700471,
            -1.6385622719999289
          ],
          [
            -78.6692909550047,
            -1.6385669099999196
          ],
          [
            -78.6692642140047,
            -1.6385779959999447
          ],
          [
            -78.66925601000472,
            -1.6385844419999476
          ],
          [
            -78.66924849600471,
            -1.6386113289999455
          ],
          [
            -78.6692377770047,
            -1.6386353449999131
          ],
          [
            -78.66923312800473,
            -1.6386493249999445
          ],
          [
            -78.66922241900468,
            -1.6386647329998931
          ],
          [
            -78.66921063700467,
            -1.638683367999911
          ],
          [
            -78.66918995000471,
            -1.6386987639999484
          ],
          [
            -78.66916069400472,
            -1.6387129349999092
          ],
          [
            -78.66915892900468,
            -1.6387137899999265
          ],
          [
            -78.66913468300473,
            -1.6387245199999128
          ],
          [
            -78.6690658680047,
            -1.638755997999933
          ],
          [
            -78.66902097500473,
            -1.6387751019999206
          ],
          [
            -78.66897888900472,
            -1.63877813099995
          ],
          [
            -78.66894329500472,
            -1.6387789349999056
          ],
          [
            -78.6689297040047,
            -1.6387830939999055
          ],
          [
            -78.66890655100472,
            -1.6387733839999146
          ],
          [
            -78.66889196200474,
            -1.6387543599999324
          ],
          [
            -78.66886489900473,
            -1.638736396999935
          ],
          [
            -78.66884851400474,
            -1.6387295639999466
          ],
          [
            -78.66882678900475,
            -1.638718421999939
          ],
          [
            -78.66880720000471,
            -1.638708715999925
          ],
          [
            -78.66879652000468,
            -1.6386986619999468
          ],
          [
            -78.66877657200469,
            -1.638691465999917
          ],
          [
            -78.66877331600472,
            -1.6386871819999376
          ],
          [
            -78.66876838800474,
            -1.638680697999936
          ],
          [
            -78.66876330400473,
            -1.6386808359998906
          ],
          [
            -78.66875143400469,
            -1.6386729319999482
          ],
          [
            -78.66874313200474,
            -1.6386616859999508
          ],
          [
            -78.66873778246443,
            -1.6386547230138602
          ]
        ]
      }
    },
    {
      "type": "Feature",
      "properties": {
        "CORREDOR": "QUEBRADA_LAS_ABRAS",
        "ESTADO": "CUBIERTO"
      },
      "geometry": {
        "type": "LineString",
        "coordinates": [
          [
            -78.66871297457449,
            -1.6386406635745738
          ],
          [
            -78.66870597500468,
            -1.6386401249999023
          ],
          [
            -78.6686969480047,
            -1.6386393969999211
          ],
          [
            -78.66868198400475,
            -1.638636629999931
          ],
          [
            -78.66867224500476,
            -1.6386353039998955
          ],
          [
            -78.66865004100472,
            -1.6386265509999303
          ],
          [
            -78.6686400690047,
            -1.6386216379999379
          ],
          [
            -78.66862676600475,
            -1.638619948999953
          ],
          [
            -78.66861750900469,
            -1.6386132439999275
          ],
          [
            -78.66860777600472,
            -1.6386064189998923
          ],
          [
            -78.6685978030047,
            -1.6386017449999313
          ],
          [
            -78.6685871130047,
            -1.6386004179999323
          ],
          [
            -78.66857940000469,
            -1.6385931169999517
          ],
          [
            -78.66857473200471,
            -1.638589516999929
          ],
          [
            -78.66855686900475,
            -1.6385870099999476
          ],
          [
            -78.66853236500472,
            -1.6385751229998973
          ],
          [
            -78.66852495400474,
            -1.6385739659999465
          ],
          [
            -78.66849722200472,
            -1.6385593979998863
          ],
          [
            -78.66846844500473,
            -1.6385442299999582
          ],
          [
            -78.6684458800047,
            -1.6385391229998971
          ],
          [
            -78.66842123600473,
            -1.6385358069999003
          ],
          [
            -78.6684087670047,
            -1.6385325049999084
          ],
          [
            -78.66839123800474,
            -1.6385387599999481
          ],
          [
            -78.66836688400473,
            -1.6385402259999635
          ],
          [
            -78.66834549700474,
            -1.6385449829999172
          ],
          [
            -78.66832233100473,
            -1.6385470479999447
          ],
          [
            -78.6682973800047,
            -1.6385515009999132
          ],
          [
            -78.66827510500472,
            -1.6385532679999133
          ],
          [
            -78.66825134900469,
            -1.6385517459999381
          ],
          [
            -78.66823056500475,
            -1.638547836999938
          ],
          [
            -78.66820087000471,
            -1.6385454109999071
          ],
          [
            -78.66817771100472,
            -1.6385411999999435
          ],
          [
            -78.66815662600472,
            -1.6385411749999177
          ],
          [
            -78.66813642200475,
            -1.6385504159999078
          ],
          [
            -78.6681247190047,
            -1.6385600099999225
          ],
          [
            -78.66807876300476,
            -1.6385903939999154
          ],
          [
            -78.66805647800476,
            -1.6386002299999354
          ],
          [
            -78.66803835200471,
            -1.6386091749999083
          ],
          [
            -78.66801785200471,
            -1.6386172199999238
          ],
          [
            -78.66799795100472,
            -1.6386204839999083
          ],
          [
            -78.66796974700476,
            -1.638613576999924
          ],
          [
            -78.66793946300477,
            -1.638607265999922
          ],
          [
            -78.66791867300475,
            -1.638608734999921
          ],
          [
            -78.66790946800471,
            -1.6386078279999619
          ],
          [
            -78.6678952250047,
            -1.6385973519999582
          ],
          [
            -78.66787444800472,
            -1.6385877639999071
          ],
          [
            -78.66786076800473,
            -1.6385845849999123
          ],
          [
            -78.66785247800478,
            -1.6385826579999385
          ],
          [
            -78.66783615300471,
            -1.6385757649998698
          ],
          [
            -78.66781537000472,
            -1.638570958999925
          ],
          [
            -78.6677942870047,
            -1.6385694399999444
          ],
          [
            -78.66775686800473,
            -1.6385690979999235
          ],
          [
            -78.66773370400472,
            -1.6385699669999207
          ],
          [
            -78.66770934300472,
            -1.6385774099999062
          ],
          [
            -78.66769212000474,
            -1.6385758949999183
          ],
          [
            -78.66767459100474,
            -1.6385827479999537
          ],
          [
            -78.66766092700476,
            -1.6385860199999087
          ],
          [
            -78.66765290800474,
            -1.6385860099999119
          ],
          [
            -78.66755633600472,
            -1.6385781249999642
          ],
          [
            -78.66741923800477,
            -1.6385669299999572
          ],
          [
            -78.66741504900473,
            -1.638555188999921
          ],
          [
            -78.66739368000475,
            -1.6385441059998969
          ],
          [
            -78.66735746000471,
            -1.6385345009999108
          ],
          [
            -78.66731355028706,
            -1.6385193414140549
          ]
        ]
      }
    },
    {
      "type": "Feature",
      "properties": {
        "CORREDOR": "QUEBRADA_LAS_ABRAS",
        "ESTADO": "CUBIERTO"
      },
      "geometry": {
        "type": "LineString",
        "coordinates": [
          [
            -78.6672324031205,
            -1.6384970148699836
          ],
          [
            -78.6672036790047,
            -1.6384909869999391
          ],
          [
            -78.66717874100478,
            -1.6384837859999144
          ],
          [
            -78.66715737300474,
            -1.6384823039999528
          ],
          [
            -78.66715638100479,
            -1.6384822349999455
          ],
          [
            -78.66713464100475,
            -1.638484002999962
          ],
          [
            -78.66710609400475,
            -1.6385162449999333
          ],
          [
            -78.66708110700472,
            -1.6385520779999445
          ],
          [
            -78.66706752600474,
            -1.6385857719999288
          ],
          [
            -78.66706110300476,
            -1.6385925789999312
          ],
          [
            -78.66706107000478,
            -1.6386212679999221
          ],
          [
            -78.66706033600475,
            -1.6386395569999574
          ],
          [
            -78.6670610260047,
            -1.638658922999941
          ],
          [
            -78.66705991500476,
            -1.6386653669998876
          ],
          [
            -78.66705758876394,
            -1.638667677001921
          ],
          [
            -78.66703140800475,
            -1.638693674999915
          ],
          [
            -78.66701143200476,
            -1.6387101479999495
          ],
          [
            -78.66699501600473,
            -1.6387302109999047
          ],
          [
            -78.66697930900473,
            -1.6387535029999285
          ],
          [
            -78.66695931700474,
            -1.6387740479999433
          ],
          [
            -78.66694313400474,
            -1.6387974589999132
          ],
          [
            -78.66694881100474,
            -1.638818982999935
          ],
          [
            -78.66694879600477,
            -1.6388323709999646
          ],
          [
            -78.66693947400472,
            -1.638842279999939
          ],
          [
            -78.66693262000473,
            -1.6388495659999578
          ],
          [
            -78.66692737700475,
            -1.638863904999924
          ],
          [
            -78.6669107240047,
            -1.6388830109999497
          ],
          [
            -78.66690961000474,
            -1.6388875529999396
          ],
          [
            -78.66690433041745,
            -1.638897211738891
          ]
        ]
      }
    },
    {
      "type": "Feature",
      "properties": {
        "CORREDOR": "QUEBRADA_LAS_ABRAS",
        "ESTADO": "CUBIERTO"
      },
      "geometry": {
        "type": "LineString",
        "coordinates": [
          [
            -78.66452741966619,
            -1.642196823507914
          ],
          [
            -78.66450956900478,
            -1.6422320979999452
          ],
          [
            -78.66449528400473,
            -1.6422583799998947
          ],
          [
            -78.66447911800478,
            -1.6422674459999311
          ],
          [
            -78.66446101700475,
            -1.6423066329999643
          ],
          [
            -78.66445160876792,
            -1.6423189316871487
          ]
        ]
      }
    },
    {
      "type": "Feature",
      "properties": {
        "CORREDOR": "QUEBRADA_LAS_ABRAS",
        "ESTADO": "CUBIERTO"
      },
      "geometry": {
        "type": "LineString",
        "coordinates": [
          [
            -78.66360869858629,
            -1.643269552088876
          ],
          [
            -78.66358199600478,
            -1.6432927579999623
          ],
          [
            -78.66354919380517,
            -1.6432971088917625
          ]
        ]
      }
    },
    {
      "type": "Feature",
      "properties": {
        "CORREDOR": "QUEBRADA_LAS_ABRAS",
        "ESTADO": "CUBIERTO"
      },
      "geometry": {
        "type": "LineString",
        "coordinates": [
          [
            -78.66265276224772,
            -1.6431183088097185
          ],
          [
            -78.66258012171375,
            -1.643107446130976
          ]
        ]
      }
    },
    {
      "type": "Feature",
      "properties": {
        "CORREDOR": "QUEBRADA_LAS_ABRAS",
        "ESTADO": "CUBIERTO"
      },
      "geometry": {
        "type": "LineString",
        "coordinates": [
          [
            -78.66249107023127,
            -1.6431316096344082
          ],
          [
            -78.66236534600478,
            -1.643197456999903
          ],
          [
            -78.66231419100481,
            -1.643195190999946
          ],
          [
            -78.66226610000481,
            -1.6432150759998772
          ],
          [
            -78.6621272740048,
            -1.6432545459999583
          ],
          [
            -78.66210233300481,
            -1.6432509309999357
          ],
          [
            -78.66206745300482,
            -1.6432597869999572
          ],
          [
            -78.66200568000481,
            -1.6432616269999427
          ],
          [
            -78.66197025791021,
            -1.6432532925935068
          ]
        ]
      }
    },
    {
      "type": "Feature",
      "properties": {
        "CORREDOR": "QUEBRADA_LAS_ABRAS",
        "ESTADO": "CUBIERTO"
      },
      "geometry": {
        "type": "LineString",
        "coordinates": [
          [
            -78.68194431414173,
            -1.626071961596098
          ],
          [
            -78.68192084300453,
            -1.6260690119999353
          ],
          [
            -78.68188973000454,
            -1.6260606079999065
          ],
          [
            -78.68186702400456,
            -1.6260605819999652
          ],
          [
            -78.68184981700452,
            -1.6260605619999535
          ],
          [
            -78.68178518800453,
            -1.6260671819998969
          ],
          [
            -78.68172055000453,
            -1.6260814519999032
          ],
          [
            -78.68165590400453,
            -1.6261028949999519
          ],
          [
            -78.68159838600455,
            -1.6261238679999594
          ],
          [
            -78.68156225400453,
            -1.6261405619999172
          ],
          [
            -78.68148525300452,
            -1.6261629459999312
          ],
          [
            -78.68144438900455,
            -1.626163854999917
          ],
          [
            -78.68139590400452,
            -1.6261800569999065
          ],
          [
            -78.68135738700451,
            -1.6262053549999416
          ],
          [
            -78.68124865900454,
            -1.626340310999946
          ],
          [
            -78.68117659800454,
            -1.6264054969999209
          ],
          [
            -78.68114094900453,
            -1.6264169319999127
          ],
          [
            -78.68107390700456,
            -1.6264555859999172
          ],
          [
            -78.68103895800458,
            -1.6264770629999017
          ],
          [
            -78.68101069900453,
            -1.6265066019999397
          ],
          [
            -78.68098686600455,
            -1.6265315139999557
          ],
          [
            -78.68093549000456,
            -1.6265838129999581
          ],
          [
            -78.68085983800451,
            -1.6266726649999328
          ],
          [
            -78.68081773100451,
            -1.6267213889999157
          ],
          [
            -78.68079131300459,
            -1.6267622409999154
          ],
          [
            -78.68067779700458,
            -1.626928510999946
          ],
          [
            -78.68067073200456,
            -1.6269373779999543
          ],
          [
            -78.68063497200454,
            -1.6269822549999209
          ],
          [
            -78.68042930700453,
            -1.6273291649999164
          ],
          [
            -78.68034870600452,
            -1.6273828659999339
          ],
          [
            -78.68031302700456,
            -1.6274201209999215
          ],
          [
            -78.68028877200459,
            -1.6274394589999464
          ],
          [
            -78.68026595300455,
            -1.6274489959999199
          ],
          [
            -78.68026093109344,
            -1.6274532171457627
          ]
        ]
      }
    },
    {
      "type": "Feature",
      "properties": {
        "CORREDOR": "QUEBRADA_LAS_ABRAS",
        "ESTADO": "CUBIERTO"
      },
      "geometry": {
        "type": "LineString",
        "coordinates": [
          [
            -78.68024115924133,
            -1.6274767212655608
          ],
          [
            -78.68022501300457,
            -1.6275158909999388
          ],
          [
            -78.68020312300456,
            -1.6275440779999402
          ],
          [
            -78.68017991800454,
            -1.6275675919998929
          ],
          [
            -78.68015174700457,
            -1.6275961379999169
          ],
          [
            -78.68013224000455,
            -1.6276185889999266
          ],
          [
            -78.68010512800458,
            -1.6276424659999016
          ],
          [
            -78.68008562000453,
            -1.6276663519999255
          ],
          [
            -78.68007402273201,
            -1.6276754075244004
          ]
        ]
      }
    },
    {
      "type": "Feature",
      "properties": {
        "CORREDOR": "QUEBRADA_LAS_ABRAS",
        "ESTADO": "CUBIERTO"
      },
      "geometry": {
        "type": "LineString",
        "coordinates": [
          [
            -78.68001405069558,
            -1.627746700236746
          ],
          [
            -78.67998997400458,
            -1.6277876949999273
          ],
          [
            -78.67997188200457,
            -1.627818754999954
          ],
          [
            -78.67995856300455,
            -1.627831649999946
          ],
          [
            -78.67993684619022,
            -1.627838478299778
          ]
        ]
      }
    },
    {
      "type": "Feature",
      "properties": {
        "CORREDOR": "QUEBRADA_LAS_ABRAS",
        "ESTADO": "CUBIERTO"
      },
      "geometry": {
        "type": "LineString",
        "coordinates": [
          [
            -78.67993554408906,
            -1.6278400261926997
          ],
          [
            -78.67989624300458,
            -1.6278970859999207
          ],
          [
            -78.67986909832666,
            -1.6279196398701616
          ],
          [
            -78.67985486500457,
            -1.6279314659999327
          ],
          [
            -78.67982202700452,
            -1.6279518259999297
          ],
          [
            -78.67975628300456,
            -1.6279917419999337
          ],
          [
            -78.67974528600455,
            -1.6279984189999068
          ],
          [
            -78.67964269800456,
            -1.628048190999925
          ],
          [
            -78.67964055194851,
            -1.6280485318331983
          ]
        ]
      }
    },
    {
      "type": "Feature",
      "properties": {
        "CORREDOR": "QUEBRADA_LAS_ABRAS",
        "ESTADO": "CUBIERTO"
      },
      "geometry": {
        "type": "LineString",
        "coordinates": [
          [
            -78.6793057354976,
            -1.6282622345864504
          ],
          [
            -78.67930511200456,
            -1.62828052499997
          ],
          [
            -78.6793035240046,
            -1.6283270909999201
          ],
          [
            -78.67925754500791,
            -1.628460198796019
          ]
        ]
      }
    },
    {
      "type": "Feature",
      "properties": {
        "CORREDOR": "QUEBRADA_LAS_ABRAS",
        "ESTADO": "CUBIERTO"
      },
      "geometry": {
        "type": "LineString",
        "coordinates": [
          [
            -78.67864475473746,
            -1.6294603949299151
          ],
          [
            -78.67864076900459,
            -1.6294643149999277
          ],
          [
            -78.6786294690046,
            -1.6294765549998989
          ],
          [
            -78.67861401400457,
            -1.6294881919999136
          ],
          [
            -78.67858933600456,
            -1.6295129689999466
          ],
          [
            -78.67857094200457,
            -1.6295320849998784
          ],
          [
            -78.67854740200457,
            -1.6295658169999185
          ],
          [
            -78.67853037400455,
            -1.6295953699999075
          ],
          [
            -78.67851050900458,
            -1.6296258429999058
          ],
          [
            -78.6784918470046,
            -1.6296577359999473
          ],
          [
            -78.6784724280046,
            -1.629685569999913
          ],
          [
            -78.67845280700462,
            -1.6297034779999116
          ],
          [
            -78.67844030700456,
            -1.6297273719999172
          ],
          [
            -78.67842305200459,
            -1.629753650999907
          ],
          [
            -78.6784123390046,
            -1.6297727649999054
          ],
          [
            -78.67839803800457,
            -1.6298133919999436
          ],
          [
            -78.67837992700457,
            -1.6298611879999372
          ],
          [
            -78.67837704100461,
            -1.629891786999945
          ],
          [
            -78.67837643900461,
            -1.6298938989999434
          ],
          [
            -78.6783694080046,
            -1.6299185549999071
          ],
          [
            -78.6783589120046,
            -1.6299558399999663
          ],
          [
            -78.67835887100456,
            -1.6299912239999617
          ],
          [
            -78.67835313200462,
            -1.6300237329999572
          ],
          [
            -78.67835760800456,
            -1.630057089999946
          ],
          [
            -78.67835758200461,
            -1.6300796829999478
          ],
          [
            -78.6783575560046,
            -1.6301022759999273
          ],
          [
            -78.67835860600456,
            -1.6301191329999105
          ],
          [
            -78.67835787100456,
            -1.6301381389999294
          ],
          [
            -78.67835465100458,
            -1.6301496109999487
          ],
          [
            -78.6783503550046,
            -1.6301661029999164
          ],
          [
            -78.67835354000462,
            -1.6301858309999402
          ],
          [
            -78.67835742900455,
            -1.6302127319999518
          ],
          [
            -78.67834385300456,
            -1.6302428409998941
          ],
          [
            -78.67833955700458,
            -1.6302600499999162
          ],
          [
            -78.67832561500457,
            -1.6302976889999372
          ],
          [
            -78.6783116910046,
            -1.6303206249999378
          ],
          [
            -78.67828097700462,
            -1.6303776099999037
          ],
          [
            -78.67827239200457,
            -1.6304062899999245
          ],
          [
            -78.67825633200458,
            -1.6304267129999293
          ],
          [
            -78.6782363600046,
            -1.6304399589999308
          ],
          [
            -78.67821957300461,
            -1.6304725739999215
          ],
          [
            -78.67821027300455,
            -1.6305023289999452
          ],
          [
            -78.67820312300456,
            -1.6305227619999023
          ],
          [
            -78.6782027450046,
            -1.6305417689998782
          ],
          [
            -78.67819700400457,
            -1.630575830999905
          ],
          [
            -78.6781923440046,
            -1.6305987779999493
          ],
          [
            -78.67817024900458,
            -1.6305991109999671
          ],
          [
            -78.67815660500457,
            -1.6305965349999139
          ],
          [
            -78.67814787900456,
            -1.6305997059998936
          ],
          [
            -78.67814793200458,
            -1.6306011939999314
          ],
          [
            -78.67814849000456,
            -1.6306170169999332
          ],
          [
            -78.67815486500456,
            -1.6306259119999595
          ],
          [
            -78.6781648560046,
            -1.6306410629999084
          ],
          [
            -78.67816877200457,
            -1.6306446539999544
          ],
          [
            -78.67817444200456,
            -1.6306719159998904
          ],
          [
            -78.67817655900457,
            -1.6306905669999174
          ],
          [
            -78.67813583000459,
            -1.6307807729999548
          ],
          [
            -78.67811736000459,
            -1.6308309589999654
          ],
          [
            -78.67810067900457,
            -1.6308745719998885
          ],
          [
            -78.6780905610046,
            -1.630893088999905
          ],
          [
            -78.67808934800459,
            -1.6309146049998946
          ],
          [
            -78.67807624100462,
            -1.630949854999911
          ],
          [
            -78.67806197000462,
            -1.6309641829999306
          ],
          [
            -78.67806252700458,
            -1.630995861999925
          ],
          [
            -78.67805702400456,
            -1.6310092929999516
          ],
          [
            -78.6780446590046,
            -1.6310394739999228
          ],
          [
            -78.67803607100456,
            -1.6310597549999417
          ],
          [
            -78.6780303440046,
            -1.6310914579999474
          ],
          [
            -78.6780279380046,
            -1.6311183519999135
          ],
          [
            -78.67802016700456,
            -1.6311613769999436
          ],
          [
            -78.67801299000459,
            -1.6312044039999347
          ],
          [
            -78.6779939510046,
            -1.6312330709998857
          ],
          [
            -78.67798201900459,
            -1.6312796789999207
          ],
          [
            -78.6779812642823,
            -1.631285075994784
          ],
          [
            -78.6779748320046,
            -1.631331072999947
          ],
          [
            -78.67796827200462,
            -1.6313549739999555
          ],
          [
            -78.67796409600463,
            -1.6313705089999322
          ],
          [
            -78.67793435900454,
            -1.631405379999895
          ],
          [
            -78.67791758300456,
            -1.6314283129999374
          ],
          [
            -78.6779039990046,
            -1.6314648769998938
          ],
          [
            -78.67789721300456,
            -1.6314784959999222
          ],
          [
            -78.67788899800459,
            -1.6314942659999356
          ],
          [
            -78.67788612400459,
            -1.6315139869999133
          ],
          [
            -78.6778878890046,
            -1.631529409999907
          ],
          [
            -78.67786935000461,
            -1.6315358439998993
          ],
          [
            -78.67785351800457,
            -1.6315541539999179
          ],
          [
            -78.67782724400456,
            -1.6315834919999337
          ],
          [
            -78.67781474300457,
            -1.6316078639999125
          ],
          [
            -78.67779333400456,
            -1.631631507999907
          ],
          [
            -78.67776979400458,
            -1.6316483359999387
          ],
          [
            -78.67776122800458,
            -1.6316708409999099
          ],
          [
            -78.67775726800457,
            -1.6316949419999494
          ],
          [
            -78.6777408450046,
            -1.6317203849998991
          ],
          [
            -78.6777155270046,
            -1.631734341999942
          ],
          [
            -78.67769088300459,
            -1.6317816519999455
          ],
          [
            -78.67766019800459,
            -1.6318146099999247
          ],
          [
            -78.6776393640046,
            -1.6318448599999085
          ],
          [
            -78.6776273560046,
            -1.6318637029999226
          ],
          [
            -78.6776162930046,
            -1.6318773179999078
          ],
          [
            -78.6775945130046,
            -1.6319127959999105
          ],
          [
            -78.67759021900461,
            -1.6319303999999026
          ],
          [
            -78.67757095900461,
            -1.6319428929999444
          ],
          [
            -78.6775627420046,
            -1.631960096999879
          ],
          [
            -78.67756236500459,
            -1.6319783869999123
          ],
          [
            -78.67755664000462,
            -1.6319988219999153
          ],
          [
            -78.67755304200458,
            -1.6320285829999241
          ],
          [
            -78.67755337300459,
            -1.6320504589999485
          ],
          [
            -78.67754942900456,
            -1.632071613999905
          ],
          [
            -78.67754299200462,
            -1.6320909719999328
          ],
          [
            -78.67751552500461,
            -1.632114249999919
          ],
          [
            -78.67750231600459,
            -1.6321346769999308
          ],
          [
            -78.6774919420046,
            -1.6321683749999216
          ],
          [
            -78.67748885500461,
            -1.6321782119999118
          ],
          [
            -78.67748762300454,
            -1.632182137999926
          ],
          [
            -78.6774987750046,
            -1.632202092999883
          ],
          [
            -78.6775093470046,
            -1.6322182439999293
          ],
          [
            -78.6775150160046,
            -1.6322472989999592
          ],
          [
            -78.6774942750046,
            -1.6323093169999507
          ],
          [
            -78.67747283400459,
            -1.6323609329999345
          ],
          [
            -78.67741835303973,
            -1.6324420421760817
          ],
          [
            -78.6774101020046,
            -1.6324543259999498
          ],
          [
            -78.67739827900463,
            -1.6324768369999314
          ],
          [
            -78.67739172200463,
            -1.6324974509999128
          ],
          [
            -78.67737920800458,
            -1.6325332979999292
          ],
          [
            -78.67737621700459,
            -1.6325518239999504
          ],
          [
            -78.67736696200457,
            -1.6325942499999342
          ],
          [
            -78.67736248000458,
            -1.6326175549999333
          ],
          [
            -78.67735414600462,
            -1.6326339819999356
          ],
          [
            -78.67734132900459,
            -1.6326752089999252
          ],
          [
            -78.67732616300461,
            -1.6326925249998863
          ],
          [
            -78.6773017920046,
            -1.6327098299999399
          ],
          [
            -78.67728900000459,
            -1.6327283439998774
          ],
          [
            -78.67727390600461,
            -1.6327644749999182
          ],
          [
            -78.67725890032709,
            -1.6327928675167733
          ]
        ]
      }
    }
  ]
}