{
  "type": "FeatureCollection",
  "features": [
    {
      "type": "Feature",
      "properties": {
        "Id": 0,
        "Distancia": 1670.00181427
      },
      "geometry": {
        "type": "LineString",
        "coordinates": [
          [
            -78.71373266173303,
            -1.6387621255594174
          ],
          [
            -78.71352985079648,
            -1.6390319077291151
          ],
          [
            -78.71333213709637,
            -1.6392711279056609
          ],
          [
            -78.71329149738764,
            -1.639393352203811
          ],
          [
            -78.71286088025175,
            -1.639652682931378
          ],
          [
            -78.71260749502432,
            -1.6398765549323335
          ],
          [
            -78.71240465483358,
            -1.6401718096919773
          ],
          [
            -78.7124042380071,
            -1.6405386220270193
          ],
          [
            -78.71247986453854,
            -1.6408138186881407
          ],
          [
            -78.71260618089941,
            -1.6410330328740093
          ],
          [
            -78.71269701261802,
            -1.6412929632266144
          ],
          [
            -78.71276264128883,
            -1.6414560667390055
          ],
          [
            -78.71272709291334,
            -1.641552823657096
          ],
          [
            -78.7127219376111,
            -1.641634331697183
          ],
          [
            -78.71268631390382,
            -1.641797318624267
          ],
          [
            -78.7126557238194,
            -1.6419857844561545
          ],
          [
            -78.7125944798059,
            -1.6424187568730106
          ],
          [
            -78.71246775203703,
            -1.642561260296294
          ],
          [
            -78.71226005713977,
            -1.6426731026438988
          ],
          [
            -78.71214844760574,
            -1.6428767588718958
          ],
          [
            -78.71192979209287,
            -1.643722213845689
          ],
          [
            -78.7117724388514,
            -1.6440837503759056
          ],
          [
            -78.71176212787255,
            -1.6442467663192024
          ],
          [
            -78.7117063171452,
            -1.6443536889384145
          ],
          [
            -78.71171631466915,
            -1.6444657821101818
          ],
          [
            -78.71146235560254,
            -1.6446589867289887
          ],
          [
            -78.71135019776233,
            -1.6448174507026883
          ],
          [
            -78.71094566251256,
            -1.6449693167827342
          ],
          [
            -78.71054712688309,
            -1.6453152577959902
          ],
          [
            -78.71038725120778,
            -1.645494533975626
          ],
          [
            -78.71009881882061,
            -1.6456653145236935
          ],
          [
            -78.70996181752206,
            -1.645788274660911
          ],
          [
            -78.70979568508692,
            -1.6459988447344103
          ],
          [
            -78.70972497140014,
            -1.6461823972783294
          ],
          [
            -78.70967097077043,
            -1.6462574579589284
          ],
          [
            -78.709604430546,
            -1.6464180610109038
          ],
          [
            -78.70941545446998,
            -1.6466578190447179
          ],
          [
            -78.7092783362317,
            -1.6468830297241048
          ],
          [
            -78.70918281251065,
            -1.6470018641023576
          ],
          [
            -78.70887156020041,
            -1.6471809646213313
          ],
          [
            -78.70863910650137,
            -1.6473601562294562
          ],
          [
            -78.70856226941063,
            -1.6474581446085204
          ],
          [
            -78.70847078316537,
            -1.647672974095107
          ],
          [
            -78.70834833294458,
            -1.64776464936522
          ],
          [
            -78.70829427968931,
            -1.6478856183401418
          ],
          [
            -78.70821531877561,
            -1.6480274259661072
          ],
          [
            -78.7081032081167,
            -1.648144154161288
          ],
          [
            -78.70778783698209,
            -1.648298208345236
          ],
          [
            -78.70772338437443,
            -1.6484462929404147
          ],
          [
            -78.70763825735793,
            -1.6485400980535851
          ],
          [
            -78.70754066456288,
            -1.6486547562045633
          ],
          [
            -78.70744307892006,
            -1.648763154093369
          ],
          [
            -78.70734959994944,
            -1.6489070314697412
          ],
          [
            -78.70726234190026,
            -1.649050916035499
          ],
          [
            -78.70713566301689,
            -1.6492135356120041
          ],
          [
            -78.70705464259372,
            -1.6493428201163116
          ],
          [
            -78.70690344816168,
            -1.6495285891324971
          ],
          [
            -78.70676657587515,
            -1.6496369813693421
          ],
          [
            -78.70663227224212,
            -1.6497274271781828
          ],
          [
            -78.7064785242697,
            -1.6497383603043778
          ],
          [
            -78.70627551799144,
            -1.649744962594848
          ],
          [
            -78.70612088542515,
            -1.6497866650129833
          ],
          [
            -78.70609622737081,
            -1.6498097141587384
          ],
          [
            -78.70598991656823,
            -1.649931817434291
          ],
          [
            -78.70585809832403,
            -1.6500769688339556
          ]
        ]
      }
    },
    {
      "type": "Feature",
      "properties": {
        "Id": 0,
        "Distancia": 1017.91414116
      },
      "geometry": {
        "type": "LineString",
        "coordinates": [
          [
            -78.70468980525925,
            -1.6504380182205076
          ],
          [
            -78.70448000325533,
            -1.6504454670539785
          ],
          [
            -78.70434318684144,
            -1.6505051392525583
          ],
          [
            -78.70418588366263,
            -1.6506536796265305
          ],
          [
            -78.70407625280792,
            -1.6507082549840983
          ],
          [
            -78.70394886867932,
            -1.6506901575857698
          ],
          [
            -78.70380778680891,
            -1.6507660646242712
          ],
          [
            -78.7037762455173,
            -1.6508660314350618
          ],
          [
            -78.70379475884728,
            -1.6510164855362777
          ],
          [
            -78.70377259587565,
            -1.651085692944297
          ],
          [
            -78.70365871915867,
            -1.6511394085621192
          ],
          [
            -78.70348112732506,
            -1.6512041615677155
          ],
          [
            -78.70322592810058,
            -1.651450828396898
          ],
          [
            -78.70307545107444,
            -1.6517060029406063
          ],
          [
            -78.70295858754703,
            -1.651898238621137
          ],
          [
            -78.70277044245607,
            -1.6520903913016285
          ],
          [
            -78.70260501904033,
            -1.6522467044716616
          ],
          [
            -78.70232637312424,
            -1.6522463800903986
          ],
          [
            -78.70208657433778,
            -1.6522754457104623
          ],
          [
            -78.7018012271602,
            -1.65246748493734
          ],
          [
            -78.70136059303273,
            -1.652453929582922
          ],
          [
            -78.70101387969113,
            -1.6524763494101202
          ],
          [
            -78.70074800673102,
            -1.6526390662073505
          ],
          [
            -78.70055046780833,
            -1.652547541144809
          ],
          [
            -78.70031093190845,
            -1.6523483696456163
          ],
          [
            -78.70010365787826,
            -1.6522698753822869
          ],
          [
            -78.69996711512283,
            -1.652061371028865
          ],
          [
            -78.69999905382849,
            -1.6519852840089457
          ],
          [
            -78.69996333811223,
            -1.6518837434125384
          ],
          [
            -78.69985458571183,
            -1.651820847595562
          ],
          [
            -78.69983605353441,
            -1.6517794251064457
          ],
          [
            -78.69982158571716,
            -1.6516658896643839
          ],
          [
            -78.69975138614838,
            -1.6515456117329808
          ],
          [
            -78.6996851172681,
            -1.6514694103070744
          ],
          [
            -78.69956441305992,
            -1.6514131781572474
          ],
          [
            -78.69945567453561,
            -1.651338262776073
          ],
          [
            -78.69942653301462,
            -1.6512901503790676
          ],
          [
            -78.69943856320916,
            -1.6512153756992856
          ],
          [
            -78.69944130810745,
            -1.6511365836645628
          ],
          [
            -78.69940953844186,
            -1.6510657644999138
          ],
          [
            -78.69931276098964,
            -1.6509761724423901
          ],
          [
            -78.69920811294594,
            -1.6508064404925786
          ],
          [
            -78.69914981147363,
            -1.650726241855221
          ],
          [
            -78.69908214944937,
            -1.6507074658759444
          ],
          [
            -78.69904641223087,
            -1.6506246225032155
          ],
          [
            -78.69904516190336,
            -1.6505578454446015
          ],
          [
            -78.69902402001505,
            -1.650477690099317
          ],
          [
            -78.69898178384007,
            -1.6502759785987875
          ],
          [
            -78.69892346394325,
            -1.6502118061107418
          ],
          [
            -78.69884256599074,
            -1.6501622979648325
          ],
          [
            -78.69874970700614,
            -1.6501274665219758
          ],
          [
            -78.69873117944014,
            -1.6500820375463323
          ],
          [
            -78.69873123011898,
            -1.6500379657173594
          ],
          [
            -78.69873533128138,
            -1.6499338005756041
          ],
          [
            -78.69873410550133,
            -1.649845655372028
          ],
          [
            -78.69871296973972,
            -1.6497601580112695
          ],
          [
            -78.69866790884036,
            -1.6497066850789577
          ],
          [
            -78.69861886656228,
            -1.649653207513644
          ],
          [
            -78.6984517483952,
            -1.649566204690594
          ]
        ]
      }
    }
  ]
}