{
  "type": "FeatureCollection",
  "features": [
    {
      "type": "Feature",
      "properties": {
        "ID_CAMARA": "RIO-001-DOMO",
        "TIPO": "DOMO",
        "ESTADO": "No disponible",
        "REQUIERE_CAMBIO": true,
        "INSTITUCION": "ECU 911 Riobamba",
        "DIRECCION": "9 de Octubre y Madrid",
        "LONGITUD": -78.6392299,
        "LATITUD": -1.6881453,
        "X": 762656.0532192701,
        "Y": 9813249.20233353,
        "GEOMETRIA_VALIDA": true,
        "PRECISION": "Ubicación aproximada; requiere verificación de campo"
      },
      "geometry": {
        "type": "Point",
        "coordinates": [
          -78.6392299,
          -1.688145299999996
        ]
      }
    },
    {
      "type": "Feature",
      "properties": {
        "ID_CAMARA": "RIO-002-DOMO",
        "TIPO": "DOMO",
        "ESTADO": "No disponible",
        "REQUIERE_CAMBIO": false,
        "INSTITUCION": "ECU 911 Riobamba",
        "DIRECCION": "Eloy Alfaro y Leopoldo Freire",
        "LONGITUD": -78.6412183,
        "LATITUD": -1.6793959,
        "X": 762435.8723329536,
        "Y": 9814217.375239316,
        "GEOMETRIA_VALIDA": true,
        "PRECISION": "Ubicación aproximada; requiere verificación de campo"
      },
      "geometry": {
        "type": "Point",
        "coordinates": [
          -78.6412183,
          -1.6793959
        ]
      }
    },
    {
      "type": "Feature",
      "properties": {
        "ID_CAMARA": "RIO-003-DOMO",
        "TIPO": "DOMO",
        "ESTADO": "No disponible",
        "REQUIERE_CAMBIO": false,
        "INSTITUCION": "ECU 911 Riobamba",
        "DIRECCION": "Orozco y Loja",
        "LONGITUD": -78.6433677,
        "LATITUD": -1.6755921,
        "X": 762197.103356025,
        "Y": 9814638.459449029,
        "GEOMETRIA_VALIDA": true,
        "PRECISION": "Ubicación aproximada; requiere verificación de campo"
      },
      "geometry": {
        "type": "Point",
        "coordinates": [
          -78.6433677,
          -1.6755921000000018
        ]
      }
    },
    {
      "type": "Feature",
      "properties": {
        "ID_CAMARA": "RIO-004-DOMO",
        "TIPO": "DOMO",
        "ESTADO": "No disponible",
        "REQUIERE_CAMBIO": false,
        "INSTITUCION": "ECU 911 Riobamba",
        "DIRECCION": "Veloz y Pedro Alvarado",
        "LONGITUD": -78.6454987,
        "LATITUD": -1.6746682,
        "X": 761959.998510503,
        "Y": 9814740.951099852,
        "GEOMETRIA_VALIDA": true,
        "PRECISION": "Ubicación aproximada; requiere verificación de campo"
      },
      "geometry": {
        "type": "Point",
        "coordinates": [
          -78.6454987,
          -1.6746682000000064
        ]
      }
    },
    {
      "type": "Feature",
      "properties": {
        "ID_CAMARA": "RIO-005-DOMO",
        "TIPO": "DOMO",
        "ESTADO": "No disponible",
        "REQUIERE_CAMBIO": false,
        "INSTITUCION": "ECU 911 Riobamba",
        "DIRECCION": "Junín y 5 de Junio",
        "LONGITUD": -78.6463505,
        "LATITUD": -1.6709649,
        "X": 761865.6658408721,
        "Y": 9815150.741793936,
        "GEOMETRIA_VALIDA": true,
        "PRECISION": "Ubicación aproximada; requiere verificación de campo"
      },
      "geometry": {
        "type": "Point",
        "coordinates": [
          -78.6463505,
          -1.6709649000000049
        ]
      }
    },
    {
      "type": "Feature",
      "properties": {
        "ID_CAMARA": "RIO-006-DOMO",
        "TIPO": "DOMO",
        "ESTADO": "No disponible",
        "REQUIERE_CAMBIO": false,
        "INSTITUCION": "ECU 911 Riobamba",
        "DIRECCION": "Antonio José de Sucre y Febres Cordero",
        "LONGITUD": -78.6493711,
        "LATITUD": -1.6652495,
        "X": 761530.1614470817,
        "Y": 9815783.408057675,
        "GEOMETRIA_VALIDA": true,
        "PRECISION": "Ubicación aproximada; requiere verificación de campo"
      },
      "geometry": {
        "type": "Point",
        "coordinates": [
          -78.6493711,
          -1.6652494999999965
        ]
      }
    },
    {
      "type": "Feature",
      "properties": {
        "ID_CAMARA": "RIO-007-DOMO",
        "TIPO": "DOMO",
        "ESTADO": "No disponible",
        "REQUIERE_CAMBIO": false,
        "INSTITUCION": "ECU 911 Riobamba",
        "DIRECCION": "Primera Constituyente y 5 de Junio",
        "LONGITUD": -78.6482477,
        "LATITUD": -1.6732781,
        "X": 761654.1585604714,
        "Y": 9814895.097919293,
        "GEOMETRIA_VALIDA": true,
        "PRECISION": "Ubicación aproximada; requiere verificación de campo"
      },
      "geometry": {
        "type": "Point",
        "coordinates": [
          -78.6482477,
          -1.673278099999991
        ]
      }
    },
    {
      "type": "Feature",
      "properties": {
        "ID_CAMARA": "RIO-008-FIJA",
        "TIPO": "FIJA",
        "ESTADO": "No disponible",
        "REQUIERE_CAMBIO": false,
        "INSTITUCION": "ECU 911 Riobamba",
        "DIRECCION": "Primera Constituyente y 5 de Junio",
        "LONGITUD": -78.6482477,
        "LATITUD": -1.6732781,
        "X": 761654.1585604714,
        "Y": 9814895.097919293,
        "GEOMETRIA_VALIDA": true,
        "PRECISION": "Ubicación aproximada; requiere verificación de campo"
      },
      "geometry": {
        "type": "Point",
        "coordinates": [
          -78.6482477,
          -1.673278099999991
        ]
      }
    },
    {
      "type": "Feature",
      "properties": {
        "ID_CAMARA": "RIO-009-DOMO",
        "TIPO": "DOMO",
        "ESTADO": "No disponible",
        "REQUIERE_CAMBIO": false,
        "INSTITUCION": "ECU 911 Riobamba",
        "DIRECCION": "Guayaquil y Cristóbal Colón",
        "LONGITUD": -78.6503284,
        "LATITUD": -1.6734791,
        "X": 761422.5042703482,
        "Y": 9814873.140052114,
        "GEOMETRIA_VALIDA": true,
        "PRECISION": "Ubicación aproximada; requiere verificación de campo"
      },
      "geometry": {
        "type": "Point",
        "coordinates": [
          -78.6503284,
          -1.6734790999999973
        ]
      }
    },
    {
      "type": "Feature",
      "properties": {
        "ID_CAMARA": "RIO-010-DOMO",
        "TIPO": "DOMO",
        "ESTADO": "No disponible",
        "REQUIERE_CAMBIO": true,
        "INSTITUCION": "ECU 911 Riobamba",
        "DIRECCION": "Av. Daniel León Borja y Miguel Ángel León",
        "LONGITUD": -78.6554478,
        "LATITUD": -1.6681118,
        "X": 760853.3128621157,
        "Y": 9815467.57474271,
        "GEOMETRIA_VALIDA": true,
        "PRECISION": "Ubicación aproximada; requiere verificación de campo"
      },
      "geometry": {
        "type": "Point",
        "coordinates": [
          -78.6554478,
          -1.6681117999999993
        ]
      }
    },
    {
      "type": "Feature",
      "properties": {
        "ID_CAMARA": "RIO-011-DOMO",
        "TIPO": "DOMO",
        "ESTADO": "No disponible",
        "REQUIERE_CAMBIO": false,
        "INSTITUCION": "ECU 911 Riobamba",
        "DIRECCION": "Av. Daniel León Borja y Carlos Zambrano",
        "LONGITUD": -78.6588346,
        "LATITUD": -1.665007,
        "X": 760476.6971057958,
        "Y": 9815811.488513537,
        "GEOMETRIA_VALIDA": true,
        "PRECISION": "Ubicación aproximada; requiere verificación de campo"
      },
      "geometry": {
        "type": "Point",
        "coordinates": [
          -78.6588346,
          -1.6650069999999912
        ]
      }
    },
    {
      "type": "Feature",
      "properties": {
        "ID_CAMARA": "RIO-012-DOMO",
        "TIPO": "DOMO",
        "ESTADO": "No disponible",
        "REQUIERE_CAMBIO": false,
        "INSTITUCION": "ECU 911 Riobamba",
        "DIRECCION": "Av. La Prensa y 9 de Julio",
        "LONGITUD": -78.6676,
        "LATITUD": -1.6538,
        "X": 759502.3833512468,
        "Y": 9817052.39841992,
        "GEOMETRIA_VALIDA": true,
        "PRECISION": "Ubicación aproximada; requiere verificación de campo"
      },
      "geometry": {
        "type": "Point",
        "coordinates": [
          -78.6676,
          -1.6538000000000048
        ]
      }
    },
    {
      "type": "Feature",
      "properties": {
        "ID_CAMARA": "RIO-013-DOMO",
        "TIPO": "DOMO",
        "ESTADO": "No disponible",
        "REQUIERE_CAMBIO": false,
        "INSTITUCION": "ECU 911 Riobamba",
        "DIRECCION": "Av. 9 de Octubre y Carabobo",
        "LONGITUD": -78.6590999,
        "LATITUD": -1.6766643,
        "X": 760445.6263630869,
        "Y": 9814521.949116861,
        "GEOMETRIA_VALIDA": true,
        "PRECISION": "Ubicación aproximada; requiere verificación de campo"
      },
      "geometry": {
        "type": "Point",
        "coordinates": [
          -78.6590999,
          -1.6766643000000028
        ]
      }
    },
    {
      "type": "Feature",
      "properties": {
        "ID_CAMARA": "RIO-014-DOMO",
        "TIPO": "DOMO",
        "ESTADO": "No disponible",
        "REQUIERE_CAMBIO": false,
        "INSTITUCION": "ECU 911 Riobamba",
        "DIRECCION": "Pedro Vicente Maldonado y Av. 11 de Noviembre",
        "LONGITUD": -78.6751166,
        "LATITUD": -1.6619773,
        "X": 758664.5630021482,
        "Y": 9816148.787143875,
        "GEOMETRIA_VALIDA": true,
        "PRECISION": "Ubicación aproximada; requiere verificación de campo"
      },
      "geometry": {
        "type": "Point",
        "coordinates": [
          -78.6751166,
          -1.6619772999999962
        ]
      }
    },
    {
      "type": "Feature",
      "properties": {
        "ID_CAMARA": "RIO-015-DOMO",
        "TIPO": "DOMO",
        "ESTADO": "No disponible",
        "REQUIERE_CAMBIO": true,
        "INSTITUCION": "ECU 911 Riobamba",
        "DIRECCION": "Av. Antonio José de Sucre y Víctor Emilio Estrada",
        "LONGITUD": -78.6447431,
        "LATITUD": -1.6541684,
        "X": 762046.8228275932,
        "Y": 9817008.638471425,
        "GEOMETRIA_VALIDA": true,
        "PRECISION": "Ubicación aproximada; requiere verificación de campo"
      },
      "geometry": {
        "type": "Point",
        "coordinates": [
          -78.6447431,
          -1.6541683999999959
        ]
      }
    },
    {
      "type": "Feature",
      "properties": {
        "ID_CAMARA": "RIO-016-DOMO",
        "TIPO": "DOMO",
        "ESTADO": "No disponible",
        "REQUIERE_CAMBIO": false,
        "INSTITUCION": "ECU 911 Riobamba",
        "DIRECCION": "Leopoldo Freire y Calle V",
        "LONGITUD": null,
        "LATITUD": null,
        "X": null,
        "Y": null,
        "GEOMETRIA_VALIDA": false,
        "PRECISION": "Pendiente de ubicación"
      },
      "geometry": null
    },
    {
      "type": "Feature",
      "properties": {
        "ID_CAMARA": "RIO-017-FIJA",
        "TIPO": "FIJA",
        "ESTADO": "No disponible",
        "REQUIERE_CAMBIO": false,
        "INSTITUCION": "ECU 911 Riobamba",
        "DIRECCION": "Leopoldo Freire y Calle V",
        "LONGITUD": null,
        "LATITUD": null,
        "X": null,
        "Y": null,
        "GEOMETRIA_VALIDA": false,
        "PRECISION": "Pendiente de ubicación"
      },
      "geometry": null
    },
    {
      "type": "Feature",
      "properties": {
        "ID_CAMARA": "RIO-018-DOMO",
        "TIPO": "DOMO",
        "ESTADO": "No disponible",
        "REQUIERE_CAMBIO": false,
        "INSTITUCION": "ECU 911 Riobamba",
        "DIRECCION": "Colombia y Carabobo",
        "LONGITUD": -78.655617,
        "LATITUD": -1.6727593,
        "X": 760833.8636428429,
        "Y": 9814953.471935354,
        "GEOMETRIA_VALIDA": true,
        "PRECISION": "Ubicación aproximada; requiere verificación de campo"
      },
      "geometry": {
        "type": "Point",
        "coordinates": [
          -78.655617,
          -1.6727592999999932
        ]
      }
    },
    {
      "type": "Feature",
      "properties": {
        "ID_CAMARA": "RIO-019-DOMO",
        "TIPO": "DOMO",
        "ESTADO": "No disponible",
        "REQUIERE_CAMBIO": true,
        "INSTITUCION": "ECU 911 Riobamba",
        "DIRECCION": "10 de Agosto y Morona",
        "LONGITUD": -78.6459199,
        "LATITUD": -1.6763203,
        "X": 761912.8899217033,
        "Y": 9814558.244167427,
        "GEOMETRIA_VALIDA": true,
        "PRECISION": "Ubicación aproximada; requiere verificación de campo"
      },
      "geometry": {
        "type": "Point",
        "coordinates": [
          -78.6459199,
          -1.676320299999996
        ]
      }
    },
    {
      "type": "Feature",
      "properties": {
        "ID_CAMARA": "RIO-020-DOMO",
        "TIPO": "DOMO",
        "ESTADO": "No disponible",
        "REQUIERE_CAMBIO": false,
        "INSTITUCION": "ECU 911 Riobamba",
        "DIRECCION": "Daniel León Borja y La Prensa",
        "LONGITUD": -78.6628173,
        "LATITUD": -1.6617684,
        "X": 760033.7613197386,
        "Y": 9816170.279908916,
        "GEOMETRIA_VALIDA": true,
        "PRECISION": "Ubicación aproximada; requiere verificación de campo"
      },
      "geometry": {
        "type": "Point",
        "coordinates": [
          -78.6628173,
          -1.6617683999999961
        ]
      }
    },
    {
      "type": "Feature",
      "properties": {
        "ID_CAMARA": "RIO-021-DOMO",
        "TIPO": "DOMO",
        "ESTADO": "No disponible",
        "REQUIERE_CAMBIO": true,
        "INSTITUCION": "ECU 911 Riobamba",
        "DIRECCION": "José de Orozco y Cristóbal Colón",
        "LONGITUD": -78.6484097,
        "LATITUD": -1.6711707,
        "X": 761636.4037680945,
        "Y": 9815128.24987322,
        "GEOMETRIA_VALIDA": true,
        "PRECISION": "Ubicación aproximada; requiere verificación de campo"
      },
      "geometry": {
        "type": "Point",
        "coordinates": [
          -78.6484097,
          -1.6711707000000067
        ]
      }
    },
    {
      "type": "Feature",
      "properties": {
        "ID_CAMARA": "RIO-022-DOMO",
        "TIPO": "DOMO",
        "ESTADO": "No disponible",
        "REQUIERE_CAMBIO": false,
        "INSTITUCION": "ECU 911 Riobamba",
        "DIRECCION": "Argentinos y Juan Lavalle",
        "LONGITUD": -78.6524676,
        "LATITUD": -1.6665448,
        "X": 761185.2811592426,
        "Y": 9815640.527345859,
        "GEOMETRIA_VALIDA": true,
        "PRECISION": "Ubicación aproximada; requiere verificación de campo"
      },
      "geometry": {
        "type": "Point",
        "coordinates": [
          -78.6524676,
          -1.6665447999999976
        ]
      }
    },
    {
      "type": "Feature",
      "properties": {
        "ID_CAMARA": "RIO-023-DOMO",
        "TIPO": "DOMO",
        "ESTADO": "No disponible",
        "REQUIERE_CAMBIO": false,
        "INSTITUCION": "ECU 911 Riobamba",
        "DIRECCION": "Unidad Nacional y Duchicela",
        "LONGITUD": -78.6619135,
        "LATITUD": -1.6674792,
        "X": 760133.6244592819,
        "Y": 9815538.411880845,
        "GEOMETRIA_VALIDA": true,
        "PRECISION": "Ubicación aproximada; requiere verificación de campo"
      },
      "geometry": {
        "type": "Point",
        "coordinates": [
          -78.6619135,
          -1.6674792000000005
        ]
      }
    },
    {
      "type": "Feature",
      "properties": {
        "ID_CAMARA": "RIO-024-DOMO",
        "TIPO": "DOMO",
        "ESTADO": "No disponible",
        "REQUIERE_CAMBIO": false,
        "INSTITUCION": "ECU 911 Riobamba",
        "DIRECCION": "Av. 9 de Octubre y Duchicela",
        "LONGITUD": -78.6634434,
        "LATITUD": -1.6714826,
        "X": 759962.7876273614,
        "Y": 9815095.744344674,
        "GEOMETRIA_VALIDA": true,
        "PRECISION": "Ubicación aproximada; requiere verificación de campo"
      },
      "geometry": {
        "type": "Point",
        "coordinates": [
          -78.6634434,
          -1.6714825999999954
        ]
      }
    },
    {
      "type": "Feature",
      "properties": {
        "ID_CAMARA": "RIO-025-DOMO",
        "TIPO": "DOMO",
        "ESTADO": "No disponible",
        "REQUIERE_CAMBIO": false,
        "INSTITUCION": "ECU 911 Riobamba",
        "DIRECCION": "Canónigo Ramos y Teófilo Sáenz",
        "LONGITUD": -78.6686315,
        "LATITUD": -1.6574059,
        "X": 759387.0859403042,
        "Y": 9816653.637890194,
        "GEOMETRIA_VALIDA": true,
        "PRECISION": "Ubicación aproximada; requiere verificación de campo"
      },
      "geometry": {
        "type": "Point",
        "coordinates": [
          -78.6686315,
          -1.657405899999996
        ]
      }
    },
    {
      "type": "Feature",
      "properties": {
        "ID_CAMARA": "RIO-026-DOMO",
        "TIPO": "DOMO",
        "ESTADO": "No disponible",
        "REQUIERE_CAMBIO": false,
        "INSTITUCION": "ECU 911 Riobamba",
        "DIRECCION": "11 de Noviembre y Lizarzaburu",
        "LONGITUD": -78.6675829,
        "LATITUD": -1.6524312,
        "X": 759504.4648748672,
        "Y": 9817203.817056961,
        "GEOMETRIA_VALIDA": true,
        "PRECISION": "Ubicación aproximada; requiere verificación de campo"
      },
      "geometry": {
        "type": "Point",
        "coordinates": [
          -78.6675829,
          -1.6524312000000005
        ]
      }
    },
    {
      "type": "Feature",
      "properties": {
        "ID_CAMARA": "RIO-027-DOMO",
        "TIPO": "DOMO",
        "ESTADO": "No disponible",
        "REQUIERE_CAMBIO": false,
        "INSTITUCION": "ECU 911 Riobamba",
        "DIRECCION": "Alfonso Chávez y Circunvalación",
        "LONGITUD": -78.6768,
        "LATITUD": -1.6848,
        "X": 758474.1749956862,
        "Y": 9813624.30646858,
        "GEOMETRIA_VALIDA": true,
        "PRECISION": "Ubicación aproximada; requiere verificación de campo"
      },
      "geometry": {
        "type": "Point",
        "coordinates": [
          -78.6768,
          -1.6847999999999952
        ]
      }
    },
    {
      "type": "Feature",
      "properties": {
        "ID_CAMARA": "RIO-028-DOMO",
        "TIPO": "DOMO",
        "ESTADO": "No disponible",
        "REQUIERE_CAMBIO": true,
        "INSTITUCION": "ECU 911 Riobamba",
        "DIRECCION": "Panamericana Sur y Bypass",
        "LONGITUD": -78.6579,
        "LATITUD": -1.6944,
        "X": 760576.8401318066,
        "Y": 9812559.797368415,
        "GEOMETRIA_VALIDA": true,
        "PRECISION": "Ubicación aproximada; requiere verificación de campo"
      },
      "geometry": {
        "type": "Point",
        "coordinates": [
          -78.6579,
          -1.6943999999999946
        ]
      }
    },
    {
      "type": "Feature",
      "properties": {
        "ID_CAMARA": "RIO-029-DOMO",
        "TIPO": "DOMO",
        "ESTADO": "No disponible",
        "REQUIERE_CAMBIO": false,
        "INSTITUCION": "ECU 911 Riobamba",
        "DIRECCION": "Av. Atahualpa y San Andrés",
        "LONGITUD": -78.6606369,
        "LATITUD": -1.6782741,
        "X": 760274.3131066,
        "Y": 9814344.071743675,
        "GEOMETRIA_VALIDA": true,
        "PRECISION": "Ubicación aproximada; requiere verificación de campo"
      },
      "geometry": {
        "type": "Point",
        "coordinates": [
          -78.6606369,
          -1.6782741000000045
        ]
      }
    },
    {
      "type": "Feature",
      "properties": {
        "ID_CAMARA": "RIO-030-DOMO",
        "TIPO": "DOMO",
        "ESTADO": "No disponible",
        "REQUIERE_CAMBIO": false,
        "INSTITUCION": "ECU 911 Riobamba",
        "DIRECCION": "Avenida Circunvalación",
        "LONGITUD": -78.6684,
        "LATITUD": -1.6816,
        "X": 759409.6818999262,
        "Y": 9813977.182822663,
        "GEOMETRIA_VALIDA": true,
        "PRECISION": "Ubicación aproximada; requiere verificación de campo"
      },
      "geometry": {
        "type": "Point",
        "coordinates": [
          -78.6684,
          -1.681599999999998
        ]
      }
    },
    {
      "type": "Feature",
      "properties": {
        "ID_CAMARA": "RIO-031-DOMO",
        "TIPO": "DOMO",
        "ESTADO": "No disponible",
        "REQUIERE_CAMBIO": false,
        "INSTITUCION": "ECU 911 Riobamba",
        "DIRECCION": "Av. Circunvalación y Juan Félix Proaño",
        "LONGITUD": -78.6662,
        "LATITUD": -1.6752,
        "X": 759655.4311857853,
        "Y": 9814684.878637426,
        "GEOMETRIA_VALIDA": true,
        "PRECISION": "Ubicación aproximada; requiere verificación de campo"
      },
      "geometry": {
        "type": "Point",
        "coordinates": [
          -78.6662,
          -1.6752000000000016
        ]
      }
    },
    {
      "type": "Feature",
      "properties": {
        "ID_CAMARA": "RIO-032-DOMO",
        "TIPO": "DOMO",
        "ESTADO": "No disponible",
        "REQUIERE_CAMBIO": false,
        "INSTITUCION": "ECU 911 Riobamba",
        "DIRECCION": "Ricardo Descalzi y Agustín Cueva",
        "LONGITUD": -78.6665464,
        "LATITUD": -1.6485161,
        "X": 759620.3581709906,
        "Y": 9817636.782241989,
        "GEOMETRIA_VALIDA": true,
        "PRECISION": "Ubicación aproximada; requiere verificación de campo"
      },
      "geometry": {
        "type": "Point",
        "coordinates": [
          -78.6665464,
          -1.6485160999999944
        ]
      }
    },
    {
      "type": "Feature",
      "properties": {
        "ID_CAMARA": "RIO-033-DOMO",
        "TIPO": "DOMO",
        "ESTADO": "No disponible",
        "REQUIERE_CAMBIO": false,
        "INSTITUCION": "ECU 911 Riobamba",
        "DIRECCION": "Av. Cordobés y Espejo",
        "LONGITUD": -78.6433913,
        "LATITUD": -1.6662228,
        "X": 762195.7199290388,
        "Y": 9815674.941617142,
        "GEOMETRIA_VALIDA": true,
        "PRECISION": "Ubicación aproximada; requiere verificación de campo"
      },
      "geometry": {
        "type": "Point",
        "coordinates": [
          -78.6433913,
          -1.6662228000000072
        ]
      }
    },
    {
      "type": "Feature",
      "properties": {
        "ID_CAMARA": "RIO-034-DOMO",
        "TIPO": "DOMO",
        "ESTADO": "No disponible",
        "REQUIERE_CAMBIO": false,
        "INSTITUCION": "ECU 911 Riobamba",
        "DIRECCION": "Olmedo y Pichincha",
        "LONGITUD": -78.6530628,
        "LATITUD": -1.672098,
        "X": 761118.2887956786,
        "Y": 9815026.287756965,
        "GEOMETRIA_VALIDA": true,
        "PRECISION": "Ubicación aproximada; requiere verificación de campo"
      },
      "geometry": {
        "type": "Point",
        "coordinates": [
          -78.6530628,
          -1.6720979999999932
        ]
      }
    },
    {
      "type": "Feature",
      "properties": {
        "ID_CAMARA": "RIO-035-DOMO",
        "TIPO": "DOMO",
        "ESTADO": "No disponible",
        "REQUIERE_CAMBIO": true,
        "INSTITUCION": "ECU 911 Riobamba",
        "DIRECCION": "Plácido Camacho y Lizardo García",
        "LONGITUD": -78.6411783,
        "LATITUD": -1.6613904,
        "X": 762442.7169794209,
        "Y": 9816209.231849175,
        "GEOMETRIA_VALIDA": true,
        "PRECISION": "Ubicación aproximada; requiere verificación de campo"
      },
      "geometry": {
        "type": "Point",
        "coordinates": [
          -78.64117830000002,
          -1.6613904000000042
        ]
      }
    },
    {
      "type": "Feature",
      "properties": {
        "ID_CAMARA": "RIO-036-DOMO",
        "TIPO": "DOMO",
        "ESTADO": "No disponible",
        "REQUIERE_CAMBIO": false,
        "INSTITUCION": "ECU 911 Riobamba",
        "DIRECCION": "10 de Agosto y España",
        "LONGITUD": -78.6509694,
        "LATITUD": -1.6718886,
        "X": 761351.3576400455,
        "Y": 9815049.173685692,
        "GEOMETRIA_VALIDA": true,
        "PRECISION": "Ubicación aproximada; requiere verificación de campo"
      },
      "geometry": {
        "type": "Point",
        "coordinates": [
          -78.6509694,
          -1.671888599999992
        ]
      }
    },
    {
      "type": "Feature",
      "properties": {
        "ID_CAMARA": "RIO-037-DOMO",
        "TIPO": "DOMO",
        "ESTADO": "No disponible",
        "REQUIERE_CAMBIO": false,
        "INSTITUCION": "ECU 911 Riobamba",
        "DIRECCION": "Primera Constituyente y Carabobo",
        "LONGITUD": -78.6527806,
        "LATITUD": -1.6693044,
        "X": 761150.0731201706,
        "Y": 9815335.29015152,
        "GEOMETRIA_VALIDA": true,
        "PRECISION": "Ubicación aproximada; requiere verificación de campo"
      },
      "geometry": {
        "type": "Point",
        "coordinates": [
          -78.6527806,
          -1.6693043999999926
        ]
      }
    },
    {
      "type": "Feature",
      "properties": {
        "ID_CAMARA": "RIO-038-DOMO",
        "TIPO": "DOMO",
        "ESTADO": "No disponible",
        "REQUIERE_CAMBIO": false,
        "INSTITUCION": "ECU 911 Riobamba",
        "DIRECCION": "José Veloz y Diego de Ibarra",
        "LONGITUD": -78.6549171,
        "LATITUD": -1.6664665,
        "X": 760912.6082147883,
        "Y": 9815649.514151668,
        "GEOMETRIA_VALIDA": true,
        "PRECISION": "Ubicación aproximada; requiere verificación de campo"
      },
      "geometry": {
        "type": "Point",
        "coordinates": [
          -78.6549171,
          -1.6664664999999959
        ]
      }
    },
    {
      "type": "Feature",
      "properties": {
        "ID_CAMARA": "RIO-039-DOMO",
        "TIPO": "DOMO",
        "ESTADO": "No disponible",
        "REQUIERE_CAMBIO": false,
        "INSTITUCION": "ECU 911 Riobamba",
        "DIRECCION": "Eplicachima y Rey Cacha",
        "LONGITUD": -78.6634234,
        "LATITUD": -1.664174,
        "X": 759965.9742245042,
        "Y": 9815904.244058022,
        "GEOMETRIA_VALIDA": true,
        "PRECISION": "Ubicación aproximada; requiere verificación de campo"
      },
      "geometry": {
        "type": "Point",
        "coordinates": [
          -78.6634234,
          -1.6641740000000065
        ]
      }
    },
    {
      "type": "Feature",
      "properties": {
        "ID_CAMARA": "RIO-040-DOMO",
        "TIPO": "DOMO",
        "ESTADO": "No disponible",
        "REQUIERE_CAMBIO": false,
        "INSTITUCION": "ECU 911 Riobamba",
        "DIRECCION": "Av. de los Héroes y Comandante Jiménez",
        "LONGITUD": -78.6501535,
        "LATITUD": -1.6630936,
        "X": 761443.3470273481,
        "Y": 9816022.007246716,
        "GEOMETRIA_VALIDA": true,
        "PRECISION": "Ubicación aproximada; requiere verificación de campo"
      },
      "geometry": {
        "type": "Point",
        "coordinates": [
          -78.6501535,
          -1.6630936
        ]
      }
    },
    {
      "type": "Feature",
      "properties": {
        "ID_CAMARA": "RIO-041-DOMO",
        "TIPO": "DOMO",
        "ESTADO": "No disponible",
        "REQUIERE_CAMBIO": false,
        "INSTITUCION": "ECU 911 Riobamba",
        "DIRECCION": "Av. José Lizarzaburu y Monseñor Leónidas Proaño",
        "LONGITUD": -78.6737118,
        "LATITUD": -1.6450764,
        "X": 758823.1378285004,
        "Y": 9818018.224423923,
        "GEOMETRIA_VALIDA": true,
        "PRECISION": "Ubicación aproximada; requiere verificación de campo"
      },
      "geometry": {
        "type": "Point",
        "coordinates": [
          -78.6737118,
          -1.645076399999993
        ]
      }
    },
    {
      "type": "Feature",
      "properties": {
        "ID_CAMARA": "RIO-042-DOMO",
        "TIPO": "DOMO",
        "ESTADO": "No disponible",
        "REQUIERE_CAMBIO": false,
        "INSTITUCION": "ECU 911 Riobamba",
        "DIRECCION": "Avenida Canónigo Ramos y Canal de Riego",
        "LONGITUD": -78.6656,
        "LATITUD": -1.6558,
        "X": 759724.7662822009,
        "Y": 9816830.89010779,
        "GEOMETRIA_VALIDA": true,
        "PRECISION": "Ubicación aproximada; requiere verificación de campo"
      },
      "geometry": {
        "type": "Point",
        "coordinates": [
          -78.6656,
          -1.6558000000000068
        ]
      }
    },
    {
      "type": "Feature",
      "properties": {
        "ID_CAMARA": "RIO-043-DOMO",
        "TIPO": "DOMO",
        "ESTADO": "No disponible",
        "REQUIERE_CAMBIO": false,
        "INSTITUCION": "ECU 911 Riobamba",
        "DIRECCION": "Avenida Antonio Lizarzaburu y Agustín Torres",
        "LONGITUD": -78.6639236,
        "LATITUD": -1.6571419,
        "X": 759911.2109717819,
        "Y": 9816682.22469568,
        "GEOMETRIA_VALIDA": true,
        "PRECISION": "Ubicación aproximada; requiere verificación de campo"
      },
      "geometry": {
        "type": "Point",
        "coordinates": [
          -78.6639236,
          -1.6571418999999923
        ]
      }
    },
    {
      "type": "Feature",
      "properties": {
        "ID_CAMARA": "RIO-044-DOMO",
        "TIPO": "DOMO",
        "ESTADO": "No disponible",
        "REQUIERE_CAMBIO": true,
        "INSTITUCION": "GADM Riobamba",
        "DIRECCION": "Cristóbal Colón y Padre Lobato",
        "LONGITUD": -78.676355,
        "LATITUD": -1.6891253,
        "X": 758523.1404483018,
        "Y": 9813145.772213116,
        "GEOMETRIA_VALIDA": true,
        "PRECISION": "Ubicación aproximada; requiere verificación de campo"
      },
      "geometry": {
        "type": "Point",
        "coordinates": [
          -78.676355,
          -1.6891252999999968
        ]
      }
    },
    {
      "type": "Feature",
      "properties": {
        "ID_CAMARA": "RIO-045-DOMO",
        "TIPO": "DOMO",
        "ESTADO": "No disponible",
        "REQUIERE_CAMBIO": true,
        "INSTITUCION": "GADM Riobamba",
        "DIRECCION": "Calle Puná y Sangay",
        "LONGITUD": -78.657373,
        "LATITUD": -1.6624553,
        "X": 760639.7402434571,
        "Y": 9816093.574176164,
        "GEOMETRIA_VALIDA": true,
        "PRECISION": "Ubicación aproximada; requiere verificación de campo"
      },
      "geometry": {
        "type": "Point",
        "coordinates": [
          -78.657373,
          -1.6624553000000024
        ]
      }
    },
    {
      "type": "Feature",
      "properties": {
        "ID_CAMARA": "RIO-046-DOMO",
        "TIPO": "DOMO",
        "ESTADO": "No disponible",
        "REQUIERE_CAMBIO": false,
        "INSTITUCION": "GADM Riobamba",
        "DIRECCION": "Av. Leopoldo Freire y Bucarest",
        "LONGITUD": -78.6341416,
        "LATITUD": -1.6862516,
        "X": 763222.7485519395,
        "Y": 9813458.005667772,
        "GEOMETRIA_VALIDA": true,
        "PRECISION": "Ubicación aproximada; requiere verificación de campo"
      },
      "geometry": {
        "type": "Point",
        "coordinates": [
          -78.6341416,
          -1.6862515999999919
        ]
      }
    },
    {
      "type": "Feature",
      "properties": {
        "ID_CAMARA": "RIO-047-DOMO",
        "TIPO": "DOMO",
        "ESTADO": "No disponible",
        "REQUIERE_CAMBIO": false,
        "INSTITUCION": "GADM Riobamba",
        "DIRECCION": "Monseñor Proaño y Manuel Benjamín Carrión",
        "LONGITUD": -78.6665928,
        "LATITUD": -1.6439919,
        "X": 759615.7787194628,
        "Y": 9818137.269570343,
        "GEOMETRIA_VALIDA": true,
        "PRECISION": "Ubicación aproximada; requiere verificación de campo"
      },
      "geometry": {
        "type": "Point",
        "coordinates": [
          -78.6665928,
          -1.6439919000000034
        ]
      }
    },
    {
      "type": "Feature",
      "properties": {
        "ID_CAMARA": "RIO-048-DOMO",
        "TIPO": "DOMO",
        "ESTADO": "No disponible",
        "REQUIERE_CAMBIO": false,
        "INSTITUCION": "GADM Riobamba",
        "DIRECCION": "Londres y Juan Félix Proaño",
        "LONGITUD": -78.6431903,
        "LATITUD": -1.6837153,
        "X": 762215.7678426617,
        "Y": 9813739.806317566,
        "GEOMETRIA_VALIDA": true,
        "PRECISION": "Ubicación aproximada; requiere verificación de campo"
      },
      "geometry": {
        "type": "Point",
        "coordinates": [
          -78.6431903,
          -1.6837152999999938
        ]
      }
    },
    {
      "type": "Feature",
      "properties": {
        "ID_CAMARA": "RIO-049-DOMO",
        "TIPO": "DOMO",
        "ESTADO": "No disponible",
        "REQUIERE_CAMBIO": true,
        "INSTITUCION": "GADM Riobamba",
        "DIRECCION": "Teniente Hugo Ortiz y Panamericana",
        "LONGITUD": -78.6810774,
        "LATITUD": -1.6358227,
        "X": 758004.3761933675,
        "Y": 9819042.842029743,
        "GEOMETRIA_VALIDA": true,
        "PRECISION": "Ubicación aproximada; requiere verificación de campo"
      },
      "geometry": {
        "type": "Point",
        "coordinates": [
          -78.6810774,
          -1.6358227
        ]
      }
    },
    {
      "type": "Feature",
      "properties": {
        "ID_CAMARA": "RIO-050-DOMO",
        "TIPO": "DOMO",
        "ESTADO": "No disponible",
        "REQUIERE_CAMBIO": true,
        "INSTITUCION": "GADM Riobamba",
        "DIRECCION": "Jaime Roldós y José María Velasco Ibarra",
        "LONGITUD": -78.6440718,
        "LATITUD": -1.6580964,
        "X": 762121.0375732926,
        "Y": 9816574.014916088,
        "GEOMETRIA_VALIDA": true,
        "PRECISION": "Ubicación aproximada; requiere verificación de campo"
      },
      "geometry": {
        "type": "Point",
        "coordinates": [
          -78.6440718,
          -1.6580964000000051
        ]
      }
    },
    {
      "type": "Feature",
      "properties": {
        "ID_CAMARA": "RIO-051-DOMO",
        "TIPO": "DOMO",
        "ESTADO": "No disponible",
        "REQUIERE_CAMBIO": true,
        "INSTITUCION": "GADM Riobamba",
        "DIRECCION": "Parque Ricpamba",
        "LONGITUD": -78.6702,
        "LATITUD": -1.6562,
        "X": 759212.6354528787,
        "Y": 9816787.243559074,
        "GEOMETRIA_VALIDA": true,
        "PRECISION": "Ubicación aproximada; requiere verificación de campo"
      },
      "geometry": {
        "type": "Point",
        "coordinates": [
          -78.6702,
          -1.6561999999999966
        ]
      }
    },
    {
      "type": "Feature",
      "properties": {
        "ID_CAMARA": "RIO-052-DOMO",
        "TIPO": "DOMO",
        "ESTADO": "No disponible",
        "REQUIERE_CAMBIO": true,
        "INSTITUCION": "GADM Riobamba",
        "DIRECCION": "Puruhá y Buenos Aires",
        "LONGITUD": -78.6495213,
        "LATITUD": -1.6647166,
        "X": 761513.511127458,
        "Y": 9815842.379813194,
        "GEOMETRIA_VALIDA": true,
        "PRECISION": "Ubicación aproximada; requiere verificación de campo"
      },
      "geometry": {
        "type": "Point",
        "coordinates": [
          -78.6495213,
          -1.664716600000005
        ]
      }
    },
    {
      "type": "Feature",
      "properties": {
        "ID_CAMARA": "RIO-053-DOMO",
        "TIPO": "DOMO",
        "ESTADO": "No disponible",
        "REQUIERE_CAMBIO": true,
        "INSTITUCION": "GADM Riobamba",
        "DIRECCION": "Orozco y Miguel Ángel León",
        "LONGITUD": -78.6539232,
        "LATITUD": -1.6663499,
        "X": 761023.2664737264,
        "Y": 9815662.28113194,
        "GEOMETRIA_VALIDA": true,
        "PRECISION": "Ubicación aproximada; requiere verificación de campo"
      },
      "geometry": {
        "type": "Point",
        "coordinates": [
          -78.6539232,
          -1.6663499000000073
        ]
      }
    },
    {
      "type": "Feature",
      "properties": {
        "ID_CAMARA": "RIO-054-DOMO",
        "TIPO": "DOMO",
        "ESTADO": "No disponible",
        "REQUIERE_CAMBIO": true,
        "INSTITUCION": "GADM Riobamba",
        "DIRECCION": "Rocafuerte y Chile",
        "LONGITUD": -78.6545612,
        "LATITUD": -1.6727285,
        "X": 760951.4010051787,
        "Y": 9814956.738663523,
        "GEOMETRIA_VALIDA": true,
        "PRECISION": "Ubicación aproximada; requiere verificación de campo"
      },
      "geometry": {
        "type": "Point",
        "coordinates": [
          -78.6545612,
          -1.672728500000005
        ]
      }
    },
    {
      "type": "Feature",
      "properties": {
        "ID_CAMARA": "RIO-055-DOMO",
        "TIPO": "DOMO",
        "ESTADO": "No disponible",
        "REQUIERE_CAMBIO": true,
        "INSTITUCION": "GADM Riobamba",
        "DIRECCION": "Edelberto Bonilla y Araujo Chiriboga",
        "LONGITUD": -78.6383234,
        "LATITUD": -1.666607,
        "X": 762759.843072938,
        "Y": 9815631.763489254,
        "GEOMETRIA_VALIDA": true,
        "PRECISION": "Ubicación aproximada; requiere verificación de campo"
      },
      "geometry": {
        "type": "Point",
        "coordinates": [
          -78.6383234,
          -1.6666070000000004
        ]
      }
    },
    {
      "type": "Feature",
      "properties": {
        "ID_CAMARA": "RIO-056-DOMO",
        "TIPO": "DOMO",
        "ESTADO": "No disponible",
        "REQUIERE_CAMBIO": false,
        "INSTITUCION": "GADM Riobamba",
        "DIRECCION": "Leopoldo Freire y Quito",
        "LONGITUD": -78.6375752,
        "LATITUD": -1.6826927,
        "X": 762840.9896786844,
        "Y": 9813852.175132245,
        "GEOMETRIA_VALIDA": true,
        "PRECISION": "Ubicación aproximada; requiere verificación de campo"
      },
      "geometry": {
        "type": "Point",
        "coordinates": [
          -78.6375752,
          -1.682692700000007
        ]
      }
    },
    {
      "type": "Feature",
      "properties": {
        "ID_CAMARA": "RIO-057-DOMO",
        "TIPO": "DOMO",
        "ESTADO": "No disponible",
        "REQUIERE_CAMBIO": true,
        "INSTITUCION": "GADM Riobamba",
        "DIRECCION": "La Opinión y Patria Libre",
        "LONGITUD": -78.6567,
        "LATITUD": -1.6617,
        "X": 760714.7591022644,
        "Y": 9816177.039516756,
        "GEOMETRIA_VALIDA": true,
        "PRECISION": "Ubicación aproximada; requiere verificación de campo"
      },
      "geometry": {
        "type": "Point",
        "coordinates": [
          -78.6567,
          -1.661700000000002
        ]
      }
    },
    {
      "type": "Feature",
      "properties": {
        "ID_CAMARA": "RIO-058-DOMO",
        "TIPO": "DOMO",
        "ESTADO": "No disponible",
        "REQUIERE_CAMBIO": true,
        "INSTITUCION": "MINEDUC",
        "DIRECCION": "Av. 9 de Octubre y Pichincha",
        "LONGITUD": -78.6578568,
        "LATITUD": -1.6780486,
        "X": 760583.8262256872,
        "Y": 9814368.646921998,
        "GEOMETRIA_VALIDA": true,
        "PRECISION": "Ubicación aproximada; requiere verificación de campo"
      },
      "geometry": {
        "type": "Point",
        "coordinates": [
          -78.6578568,
          -1.6780485999999952
        ]
      }
    },
    {
      "type": "Feature",
      "properties": {
        "ID_CAMARA": "RIO-059-DOMO",
        "TIPO": "DOMO",
        "ESTADO": "No disponible",
        "REQUIERE_CAMBIO": false,
        "INSTITUCION": "MINEDUC",
        "DIRECCION": "La Paz y México",
        "LONGITUD": -78.6604,
        "LATITUD": -1.6648,
        "X": 760302.4614212686,
        "Y": 9815834.594553174,
        "GEOMETRIA_VALIDA": true,
        "PRECISION": "Ubicación aproximada; requiere verificación de campo"
      },
      "geometry": {
        "type": "Point",
        "coordinates": [
          -78.6604,
          -1.6648000000000032
        ]
      }
    },
    {
      "type": "Feature",
      "properties": {
        "ID_CAMARA": "RIO-060-DOMO",
        "TIPO": "DOMO",
        "ESTADO": "No disponible",
        "REQUIERE_CAMBIO": true,
        "INSTITUCION": "MINEDUC",
        "DIRECCION": "Pedro Bernan y Cuba",
        "LONGITUD": -78.6669,
        "LATITUD": -1.6614,
        "X": 759579.3176420667,
        "Y": 9816211.570938718,
        "GEOMETRIA_VALIDA": true,
        "PRECISION": "Ubicación aproximada; requiere verificación de campo"
      },
      "geometry": {
        "type": "Point",
        "coordinates": [
          -78.6669,
          -1.661399999999995
        ]
      }
    },
    {
      "type": "Feature",
      "properties": {
        "ID_CAMARA": "RIO-061-DOMO",
        "TIPO": "DOMO",
        "ESTADO": "No disponible",
        "REQUIERE_CAMBIO": true,
        "INSTITUCION": "MINEDUC",
        "DIRECCION": "Av. Antonio José de Sucre y Javier Esponosa",
        "LONGITUD": -78.6491421,
        "LATITUD": -1.6755622,
        "X": 761554.2890285414,
        "Y": 9814642.539729705,
        "GEOMETRIA_VALIDA": true,
        "PRECISION": "Ubicación aproximada; requiere verificación de campo"
      },
      "geometry": {
        "type": "Point",
        "coordinates": [
          -78.6491421,
          -1.6755622000000017
        ]
      }
    },
    {
      "type": "Feature",
      "properties": {
        "ID_CAMARA": "RIO-062-DOMO",
        "TIPO": "DOMO",
        "ESTADO": "No disponible",
        "REQUIERE_CAMBIO": true,
        "INSTITUCION": "MINEDUC",
        "DIRECCION": "Gaspar de Villarroel y Bernardo Darquea",
        "LONGITUD": -78.6450853,
        "LATITUD": -1.6800192,
        "X": 762005.3065479054,
        "Y": 9814148.942000723,
        "GEOMETRIA_VALIDA": true,
        "PRECISION": "Ubicación aproximada; requiere verificación de campo"
      },
      "geometry": {
        "type": "Point",
        "coordinates": [
          -78.6450853,
          -1.6800192000000056
        ]
      }
    },
    {
      "type": "Feature",
      "properties": {
        "ID_CAMARA": "RIO-063-DOMO",
        "TIPO": "DOMO",
        "ESTADO": "No disponible",
        "REQUIERE_CAMBIO": true,
        "INSTITUCION": "MINEDUC",
        "DIRECCION": "Av. Barón de Carondelet y Juan de Velasco",
        "LONGITUD": -78.6596,
        "LATITUD": -1.6572,
        "X": 760392.5147098734,
        "Y": 9816675.229109049,
        "GEOMETRIA_VALIDA": true,
        "PRECISION": "Ubicación aproximada; requiere verificación de campo"
      },
      "geometry": {
        "type": "Point",
        "coordinates": [
          -78.6596,
          -1.6572000000000011
        ]
      }
    },
    {
      "type": "Feature",
      "properties": {
        "ID_CAMARA": "RIO-064-DOMO",
        "TIPO": "DOMO",
        "ESTADO": "No disponible",
        "REQUIERE_CAMBIO": true,
        "INSTITUCION": "GADM Riobamba",
        "DIRECCION": "Av. Unidad Nacional y La Valle",
        "LONGITUD": -78.6548457,
        "LATITUD": -1.6695268,
        "X": 760920.1530274841,
        "Y": 9815310.961735355,
        "GEOMETRIA_VALIDA": true,
        "PRECISION": "Ubicación aproximada; requiere verificación de campo"
      },
      "geometry": {
        "type": "Point",
        "coordinates": [
          -78.6548457,
          -1.6695267999999985
        ]
      }
    },
    {
      "type": "Feature",
      "properties": {
        "ID_CAMARA": "RIO-065-DOMO",
        "TIPO": "DOMO",
        "ESTADO": "No disponible",
        "REQUIERE_CAMBIO": false,
        "INSTITUCION": "GADM Riobamba",
        "DIRECCION": "Eduardo Quigman y Aracely Gilbert",
        "LONGITUD": -78.6688,
        "LATITUD": -1.6742,
        "X": 759366.1297111107,
        "Y": 9814795.846290369,
        "GEOMETRIA_VALIDA": true,
        "PRECISION": "Ubicación aproximada; requiere verificación de campo"
      },
      "geometry": {
        "type": "Point",
        "coordinates": [
          -78.6688,
          -1.674199999999992
        ]
      }
    },
    {
      "type": "Feature",
      "properties": {
        "ID_CAMARA": "RIO-066-DOMO",
        "TIPO": "DOMO",
        "ESTADO": "No disponible",
        "REQUIERE_CAMBIO": true,
        "INSTITUCION": "GADM Riobamba",
        "DIRECCION": "Panamericana Norte y Río Coca",
        "LONGITUD": -78.6783881,
        "LATITUD": -1.6391814,
        "X": 758303.3230608662,
        "Y": 9818670.948911503,
        "GEOMETRIA_VALIDA": true,
        "PRECISION": "Ubicación aproximada; requiere verificación de campo"
      },
      "geometry": {
        "type": "Point",
        "coordinates": [
          -78.6783881,
          -1.6391813999999951
        ]
      }
    },
    {
      "type": "Feature",
      "properties": {
        "ID_CAMARA": "RIO-067-DOMO",
        "TIPO": "DOMO",
        "ESTADO": "No disponible",
        "REQUIERE_CAMBIO": false,
        "INSTITUCION": "ECU911",
        "DIRECCION": "Monseñor Leonidas Proaño y Machupichus",
        "LONGITUD": -78.6926925,
        "LATITUD": -1.6519328,
        "X": 756709.3107380704,
        "Y": 9817262.216029553,
        "GEOMETRIA_VALIDA": true,
        "PRECISION": "Ubicación aproximada; requiere verificación de campo"
      },
      "geometry": {
        "type": "Point",
        "coordinates": [
          -78.6926925,
          -1.651932799999994
        ]
      }
    },
    {
      "type": "Feature",
      "properties": {
        "ID_CAMARA": "RIO-068-LA",
        "TIPO": "LA",
        "ESTADO": "No disponible",
        "REQUIERE_CAMBIO": true,
        "INSTITUCION": "ECU911",
        "DIRECCION": "Centro Operativo Local Riobamba",
        "LONGITUD": -78.6546,
        "LATITUD": -1.6636,
        "X": 760948.2857815584,
        "Y": 9815966.576154204,
        "GEOMETRIA_VALIDA": true,
        "PRECISION": "Ubicación aproximada; requiere verificación de campo"
      },
      "geometry": {
        "type": "Point",
        "coordinates": [
          -78.6546,
          -1.663600000000002
        ]
      }
    },
    {
      "type": "Feature",
      "properties": {
        "ID_CAMARA": "RIO-069-DOMO",
        "TIPO": "DOMO",
        "ESTADO": "No disponible",
        "REQUIERE_CAMBIO": true,
        "INSTITUCION": "GADM Riobamba",
        "DIRECCION": "Río Tomebamba y Río Paute",
        "LONGITUD": -78.6763531,
        "LATITUD": -1.6357937,
        "X": 758530.2971692955,
        "Y": 9819045.441494865,
        "GEOMETRIA_VALIDA": true,
        "PRECISION": "Ubicación aproximada; requiere verificación de campo"
      },
      "geometry": {
        "type": "Point",
        "coordinates": [
          -78.6763531,
          -1.6357937
        ]
      }
    },
    {
      "type": "Feature",
      "properties": {
        "ID_CAMARA": "RIO-070-DOMO",
        "TIPO": "DOMO",
        "ESTADO": "No disponible",
        "REQUIERE_CAMBIO": true,
        "INSTITUCION": "GADM Riobamba",
        "DIRECCION": "Pedro Donoso y Av. Canónigo Ramos",
        "LONGITUD": -78.6797671,
        "LATITUD": -1.648299,
        "X": 758148.6384259502,
        "Y": 9817662.518714614,
        "GEOMETRIA_VALIDA": true,
        "PRECISION": "Ubicación aproximada; requiere verificación de campo"
      },
      "geometry": {
        "type": "Point",
        "coordinates": [
          -78.6797671,
          -1.648298999999994
        ]
      }
    },
    {
      "type": "Feature",
      "properties": {
        "ID_CAMARA": "RIO-071-DOMO",
        "TIPO": "DOMO",
        "ESTADO": "No disponible",
        "REQUIERE_CAMBIO": true,
        "INSTITUCION": "GADM Riobamba",
        "DIRECCION": "Vicente Ramón Roca y Baquerizo Moreno",
        "LONGITUD": -78.6427182,
        "LATITUD": -1.6620475,
        "X": 762271.203545227,
        "Y": 9816136.744785253,
        "GEOMETRIA_VALIDA": true,
        "PRECISION": "Ubicación aproximada; requiere verificación de campo"
      },
      "geometry": {
        "type": "Point",
        "coordinates": [
          -78.64271820000002,
          -1.6620474999999924
        ]
      }
    },
    {
      "type": "Feature",
      "properties": {
        "ID_CAMARA": "RIO-072-DOMO",
        "TIPO": "DOMO",
        "ESTADO": "No disponible",
        "REQUIERE_CAMBIO": false,
        "INSTITUCION": "ECU 911 Riobamba",
        "DIRECCION": "10 de Agosto y Carabobo",
        "LONGITUD": -78.6532791,
        "LATITUD": -1.6698559,
        "X": 761094.5063039344,
        "Y": 9815274.347144594,
        "GEOMETRIA_VALIDA": true,
        "PRECISION": "Ubicación aproximada; requiere verificación de campo"
      },
      "geometry": {
        "type": "Point",
        "coordinates": [
          -78.6532791,
          -1.6698559000000004
        ]
      }
    },
    {
      "type": "Feature",
      "properties": {
        "ID_CAMARA": "RIO-073-DOMO",
        "TIPO": "DOMO",
        "ESTADO": "No disponible",
        "REQUIERE_CAMBIO": false,
        "INSTITUCION": "GADP Licto",
        "DIRECCION": "Mercado Central Parroquia Licto",
        "LONGITUD": -78.5994,
        "LATITUD": -1.7794,
        "X": 767077.2542671558,
        "Y": 9803148.389518699,
        "GEOMETRIA_VALIDA": true,
        "PRECISION": "Ubicación aproximada; requiere verificación de campo"
      },
      "geometry": {
        "type": "Point",
        "coordinates": [
          -78.5994,
          -1.7793999999999934
        ]
      }
    },
    {
      "type": "Feature",
      "properties": {
        "ID_CAMARA": "RIO-074-DOMO",
        "TIPO": "DOMO",
        "ESTADO": "No disponible",
        "REQUIERE_CAMBIO": false,
        "INSTITUCION": "ECU 911 Riobamba",
        "DIRECCION": "Ingreso a Licán y Panamericana E35",
        "LONGITUD": -78.7058,
        "LATITUD": -1.6309,
        "X": 755252.8640842466,
        "Y": 9819590.555944161,
        "GEOMETRIA_VALIDA": true,
        "PRECISION": "Ubicación aproximada; requiere verificación de campo"
      },
      "geometry": {
        "type": "Point",
        "coordinates": [
          -78.7058,
          -1.6308999999999942
        ]
      }
    },
    {
      "type": "Feature",
      "properties": {
        "ID_CAMARA": "RIO-075-DOMO",
        "TIPO": "DOMO",
        "ESTADO": "No disponible",
        "REQUIERE_CAMBIO": true,
        "INSTITUCION": "GADM Riobamba",
        "DIRECCION": "Av. de la República y Monseñor Leonidas Proaño",
        "LONGITUD": -78.6630202,
        "LATITUD": -1.6431805,
        "X": 760013.5941355809,
        "Y": 9818226.564128106,
        "GEOMETRIA_VALIDA": true,
        "PRECISION": "Ubicación aproximada; requiere verificación de campo"
      },
      "geometry": {
        "type": "Point",
        "coordinates": [
          -78.6630202,
          -1.643180499999993
        ]
      }
    },
    {
      "type": "Feature",
      "properties": {
        "ID_CAMARA": "RIO-076-DOMO",
        "TIPO": "DOMO",
        "ESTADO": "No disponible",
        "REQUIERE_CAMBIO": true,
        "INSTITUCION": "GADM Riobamba",
        "DIRECCION": "Av. de los Héroes y Gonzalo Dávalos",
        "LONGITUD": -78.6571673,
        "LATITUD": -1.656323,
        "X": 760663.4428858969,
        "Y": 9816771.926019257,
        "GEOMETRIA_VALIDA": true,
        "PRECISION": "Ubicación aproximada; requiere verificación de campo"
      },
      "geometry": {
        "type": "Point",
        "coordinates": [
          -78.6571673,
          -1.6563229999999944
        ]
      }
    },
    {
      "type": "Feature",
      "properties": {
        "ID_CAMARA": "RIO-077-DOMO",
        "TIPO": "DOMO",
        "ESTADO": "No disponible",
        "REQUIERE_CAMBIO": false,
        "INSTITUCION": "GADM Riobamba",
        "DIRECCION": "Villarroel y Juan Montalvo",
        "LONGITUD": -78.6552449,
        "LATITUD": -1.6711201,
        "X": 760875.5030208575,
        "Y": 9815134.757415086,
        "GEOMETRIA_VALIDA": true,
        "PRECISION": "Ubicación aproximada; requiere verificación de campo"
      },
      "geometry": {
        "type": "Point",
        "coordinates": [
          -78.6552449,
          -1.6711200999999962
        ]
      }
    },
    {
      "type": "Feature",
      "properties": {
        "ID_CAMARA": "RIO-078-DOMO",
        "TIPO": "DOMO",
        "ESTADO": "No disponible",
        "REQUIERE_CAMBIO": true,
        "INSTITUCION": "GADM Riobamba",
        "DIRECCION": "Olmedo y Juan de Velasco",
        "LONGITUD": -78.6485675,
        "LATITUD": -1.6759909,
        "X": 761618.1976344701,
        "Y": 9814595.03816428,
        "GEOMETRIA_VALIDA": true,
        "PRECISION": "Ubicación aproximada; requiere verificación de campo"
      },
      "geometry": {
        "type": "Point",
        "coordinates": [
          -78.6485675,
          -1.6759909000000042
        ]
      }
    },
    {
      "type": "Feature",
      "properties": {
        "ID_CAMARA": "RIO-079-DOMO",
        "TIPO": "DOMO",
        "ESTADO": "No disponible",
        "REQUIERE_CAMBIO": false,
        "INSTITUCION": "GADM Riobamba",
        "DIRECCION": "Roma y Amsterdam",
        "LONGITUD": -78.6411146,
        "LATITUD": -1.6832622,
        "X": 762446.8994998795,
        "Y": 9813789.651044011,
        "GEOMETRIA_VALIDA": true,
        "PRECISION": "Ubicación aproximada; requiere verificación de campo"
      },
      "geometry": {
        "type": "Point",
        "coordinates": [
          -78.6411146,
          -1.6832621999999993
        ]
      }
    },
    {
      "type": "Feature",
      "properties": {
        "ID_CAMARA": "RIO-080-DOMO",
        "TIPO": "DOMO",
        "ESTADO": "No disponible",
        "REQUIERE_CAMBIO": false,
        "INSTITUCION": "ECU 911 Riobamba",
        "DIRECCION": "Ingreso a Calpi y Panamericana E35",
        "LONGITUD": -78.7501,
        "LATITUD": -1.6467,
        "X": 750319.5062369383,
        "Y": 9817848.381248076,
        "GEOMETRIA_VALIDA": true,
        "PRECISION": "Ubicación aproximada; requiere verificación de campo"
      },
      "geometry": {
        "type": "Point",
        "coordinates": [
          -78.7501,
          -1.646700000000002
        ]
      }
    },
    {
      "type": "Feature",
      "properties": {
        "ID_CAMARA": "RIO-081-FIJA",
        "TIPO": "FIJA",
        "ESTADO": "No disponible",
        "REQUIERE_CAMBIO": false,
        "INSTITUCION": "ECU 911 Riobamba",
        "DIRECCION": "Av. Unidad Nacional y Diego de Ibarra",
        "LONGITUD": -78.6567596,
        "LATITUD": -1.6686608,
        "X": 760707.2086636315,
        "Y": 9815407.01619308,
        "GEOMETRIA_VALIDA": true,
        "PRECISION": "Ubicación aproximada; requiere verificación de campo"
      },
      "geometry": {
        "type": "Point",
        "coordinates": [
          -78.6567596,
          -1.6686608000000043
        ]
      }
    },
    {
      "type": "Feature",
      "properties": {
        "ID_CAMARA": "RIO-082-FIJA",
        "TIPO": "FIJA",
        "ESTADO": "No disponible",
        "REQUIERE_CAMBIO": false,
        "INSTITUCION": "ECU 911 Riobamba",
        "DIRECCION": "Colombia y Francia",
        "LONGITUD": -78.6576474,
        "LATITUD": -1.6709836,
        "X": 760608.071055961,
        "Y": 9815150.176777449,
        "GEOMETRIA_VALIDA": true,
        "PRECISION": "Ubicación aproximada; requiere verificación de campo"
      },
      "geometry": {
        "type": "Point",
        "coordinates": [
          -78.6576474,
          -1.670983599999992
        ]
      }
    },
    {
      "type": "Feature",
      "properties": {
        "ID_CAMARA": "RIO-083-DOMO",
        "TIPO": "DOMO",
        "ESTADO": "No disponible",
        "REQUIERE_CAMBIO": false,
        "INSTITUCION": "Barrio Galápagos",
        "DIRECCION": "Vicente Ramón Roca y Jaime Roldós Aguilera",
        "LONGITUD": -78.6434064,
        "LATITUD": -1.6577798,
        "X": 762195.1537873525,
        "Y": 9816608.950598022,
        "GEOMETRIA_VALIDA": true,
        "PRECISION": "Ubicación aproximada; requiere verificación de campo"
      },
      "geometry": {
        "type": "Point",
        "coordinates": [
          -78.6434064,
          -1.6577798000000035
        ]
      }
    },
    {
      "type": "Feature",
      "properties": {
        "ID_CAMARA": "RIO-084-DOMO",
        "TIPO": "DOMO",
        "ESTADO": "No disponible",
        "REQUIERE_CAMBIO": false,
        "INSTITUCION": "GDP San Luis",
        "DIRECCION": "Av. Juan Félix Proaño y salida a Macas",
        "LONGITUD": -78.6272,
        "LATITUD": -1.7445,
        "X": 763987.513569097,
        "Y": 9807013.256291484,
        "GEOMETRIA_VALIDA": true,
        "PRECISION": "Ubicación aproximada; requiere verificación de campo"
      },
      "geometry": {
        "type": "Point",
        "coordinates": [
          -78.6272,
          -1.7444999999999964
        ]
      }
    },
    {
      "type": "Feature",
      "properties": {
        "ID_CAMARA": "RIO-085-DOMO",
        "TIPO": "DOMO",
        "ESTADO": "No disponible",
        "REQUIERE_CAMBIO": false,
        "INSTITUCION": "Donación La Georgina",
        "DIRECCION": "José de Orozco y Baltazar Paredes",
        "LONGITUD": null,
        "LATITUD": null,
        "X": null,
        "Y": null,
        "GEOMETRIA_VALIDA": false,
        "PRECISION": "Pendiente de ubicación"
      },
      "geometry": null
    },
    {
      "type": "Feature",
      "properties": {
        "ID_CAMARA": "RIO-086-DOMO",
        "TIPO": "DOMO",
        "ESTADO": "No disponible",
        "REQUIERE_CAMBIO": false,
        "INSTITUCION": "Donación La Georgina",
        "DIRECCION": "Av. La Prensa y Argentinos",
        "LONGITUD": -78.661017,
        "LATITUD": -1.6588025,
        "X": 760234.561921676,
        "Y": 9816498.141170919,
        "GEOMETRIA_VALIDA": true,
        "PRECISION": "Ubicación aproximada; requiere verificación de campo"
      },
      "geometry": {
        "type": "Point",
        "coordinates": [
          -78.661017,
          -1.6588025000000055
        ]
      }
    },
    {
      "type": "Feature",
      "properties": {
        "ID_CAMARA": "RIO-087-FIJA",
        "TIPO": "FIJA",
        "ESTADO": "No disponible",
        "REQUIERE_CAMBIO": false,
        "INSTITUCION": "Donación La Georgina",
        "DIRECCION": "Santos Leopoldo Cabezas y SN",
        "LONGITUD": -78.6512,
        "LATITUD": -1.6685,
        "X": 761326.1349586939,
        "Y": 9815424.06624149,
        "GEOMETRIA_VALIDA": true,
        "PRECISION": "Ubicación aproximada; requiere verificación de campo"
      },
      "geometry": {
        "type": "Point",
        "coordinates": [
          -78.6512,
          -1.6684999999999983
        ]
      }
    },
    {
      "type": "Feature",
      "properties": {
        "ID_CAMARA": "RIO-088-FIJA",
        "TIPO": "FIJA",
        "ESTADO": "No disponible",
        "REQUIERE_CAMBIO": false,
        "INSTITUCION": "Donación La Georgina",
        "DIRECCION": "Santos Leopoldo Cabezas y SN",
        "LONGITUD": -78.651,
        "LATITUD": -1.6687,
        "X": 761348.3729523044,
        "Y": 9815401.914767547,
        "GEOMETRIA_VALIDA": true,
        "PRECISION": "Ubicación aproximada; requiere verificación de campo"
      },
      "geometry": {
        "type": "Point",
        "coordinates": [
          -78.651,
          -1.6686999999999947
        ]
      }
    },
    {
      "type": "Feature",
      "properties": {
        "ID_CAMARA": "RIO-089-FIJA",
        "TIPO": "FIJA",
        "ESTADO": "No disponible",
        "REQUIERE_CAMBIO": false,
        "INSTITUCION": "Barrio Galápagos",
        "DIRECCION": "Jaime Roldós Aguilera y Diego Novoa",
        "LONGITUD": -78.6436844,
        "LATITUD": -1.6581033,
        "X": 762164.1632994453,
        "Y": 9816573.200258818,
        "GEOMETRIA_VALIDA": true,
        "PRECISION": "Ubicación aproximada; requiere verificación de campo"
      },
      "geometry": {
        "type": "Point",
        "coordinates": [
          -78.6436844,
          -1.6581032999999932
        ]
      }
    },
    {
      "type": "Feature",
      "properties": {
        "ID_CAMARA": "RIO-090-FIJA",
        "TIPO": "FIJA",
        "ESTADO": "No disponible",
        "REQUIERE_CAMBIO": false,
        "INSTITUCION": "Barrio Galápagos",
        "DIRECCION": "José María Urvina y Calle SN",
        "LONGITUD": -78.6497,
        "LATITUD": -1.6662,
        "X": 761493.4220544547,
        "Y": 9815678.303132206,
        "GEOMETRIA_VALIDA": true,
        "PRECISION": "Ubicación aproximada; requiere verificación de campo"
      },
      "geometry": {
        "type": "Point",
        "coordinates": [
          -78.64970000000001,
          -1.666199999999996
        ]
      }
    },
    {
      "type": "Feature",
      "properties": {
        "ID_CAMARA": "RIO-091-FIJA",
        "TIPO": "FIJA",
        "ESTADO": "No disponible",
        "REQUIERE_CAMBIO": false,
        "INSTITUCION": "Barrio Galápagos",
        "DIRECCION": "José María Urvina y Calle SN",
        "LONGITUD": -78.6499,
        "LATITUD": -1.6663,
        "X": 761471.1443850717,
        "Y": 9815667.267252162,
        "GEOMETRIA_VALIDA": true,
        "PRECISION": "Ubicación aproximada; requiere verificación de campo"
      },
      "geometry": {
        "type": "Point",
        "coordinates": [
          -78.6499,
          -1.6662999999999977
        ]
      }
    },
    {
      "type": "Feature",
      "properties": {
        "ID_CAMARA": "RIO-092-FIJA",
        "TIPO": "FIJA",
        "ESTADO": "No disponible",
        "REQUIERE_CAMBIO": false,
        "INSTITUCION": "Barrio Galápagos",
        "DIRECCION": "José María Urvina y Antonio José de Sucre",
        "LONGITUD": -78.6454981,
        "LATITUD": -1.6570063,
        "X": 761962.4007227287,
        "Y": 9816694.796018938,
        "GEOMETRIA_VALIDA": true,
        "PRECISION": "Ubicación aproximada; requiere verificación de campo"
      },
      "geometry": {
        "type": "Point",
        "coordinates": [
          -78.6454981,
          -1.6570063000000061
        ]
      }
    },
    {
      "type": "Feature",
      "properties": {
        "ID_CAMARA": "RIO-093-FIJA",
        "TIPO": "FIJA",
        "ESTADO": "No disponible",
        "REQUIERE_CAMBIO": false,
        "INSTITUCION": "Barrio Galápagos",
        "DIRECCION": "Diego Novoa y Antonio José de Sucre",
        "LONGITUD": -78.645331,
        "LATITUD": -1.6562947,
        "X": 761981.0964130037,
        "Y": 9816773.494546082,
        "GEOMETRIA_VALIDA": true,
        "PRECISION": "Ubicación aproximada; requiere verificación de campo"
      },
      "geometry": {
        "type": "Point",
        "coordinates": [
          -78.645331,
          -1.6562947000000072
        ]
      }
    },
    {
      "type": "Feature",
      "properties": {
        "ID_CAMARA": "RIO-094-FIJA",
        "TIPO": "FIJA",
        "ESTADO": "No disponible",
        "REQUIERE_CAMBIO": false,
        "INSTITUCION": "GADP San Juan",
        "DIRECCION": "Vía a Riobamba y Gabriel Moncayo",
        "LONGITUD": -78.7832,
        "LATITUD": -1.6262,
        "X": 746637.5095996872,
        "Y": 9820120.10066377,
        "GEOMETRIA_VALIDA": true,
        "PRECISION": "Ubicación aproximada; requiere verificación de campo"
      },
      "geometry": {
        "type": "Point",
        "coordinates": [
          -78.7832,
          -1.6261999999999974
        ]
      }
    },
    {
      "type": "Feature",
      "properties": {
        "ID_CAMARA": "RIO-095-FIJA",
        "TIPO": "FIJA",
        "ESTADO": "No disponible",
        "REQUIERE_CAMBIO": false,
        "INSTITUCION": "GADP San Juan",
        "DIRECCION": "Vía a Riobamba Pan. 492 la Y y Chaupi salida al Chimborazo",
        "LONGITUD": -78.805,
        "LATITUD": -1.598,
        "X": 744214.2419403478,
        "Y": 9823242.025889643,
        "GEOMETRIA_VALIDA": true,
        "PRECISION": "Ubicación aproximada; requiere verificación de campo"
      },
      "geometry": {
        "type": "Point",
        "coordinates": [
          -78.805,
          -1.5980000000000036
        ]
      }
    },
    {
      "type": "Feature",
      "properties": {
        "ID_CAMARA": "RIO-096-FIJA",
        "TIPO": "FIJA",
        "ESTADO": "No disponible",
        "REQUIERE_CAMBIO": false,
        "INSTITUCION": "GADP San Juan",
        "DIRECCION": "Vía a Riobamba Pan. 492 la Y y Chaupi salida al Chimborazo",
        "LONGITUD": -78.8054,
        "LATITUD": -1.5984,
        "X": 744169.6690269224,
        "Y": 9823197.828493487,
        "GEOMETRIA_VALIDA": true,
        "PRECISION": "Ubicación aproximada; requiere verificación de campo"
      },
      "geometry": {
        "type": "Point",
        "coordinates": [
          -78.80540000000002,
          -1.5983999999999927
        ]
      }
    },
    {
      "type": "Feature",
      "properties": {
        "ID_CAMARA": "RIO-097-FIJA",
        "TIPO": "FIJA",
        "ESTADO": "No disponible",
        "REQUIERE_CAMBIO": false,
        "INSTITUCION": "GADP San Juan",
        "DIRECCION": "Vía al Chimborazo la Y ingreso La Delicia",
        "LONGITUD": -78.798,
        "LATITUD": -1.605,
        "X": 744992.610217964,
        "Y": 9822466.900591377,
        "GEOMETRIA_VALIDA": true,
        "PRECISION": "Ubicación aproximada; requiere verificación de campo"
      },
      "geometry": {
        "type": "Point",
        "coordinates": [
          -78.798,
          -1.605000000000005
        ]
      }
    },
    {
      "type": "Feature",
      "properties": {
        "ID_CAMARA": "RIO-098-FIJA",
        "TIPO": "FIJA",
        "ESTADO": "No disponible",
        "REQUIERE_CAMBIO": false,
        "INSTITUCION": "GADP San Juan",
        "DIRECCION": "Vía a Riobamba Pan. 492 Shobolpamba",
        "LONGITUD": -78.79,
        "LATITUD": -1.612,
        "X": 745882.2876280188,
        "Y": 9821691.644444242,
        "GEOMETRIA_VALIDA": true,
        "PRECISION": "Ubicación aproximada; requiere verificación de campo"
      },
      "geometry": {
        "type": "Point",
        "coordinates": [
          -78.79,
          -1.6119999999999934
        ]
      }
    },
    {
      "type": "Feature",
      "properties": {
        "ID_CAMARA": "RIO-099-DOMO",
        "TIPO": "DOMO",
        "ESTADO": "No disponible",
        "REQUIERE_CAMBIO": false,
        "INSTITUCION": "ECU 911 Riobamba",
        "DIRECCION": "Av. Gonzalo Dávalos y Los Nogales",
        "LONGITUD": -78.6563212,
        "LATITUD": -1.6606351,
        "X": 760757.0676660568,
        "Y": 9816294.792951517,
        "GEOMETRIA_VALIDA": true,
        "PRECISION": "Ubicación aproximada; requiere verificación de campo"
      },
      "geometry": {
        "type": "Point",
        "coordinates": [
          -78.6563212,
          -1.6606351000000048
        ]
      }
    },
    {
      "type": "Feature",
      "properties": {
        "ID_CAMARA": "RIO-100-FIJA",
        "TIPO": "FIJA",
        "ESTADO": "No disponible",
        "REQUIERE_CAMBIO": false,
        "INSTITUCION": "ECU 911 Riobamba",
        "DIRECCION": "Av. Gonzalo Dávalos y Los Nogales",
        "LONGITUD": -78.6563212,
        "LATITUD": -1.6606351,
        "X": 760757.0676660568,
        "Y": 9816294.792951517,
        "GEOMETRIA_VALIDA": true,
        "PRECISION": "Ubicación aproximada; requiere verificación de campo"
      },
      "geometry": {
        "type": "Point",
        "coordinates": [
          -78.6563212,
          -1.6606351000000048
        ]
      }
    },
    {
      "type": "Feature",
      "properties": {
        "ID_CAMARA": "RIO-101-DOMO",
        "TIPO": "DOMO",
        "ESTADO": "No disponible",
        "REQUIERE_CAMBIO": false,
        "INSTITUCION": "ECU 911 Riobamba",
        "DIRECCION": "Pallatanga y San Andrez",
        "LONGITUD": -78.6639469,
        "LATITUD": -1.6749413,
        "X": 759906.2817825694,
        "Y": 9814713.197933964,
        "GEOMETRIA_VALIDA": true,
        "PRECISION": "Ubicación aproximada; requiere verificación de campo"
      },
      "geometry": {
        "type": "Point",
        "coordinates": [
          -78.6639469,
          -1.6749412999999969
        ]
      }
    },
    {
      "type": "Feature",
      "properties": {
        "ID_CAMARA": "RIO-102-DOMO",
        "TIPO": "DOMO",
        "ESTADO": "No disponible",
        "REQUIERE_CAMBIO": false,
        "INSTITUCION": "ECU 911 Riobamba",
        "DIRECCION": "Av. 11 de Noviembre y Milton Reyes",
        "LONGITUD": -78.6724431,
        "LATITUD": -1.6584337,
        "X": 758962.6404258678,
        "Y": 9816540.439114848,
        "GEOMETRIA_VALIDA": true,
        "PRECISION": "Ubicación aproximada; requiere verificación de campo"
      },
      "geometry": {
        "type": "Point",
        "coordinates": [
          -78.6724431,
          -1.6584337000000033
        ]
      }
    },
    {
      "type": "Feature",
      "properties": {
        "ID_CAMARA": "RIO-103-DOMO",
        "TIPO": "DOMO",
        "ESTADO": "No disponible",
        "REQUIERE_CAMBIO": false,
        "INSTITUCION": "ECU 911 Riobamba",
        "DIRECCION": "Luis Urdaneta y Manuel Zambrano",
        "LONGITUD": null,
        "LATITUD": null,
        "X": null,
        "Y": null,
        "GEOMETRIA_VALIDA": false,
        "PRECISION": "Pendiente de ubicación"
      },
      "geometry": null
    }
  ]
}