{
  "type": "FeatureCollection",
  "features": [
    {
      "type": "Feature",
      "properties": {
        "FUENTE": "Referencia anterior del proyecto",
        "LONGITUD_M": 6741.994303114976
      },
      "geometry": {
        "type": "MultiLineString",
        "coordinates": [
          [
            [
              -78.67517339348385,
              -1.635898753573966
            ],
            [
              -78.67524024312496,
              -1.6358181626822632
            ]
          ],
          [
            [
              -78.67524024312496,
              -1.6358181626822632
            ],
            [
              -78.67660190077883,
              -1.6341766061095668
            ]
          ],
          [
            [
              -78.66128379814094,
              -1.6436439995336272
            ],
            [
              -78.66231419100481,
              -1.643195190999946
            ],
            [
              -78.66315747640168,
              -1.643260088148624
            ]
          ],
          [
            [
              -78.66356192470388,
              -1.643291213370164
            ],
            [
              -78.66358199600478,
              -1.6432927579999623
            ],
            [
              -78.66359416928415,
              -1.6432762807189234
            ]
          ],
          [
            [
              -78.67517636573486,
              -1.6361184155059088
            ],
            [
              -78.67524024312496,
              -1.6358181626822632
            ]
          ],
          [
            [
              -78.67524024312496,
              -1.6358181626822632
            ],
            [
              -78.67535579100459,
              -1.6352750339999376
            ],
            [
              -78.6756325430046,
              -1.6346538339999335
            ],
            [
              -78.67589203145575,
              -1.6343855174692064
            ]
          ],
          [
            [
              -78.66699964948414,
              -1.6389919704516533
            ],
            [
              -78.66965931604165,
              -1.638894116829793
            ]
          ],
          [
            [
              -78.66965931604165,
              -1.638894116829793
            ],
            [
              -78.67059014795805,
              -1.6388598690653378
            ]
          ],
          [
            [
              -78.67724548077335,
              -1.632814519096096
            ],
            [
              -78.6774987567641,
              -1.6322021016147616
            ],
            [
              -78.67778835843018,
              -1.6318845496127288
            ]
          ],
          [
            [
              -78.67778835843018,
              -1.6318845496127288
            ],
            [
              -78.67949970439439,
              -1.6300080306185971
            ]
          ],
          [
            [
              -78.6797654814739,
              -1.6297166007848731
            ],
            [
              -78.68219490884105,
              -1.6270526743955045
            ]
          ],
          [
            [
              -78.6824083409731,
              -1.626818639895105
            ],
            [
              -78.6848377605406,
              -1.6241547002226018
            ]
          ],
          [
            [
              -78.66702152276689,
              -1.6386371174798684
            ],
            [
              -78.66713464100475,
              -1.638484002999962
            ],
            [
              -78.66719943406584,
              -1.638486726697678
            ]
          ],
          [
            [
              -78.66759140973936,
              -1.6385032040869498
            ],
            [
              -78.66772492269729,
              -1.6385088165231307
            ]
          ],
          [
            [
              -78.66809009017095,
              -1.6385241668936328
            ],
            [
              -78.6684458800047,
              -1.6385391229998971
            ],
            [
              -78.66851440912276,
              -1.6385591713836445
            ]
          ],
          [
            [
              -78.66902869485209,
              -1.6387096270473005
            ],
            [
              -78.66965931604165,
              -1.638894116829793
            ]
          ],
          [
            [
              -78.66965931604165,
              -1.638894116829793
            ],
            [
              -78.67057594947664,
              -1.6391622799423058
            ]
          ],
          [
            [
              -78.67724810321717,
              -1.6328164312336046
            ],
            [
              -78.67778835843018,
              -1.6318845496127288
            ]
          ],
          [
            [
              -78.67778835843018,
              -1.6318845496127288
            ],
            [
              -78.67905189627797,
              -1.6297050744617945
            ]
          ],
          [
            [
              -78.67936210226799,
              -1.6291699984378767
            ],
            [
              -78.68042930700453,
              -1.6273291649999164
            ],
            [
              -78.68060259169869,
              -1.6270368732210911
            ],
            [
              -78.68096214530257,
              -1.6265769080881631
            ]
          ],
          [
            [
              -78.68265304806954,
              -1.6245179176509519
            ],
            [
              -78.68332635854806,
              -1.6240267851774082
            ]
          ],
          [
            [
              -78.66128379814094,
              -1.6436439995336272
            ],
            [
              -78.66128379814094,
              -1.6436439995336272
            ]
          ],
          [
            [
              -78.65969415796644,
              -1.6437650400898984
            ],
            [
              -78.66069301573256,
              -1.6431606448581246
            ]
          ],
          [
            [
              -78.6662130421043,
              -1.6398205257560756
            ],
            [
              -78.66624210499205,
              -1.6398029399420757
            ],
            [
              -78.66667380239996,
              -1.6392305400349663
            ]
          ],
          [
            [
              -78.6668909902296,
              -1.6389959681291772
            ],
            [
              -78.66699964948414,
              -1.6389919704516533
            ]
          ],
          [
            [
              -78.67059014795805,
              -1.6388598690653378
            ],
            [
              -78.67099356123506,
              -1.6388450262826293
            ]
          ],
          [
            [
              -78.67251104644936,
              -1.6387656060566516
            ],
            [
              -78.67290312913174,
              -1.6386356704371687
            ],
            [
              -78.67294172935014,
              -1.6385891361240068
            ]
          ],
          [
            [
              -78.6771903571323,
              -1.6329770303493003
            ],
            [
              -78.67723614030349,
              -1.6328371261651102
            ]
          ],
          [
            [
              -78.67723614030349,
              -1.6328371261651102
            ],
            [
              -78.67723617476085,
              -1.6328370208703344
            ],
            [
              -78.67723619549584,
              -1.6328369707334955
            ]
          ],
          [
            [
              -78.67723619549584,
              -1.6328369707334955
            ],
            [
              -78.67724548077335,
              -1.632814519096096
            ]
          ],
          [
            [
              -78.67949970439439,
              -1.6300080306185971
            ],
            [
              -78.6797654814739,
              -1.6297166007848731
            ]
          ],
          [
            [
              -78.68219490884105,
              -1.6270526743955045
            ],
            [
              -78.6824083409731,
              -1.626818639895105
            ]
          ],
          [
            [
              -78.6848377605406,
              -1.6241547002226018
            ],
            [
              -78.68851580792409,
              -1.6201215603229826
            ]
          ],
          [
            [
              -78.6889573782311,
              -1.6196373560746093
            ],
            [
              -78.68897647474559,
              -1.6196164157625506
            ]
          ],
          [
            [
              -78.68919990407416,
              -1.6193714139000026
            ],
            [
              -78.68939571904008,
              -1.6191566924812153
            ]
          ],
          [
            [
              -78.71522456835737,
              -1.6051034760298426
            ],
            [
              -78.7155990732567,
              -1.6049707969182037
            ]
          ],
          [
            [
              -78.63988993062542,
              -1.6393983800482863
            ],
            [
              -78.64219953900515,
              -1.6400314709999058
            ],
            [
              -78.64338555092809,
              -1.6409489903507526
            ]
          ],
          [
            [
              -78.64389492139185,
              -1.6413430480645852
            ],
            [
              -78.64481429100509,
              -1.6420542879999165
            ],
            [
              -78.64511654129514,
              -1.6425650486947918
            ]
          ],
          [
            [
              -78.64723102938713,
              -1.6461222595576148
            ],
            [
              -78.64832983000503,
              -1.646351822999932
            ],
            [
              -78.64853468893408,
              -1.6464874271548922
            ]
          ],
          [
            [
              -78.64901484400028,
              -1.6468052605704409
            ],
            [
              -78.64991136991372,
              -1.647398705969902
            ]
          ],
          [
            [
              -78.65437808271322,
              -1.646651894869595
            ],
            [
              -78.65572877413754,
              -1.646063583518407
            ]
          ],
          [
            [
              -78.6568447621221,
              -1.6455774988559897
            ],
            [
              -78.65688353942419,
              -1.64556060881888
            ]
          ],
          [
            [
              -78.65947196480282,
              -1.6444331775870429
            ],
            [
              -78.66128379814094,
              -1.6436439995336272
            ]
          ],
          [
            [
              -78.6649105382374,
              -1.641494490085377
            ],
            [
              -78.66597512441737,
              -1.6400534973206715
            ]
          ],
          [
            [
              -78.66636571872931,
              -1.6395247988271995
            ],
            [
              -78.66650634503334,
              -1.6393344504614624
            ]
          ],
          [
            [
              -78.66689565146194,
              -1.638807494168425
            ],
            [
              -78.66702152276689,
              -1.6386371174798684
            ]
          ],
          [
            [
              -78.67057594947664,
              -1.6391622799423058
            ],
            [
              -78.67130407114591,
              -1.6393752933091457
            ]
          ],
          [
            [
              -78.67149172891233,
              -1.6394301929112989
            ],
            [
              -78.67157357800465,
              -1.6394541379999428
            ],
            [
              -78.67317050000955,
              -1.6385409892292204
            ]
          ],
          [
            [
              -78.67351574018016,
              -1.6383435742206516
            ],
            [
              -78.67375378637745,
              -1.6382074547046632
            ]
          ],
          [
            [
              -78.67465390177411,
              -1.6376927502456582
            ],
            [
              -78.67476625200464,
              -1.637628505999888
            ],
            [
              -78.67484886996166,
              -1.637552487879932
            ]
          ],
          [
            [
              -78.67720359190486,
              -1.6330293331272219
            ],
            [
              -78.67723174800459,
              -1.6330002189999167
            ],
            [
              -78.67723614030349,
              -1.6328371261651102
            ]
          ],
          [
            [
              -78.67723614030349,
              -1.6328371261651102
            ],
            [
              -78.6772361420046,
              -1.6328370629999298
            ],
            [
              -78.67723619549584,
              -1.6328369707334955
            ]
          ],
          [
            [
              -78.67723619549584,
              -1.6328369707334955
            ],
            [
              -78.67724810321717,
              -1.6328164312336046
            ]
          ],
          [
            [
              -78.67905189627797,
              -1.6297050744617945
            ],
            [
              -78.67936210226799,
              -1.6291699984378767
            ]
          ],
          [
            [
              -78.68096214530257,
              -1.6265769080881631
            ],
            [
              -78.68120087051587,
              -1.6262715144305064
            ]
          ],
          [
            [
              -78.68574146031715,
              -1.6222651321113566
            ],
            [
              -78.6858118040045,
              -1.6222138209999282
            ],
            [
              -78.68645574511211,
              -1.6216135818332496
            ]
          ],
          [
            [
              -78.68696539031708,
              -1.621138523633822
            ],
            [
              -78.68725042680076,
              -1.6208728308209162
            ]
          ],
          [
            [
              -78.68769843920167,
              -1.6204552218377353
            ],
            [
              -78.68805823855617,
              -1.6201198391324716
            ]
          ],
          [
            [
              -78.68914359168855,
              -1.6191081380416137
            ],
            [
              -78.6892504800044,
              -1.6190085029999655
            ]
          ],
          [
            [
              -78.6892504800044,
              -1.6190085029999655
            ],
            [
              -78.68925103637439,
              -1.619008151486697
            ]
          ]
        ]
      }
    }
  ]
}