{
  "type": "FeatureCollection",
  "features": [
    {
      "type": "Feature",
      "properties": {
        "FID_": 0,
        "Entity": "LWPolyline",
        "Layer": "EJE_HIDRAULICO_LAS_ABRAS_PUENTE_20_DICIEMBRE",
        "Color": 5,
        "Linetype": "Continuous",
        "Elevation": 0.0,
        "LineWt": 90,
        "RefName": "2"
      },
      "geometry": {
        "type": "LineString",
        "coordinates": [
          [
            -78.65032857900499,
            -1.6478691279999318
          ],
          [
            -78.65028939700498,
            -1.6478511629998975
          ],
          [
            -78.65021606900497,
            -1.6477804279999635
          ],
          [
            -78.650164461005,
            -1.6477254989998855
          ],
          [
            -78.650134626005,
            -1.6476985859999083
          ],
          [
            -78.65008970100499,
            -1.6476597829998856
          ],
          [
            -78.650071907005,
            -1.647638961999942
          ],
          [
            -78.65005768000499,
            -1.6476159939999582
          ],
          [
            -78.65003276700502,
            -1.6475879929999042
          ],
          [
            -78.649991847005,
            -1.6475352269998897
          ],
          [
            -78.64995873800498,
            -1.6475072159999218
          ],
          [
            -78.649930965005,
            -1.6474834919999055
          ],
          [
            -78.649901090005,
            -1.6474465289999634
          ],
          [
            -78.64987757900496,
            -1.6473797069999307
          ],
          [
            -78.64981873600499,
            -1.6473382449999112
          ],
          [
            -78.64980760900495,
            -1.6473134549999393
          ],
          [
            -78.64976144200499,
            -1.647301286999929
          ],
          [
            -78.64975439000497,
            -1.647292900999933
          ],
          [
            -78.64969594100498,
            -1.647223395999935
          ],
          [
            -78.64959938200501,
            -1.6470716599999033
          ],
          [
            -78.64932724800501,
            -1.6469712779999486
          ],
          [
            -78.64930773800499,
            -1.646950723999936
          ],
          [
            -78.64930582400501,
            -1.6469487079999399
          ],
          [
            -78.649259733005,
            -1.6469256289999326
          ],
          [
            -78.64917505800501,
            -1.646899782999952
          ],
          [
            -78.64917325000502,
            -1.646899230999953
          ],
          [
            -78.649074164005,
            -1.6468966089999333
          ],
          [
            -78.64896827400503,
            -1.6468812419999326
          ],
          [
            -78.64894133300503,
            -1.6468734419999362
          ],
          [
            -78.64891632600501,
            -1.6468662019999303
          ],
          [
            -78.64883015100503,
            -1.6468070439999216
          ],
          [
            -78.64880840400504,
            -1.6467919769999375
          ],
          [
            -78.64878052800502,
            -1.646755640999953
          ],
          [
            -78.648754450005,
            -1.6467255079999579
          ],
          [
            -78.64873049300502,
            -1.6466257459999145
          ],
          [
            -78.64865578100496,
            -1.6465277939999345
          ],
          [
            -78.648618971005,
            -1.6465172859999095
          ],
          [
            -78.648587319005,
            -1.6465082509999265
          ],
          [
            -78.64845153300502,
            -1.6464177929999435
          ],
          [
            -78.64836488600501,
            -1.64638598899991
          ],
          [
            -78.64832983000503,
            -1.646351822999932
          ],
          [
            -78.648284439005,
            -1.6463447539999034
          ],
          [
            -78.64824701500504,
            -1.6463923029999592
          ],
          [
            -78.64820468500501,
            -1.646355681999953
          ],
          [
            -78.64818530200499,
            -1.6463389139999416
          ],
          [
            -78.64805325800498,
            -1.646335945999953
          ],
          [
            -78.64802417900502,
            -1.646291562999951
          ],
          [
            -78.64798581900504,
            -1.64623314899991
          ],
          [
            -78.647890770005,
            -1.6461961189999512
          ],
          [
            -78.64785480688994,
            -1.6461705202805466
          ],
          [
            -78.64780255200503,
            -1.646133324999917
          ],
          [
            -78.64779140100504,
            -1.6461305379999527
          ],
          [
            -78.64775861200503,
            -1.6461223439999122
          ],
          [
            -78.64767141400502,
            -1.6461005539999114
          ],
          [
            -78.64765769300506,
            -1.646089337999943
          ],
          [
            -78.64761045400505,
            -1.6460725309999231
          ],
          [
            -78.64758329500502,
            -1.6460527479998988
          ],
          [
            -78.64756730300503,
            -1.646062653999917
          ],
          [
            -78.64749712400504,
            -1.6460363919999075
          ],
          [
            -78.64740805800503,
            -1.6460143379999066
          ],
          [
            -78.64738532600501,
            -1.6460041049999343
          ],
          [
            -78.647347519005,
            -1.6460177099999453
          ],
          [
            -78.64733207400505,
            -1.6460288109999373
          ],
          [
            -78.64732261600503,
            -1.6460504039999149
          ],
          [
            -78.64726736000503,
            -1.6461154729998917
          ],
          [
            -78.64722023800506,
            -1.6461200049999114
          ],
          [
            -78.64720283900506,
            -1.646104399999928
          ],
          [
            -78.64720369600504,
            -1.6460633339999389
          ],
          [
            -78.64719568500507,
            -1.646030564999902
          ],
          [
            -78.64715379900507,
            -1.646007491999929
          ],
          [
            -78.64710762900502,
            -1.6460132039998672
          ],
          [
            -78.64710276700507,
            -1.6460141789999385
          ],
          [
            -78.64705080000506,
            -1.6460245959999424
          ],
          [
            -78.64703510500505,
            -1.6460197159999115
          ],
          [
            -78.64699380000503,
            -1.646006872999939
          ],
          [
            -78.64690110900503,
            -1.645978051999951
          ],
          [
            -78.64681503600504,
            -1.6459512879998914
          ],
          [
            -78.64681095400505,
            -1.645950018999909
          ],
          [
            -78.64679536500503,
            -1.6459427129999415
          ],
          [
            -78.64675958600505,
            -1.6459259449998969
          ],
          [
            -78.64674682300503,
            -1.6459199629998775
          ],
          [
            -78.64667793000504,
            -1.6458876759999275
          ],
          [
            -78.64667429100501,
            -1.6458835809999102
          ],
          [
            -78.64655450400502,
            -1.6457488109999558
          ],
          [
            -78.64650703200506,
            -1.6456961359999316
          ],
          [
            -78.64647353200505,
            -1.6456623429999429
          ],
          [
            -78.64645480800507,
            -1.6456434559999429
          ],
          [
            -78.64641875800507,
            -1.6456030529999013
          ],
          [
            -78.64641208300507,
            -1.6455955719999116
          ],
          [
            -78.64640598300502,
            -1.6455817159999053
          ],
          [
            -78.64639312000507,
            -1.6455524969998911
          ],
          [
            -78.64638926600502,
            -1.6455501039998826
          ],
          [
            -78.64633137100506,
            -1.645514154999896
          ],
          [
            -78.64628862900506,
            -1.6454806209998944
          ],
          [
            -78.64624113900507,
            -1.645442297999958
          ],
          [
            -78.64622692400505,
            -1.645404011999931
          ],
          [
            -78.64617948000503,
            -1.6453274209999207
          ],
          [
            -78.64617856100502,
            -1.6453096329999386
          ],
          [
            -78.64617623700504,
            -1.645264655999924
          ],
          [
            -78.64617483300506,
            -1.6452374879999503
          ],
          [
            -78.64619387400505,
            -1.645213591999929
          ],
          [
            -78.64618916900504,
            -1.6451705349999304
          ],
          [
            -78.64620820700506,
            -1.6451514249999222
          ],
          [
            -78.64627447600506,
            -1.645080140999901
          ],
          [
            -78.64627483800504,
            -1.6450797509999462
          ],
          [
            -78.64628282200509,
            -1.6450568819999163
          ],
          [
            -78.64630822400504,
            -1.644984121999899
          ],
          [
            -78.64629876900504,
            -1.6449410589999287
          ],
          [
            -78.64631785500501,
            -1.6448788999999433
          ],
          [
            -78.64629498100506,
            -1.644757274999911
          ],
          [
            -78.64628006200506,
            -1.6446779489999301
          ],
          [
            -78.64624210900504,
            -1.6446157199999003
          ],
          [
            -78.64622316900504,
            -1.6445535119998997
          ],
          [
            -78.64619468700504,
            -1.644519992999948
          ],
          [
            -78.64615955800505,
            -1.644493415999896
          ],
          [
            -78.64613769600507,
            -1.6444768759998951
          ],
          [
            -78.64605698400509,
            -1.6443954599999047
          ],
          [
            -78.64597970200508,
            -1.6443598279999305
          ],
          [
            -78.64594167900506,
            -1.6443573899998953
          ],
          [
            -78.64588216300506,
            -1.644312280999922
          ],
          [
            -78.64587170800502,
            -1.6443043559999415
          ],
          [
            -78.64581471200502,
            -1.64426601999994
          ],
          [
            -78.64574342900501,
            -1.64425158399992
          ],
          [
            -78.64568642100504,
            -1.6442228159999448
          ],
          [
            -78.64563416800506,
            -1.6441940529999461
          ],
          [
            -78.64556764700504,
            -1.6441700579998975
          ],
          [
            -78.64554394200505,
            -1.6441174129999339
          ],
          [
            -78.64543577300505,
            -1.644074566999925
          ],
          [
            -78.64549648200506,
            -1.6440551709999056
          ],
          [
            -78.64541923100502,
            -1.6439932269999127
          ],
          [
            -78.64538840500506,
            -1.6439333979999309
          ],
          [
            -78.64533136600504,
            -1.6439309379999134
          ],
          [
            -78.64526142700505,
            -1.6438506389999124
          ],
          [
            -78.64521393600504,
            -1.6438147059999186
          ],
          [
            -78.64514862500504,
            -1.6437727739999386
          ],
          [
            -78.64511895900506,
            -1.643736862999945
          ],
          [
            -78.64510977300506,
            -1.6437136719999115
          ],
          [
            -78.64509526100503,
            -1.6436770409998838
          ],
          [
            -78.64504185500509,
            -1.6436171839999147
          ],
          [
            -78.64506570700505,
            -1.643545460999932
          ],
          [
            -78.64506424900507,
            -1.6435291069999112
          ],
          [
            -78.64506266265602,
            -1.6435113139677158
          ],
          [
            -78.64505397800507,
            -1.6434139039999023
          ],
          [
            -78.64506533600506,
            -1.643317729999965
          ],
          [
            -78.64506598100509,
            -1.6433122699999294
          ],
          [
            -78.64503637000507,
            -1.6432285239999105
          ],
          [
            -78.64506617000507,
            -1.6431508289999615
          ],
          [
            -78.64502103800505,
            -1.6430599829999037
          ],
          [
            -78.64507343100506,
            -1.6429715519999224
          ],
          [
            -78.64516149000508,
            -1.6429356869999532
          ],
          [
            -78.6451653150051,
            -1.6429217969999033
          ],
          [
            -78.64518493100508,
            -1.642850564999917
          ],
          [
            -78.6451917330051,
            -1.64282586599994
          ],
          [
            -78.64494627700506,
            -1.6425495719999383
          ],
          [
            -78.64496652000508,
            -1.6423047819999164
          ],
          [
            -78.64496944600506,
            -1.6422409519999313
          ],
          [
            -78.64494099900509,
            -1.642187842999896
          ],
          [
            -78.64490827300506,
            -1.6421375979999608
          ],
          [
            -78.64486699200505,
            -1.6420887779999467
          ],
          [
            -78.64481429100509,
            -1.6420542879999165
          ],
          [
            -78.64478657100506,
            -1.641988987999962
          ],
          [
            -78.6447751720051,
            -1.6419322899999296
          ],
          [
            -78.64477027300505,
            -1.641907920999887
          ],
          [
            -78.64475037200508,
            -1.6418605609999102
          ],
          [
            -78.64468769800509,
            -1.641821755999924
          ],
          [
            -78.64462929800509,
            -1.6417851079999264
          ],
          [
            -78.64455021100508,
            -1.6417634969999166
          ],
          [
            -78.64447682000508,
            -1.6417461969999574
          ],
          [
            -78.64442339000512,
            -1.641725333999913
          ],
          [
            -78.6443614050051,
            -1.6417066119999355
          ],
          [
            -78.64432833500506,
            -1.6416944659998998
          ],
          [
            -78.6443222220051,
            -1.6416922209999323
          ],
          [
            -78.64428447800509,
            -1.641666355999922
          ],
          [
            -78.64425385000507,
            -1.6416498239999433
          ],
          [
            -78.64423960800508,
            -1.6416397659999553
          ],
          [
            -78.6441875860051,
            -1.6416332489999026
          ],
          [
            -78.6441277240051,
            -1.6416274399999462
          ],
          [
            -78.64408924200508,
            -1.6416238079999046
          ],
          [
            -78.64402938000508,
            -1.6416179989999335
          ],
          [
            -78.64399875400505,
            -1.6415993149999297
          ],
          [
            -78.64392397800509,
            -1.641548302999958
          ],
          [
            -78.64387197500511,
            -1.6415260069999045
          ],
          [
            -78.64380145400509,
            -1.6414936479999045
          ],
          [
            -78.64377581500509,
            -1.6414771219999487
          ],
          [
            -78.64374731900506,
            -1.641465611999907
          ],
          [
            -78.6436953110051,
            -1.6414483369999138
          ],
          [
            -78.64366239600507,
            -1.6414367499999474
          ],
          [
            -78.64364829000512,
            -1.641431784999934
          ],
          [
            -78.64361268900507,
            -1.6414023359999153
          ],
          [
            -78.64358633800512,
            -1.641385091999931
          ],
          [
            -78.64352722300508,
            -1.641349876999884
          ],
          [
            -78.64349444800509,
            -1.6413412319999106
          ],
          [
            -78.64344599700507,
            -1.6413296989999013
          ],
          [
            -78.64339612000511,
            -1.6413174469999272
          ],
          [
            -78.64332630800511,
            -1.6412879569999599
          ],
          [
            -78.64328997800513,
            -1.641271417999933
          ],
          [
            -78.64327004600509,
            -1.6412513119999388
          ],
          [
            -78.6432124180051,
            -1.641163741999927
          ],
          [
            -78.64314765600508,
            -1.641081183999951
          ],
          [
            -78.64311503000512,
            -1.641043209999936
          ],
          [
            -78.64310317900512,
            -1.6410294159999614
          ],
          [
            -78.6430736340051,
            -1.6409950279999492
          ],
          [
            -78.64299959200513,
            -1.6409260869999354
          ],
          [
            -78.64291700800511,
            -1.6408478109999347
          ],
          [
            -78.64286147100506,
            -1.6408004079999368
          ],
          [
            -78.64281233700505,
            -1.6407630539998923
          ],
          [
            -78.6427838650051,
            -1.6407307449999111
          ],
          [
            -78.64274900700511,
            -1.64067547699992
          ],
          [
            -78.64267926500513,
            -1.6405857399999346
          ],
          [
            -78.64264224600511,
            -1.640549117999948
          ],
          [
            -78.64260522400512,
            -1.6405153639999233
          ],
          [
            -78.6425439920051,
            -1.6404622169999052
          ],
          [
            -78.64251052500514,
            -1.6404356399999334
          ],
          [
            -78.6424848770051,
            -1.6404277199999115
          ],
          [
            -78.64248068245111,
            -1.6404302114315943
          ],
          [
            -78.64244992900512,
            -1.6404484779998816
          ],
          [
            -78.64242285300512,
            -1.6404419909998966
          ],
          [
            -78.64237871100511,
            -1.640402490999931
          ],
          [
            -78.64233601400512,
            -1.6403450619999254
          ],
          [
            -78.6423107670051,
            -1.6403089779999063
          ],
          [
            -78.64230186100512,
            -1.6402962499999314
          ],
          [
            -78.64228125100516,
            -1.6402460199999056
          ],
          [
            -78.64227632700508,
            -1.640190069999944
          ],
          [
            -78.64222727300508,
            -1.6400845789999299
          ],
          [
            -78.64219953900515,
            -1.6400314709999058
          ],
          [
            -78.64234700300509,
            -1.639888200999926
          ],
          [
            -78.64225695400508,
            -1.6396920519999092
          ],
          [
            -78.64217394300512,
            -1.63957241499996
          ],
          [
            -78.64204580200514,
            -1.6394455529999594
          ],
          [
            -78.6420115080051,
            -1.6394143079999162
          ],
          [
            -78.64197223200509,
            -1.639378524999911
          ],
          [
            -78.64187962600509,
            -1.6393377719999331
          ],
          [
            -78.64175850800511,
            -1.6392993759999217
          ],
          [
            -78.64160413900514,
            -1.639253768999908
          ],
          [
            -78.64148541100514,
            -1.6392034219999558
          ],
          [
            -78.6413809850051,
            -1.6391124489999014
          ],
          [
            -78.64132892000515,
            -1.6389402529998869
          ],
          [
            -78.64125209000515,
            -1.6387471279999448
          ],
          [
            -78.64121758800512,
            -1.6386604019999287
          ],
          [
            -78.64113212600509,
            -1.6386050739999243
          ],
          [
            -78.64104451400516,
            -1.638559784999885
          ],
          [
            -78.64098682100513,
            -1.638528158999952
          ],
          [
            -78.64090062200509,
            -1.638493629999958
          ],
          [
            -78.64083577900517,
            -1.638481359999938
          ],
          [
            -78.6407497220051,
            -1.638503461999921
          ],
          [
            -78.64069764900512,
            -1.6385414129999147
          ],
          [
            -78.64062848900511,
            -1.638562847999902
          ],
          [
            -78.6405835000051,
            -1.6386381039999205
          ],
          [
            -78.64049503900516,
            -1.6387097219998978
          ],
          [
            -78.64045839800512,
            -1.6387461869998996
          ],
          [
            -78.64043844425025,
            -1.638766045419592
          ],
          [
            -78.64041298000514,
            -1.6387913879999247
          ],
          [
            -78.64030594600514,
            -1.6388988449999418
          ],
          [
            -78.64022098300512,
            -1.6389805829999546
          ],
          [
            -78.64007809400519,
            -1.639118046999912
          ],
          [
            -78.63994374293681,
            -1.6392643263320763
          ],
          [
            -78.63994298000513,
            -1.6392651569999226
          ],
          [
            -78.63989530800514,
            -1.6393989829999513
          ],
          [
            -78.6398571730051,
            -1.6395041309999507
          ],
          [
            -78.63979057200517,
            -1.6395729049999272
          ],
          [
            -78.63973350000515,
            -1.639618739999928
          ],
          [
            -78.63966696600512,
            -1.6396301369998831
          ],
          [
            -78.63958523900519,
            -1.6396319519999087
          ],
          [
            -78.63954641200516,
            -1.6396307609999543
          ],
          [
            -78.63952689300517,
            -1.6396301619998883
          ],
          [
            -78.63949554600518,
            -1.639619604999911
          ],
          [
            -78.63947183300516,
            -1.639581324999924
          ],
          [
            -78.63945474500515,
            -1.6395669599999514
          ],
          [
            -78.63940724300514,
            -1.6395554279999238
          ],
          [
            -78.63935593800512,
            -1.6395467609999268
          ],
          [
            -78.63927991400517,
            -1.6395466699999008
          ],
          [
            -78.63923335100516,
            -1.6395456589999384
          ],
          [
            -78.63914401700518,
            -1.6395512909999637
          ],
          [
            -78.63904992900515,
            -1.6395588289999223
          ],
          [
            -78.63886125000514,
            -1.6395978139999388
          ],
          [
            -78.63873148900515,
            -1.6396363899999444
          ],
          [
            -78.63867603900518,
            -1.6396163609999586
          ],
          [
            -78.63847454900517,
            -1.6392347969999543
          ],
          [
            -78.63845208900514,
            -1.6391415309999298
          ],
          [
            -78.63841300500516,
            -1.6390434629999375
          ],
          [
            -78.63835603000516,
            -1.6390063389999052
          ],
          [
            -78.6382491440052,
            -1.6389882819999153
          ],
          [
            -78.63814941200518,
            -1.6389463249999159
          ],
          [
            -78.6380750140052,
            -1.6389197099998978
          ],
          [
            -78.63803542500517,
            -1.6389055469999443
          ],
          [
            -78.63800690611727,
            -1.6388822193336556
          ]
        ]
      }
    }
  ]
}