{
  "type": "FeatureCollection",
  "features": [
    {
      "type": "Feature",
      "properties": {
        "ID_POLICIA": "POL-01",
        "ID_CANDIDATO": "CAND-POL-00319",
        "X": 756509.5778999999,
        "Y": 9816915.4569,
        "LONGITUD": -78.69448310662985,
        "LATITUD": -1.6550695522131278,
        "DECISION_FINAL": "MANTENER",
        "JUSTIFICACION": "Ubicacion congelada; beneficio reevaluado sin mover el punto.",
        "ESTADO": "PROPUESTA_FINAL_PARA_REVISION_NO_INSTALADA",
        "HOTSPOT_DEL": "GIU100-43-2|GIU100-43-3|GIU100-43-4|GIU100-44-2|GIU100-44-3|GIU100-44-4|GIU100-44-5|GIU100-45-3|GIU100-45-4|GIU100-46-3",
        "NIVEL_DEL": 99,
        "HOTSPOT_VIOL": "GIU100-44-4|GIU100-45-3|GIU100-45-4|GIU100-46-3|GIU100-46-4|GIU100-47-3|GIU100-47-4",
        "NIVEL_VIOL": 99,
        "HOTSPOT_CONV": "GIU100-46-3",
        "NIVEL_CONV": 90,
        "AMBITO_HOTSPOT": "URBANO",
        "COINCIDENCIA_DV": true,
        "DELINCUENCIA_200M": 33,
        "VIOLENCIA_200M": 18,
        "CONVIVENCIA_200M": 50,
        "N_TOTAL": 101,
        "COBERTURA_PREVIA": 0.0,
        "POBLACION_ASOCIADA": 486.50713354871283,
        "MANZANAS_POB_VALIDAS": 13,
        "MANZANAS_POB_FALTANTES": 0,
        "POBLACION_METODO": "Estimacion areal CPV2022 dentro del radio200m y18Plataformas; no poblacion rural completa",
        "UPC_CERCANA": "I0395",
        "NOMBRE_UPC": "24 DE MAYO",
        "DIST_UPC_M": 1513.3075477768166,
        "INFRA_CERCANA": "I0395",
        "DIST_INFRA_M": 1513.3075477768166,
        "DIST_EXISTENTE": 400.1688400306425,
        "DIST_MUNICIPAL": 547.3960287569523,
        "INTERSECCION_O_NODO": "INTERSECCION_VIAL_URBANA",
        "GRADO_NODO": 3,
        "CORREDOR_COINCIDENTE": null,
        "CORREDOR_METODO": "Eje intersecta buffer200m; no implica punto sobre eje ni criterio de seleccion",
        "NIVEL_DEL_RESIDUAL": 99,
        "NIVEL_VIOL_RESIDUAL": 99,
        "NIVEL_DV_RESIDUAL": 99,
        "EVENTOS_D_NUEVOS": 33,
        "EVENTOS_V_NUEVOS": 18,
        "EVENTOS_DV_NUEVOS": 51,
        "EVENTOS_C_NUEVOS": 50,
        "AREA_HOTSPOT_D_NUEVA_M2": 50785.330592893806,
        "AREA_HOTSPOT_V_NUEVA_M2": 24255.87960793509,
        "COINCIDENCIA_DV_RESIDUAL_M2": 16285.519480872646,
        "ESTADO_HOTSPOT_DV_PREVIO": "SIN COBERTURA",
        "SOLAPE_PREVIO_PCT": 0.0,
        "DIST_EXISTENTE_M": 400.1688400306425,
        "DIST_MUNICIPAL_M": 547.3960287569523,
        "DIST_POLICIA_M": 2222.5668626859456,
        "BENEFICIO_MARGINAL": 51,
        "SOLAPE_RESTO_FINAL_PCT": 0.0,
        "EVENTOS_D_EXCLUSIVOS_FINAL": 33,
        "EVENTOS_V_EXCLUSIVOS_FINAL": 18,
        "BENEFICIO_CONTEXTO": "Exclusivo respecto103+50final+otras29;no sumar entre camaras"
      },
      "geometry": {
        "type": "Point",
        "coordinates": [
          -78.69448310662985,
          -1.6550695522131278
        ]
      }
    },
    {
      "type": "Feature",
      "properties": {
        "ID_POLICIA": "POL-02",
        "ID_CANDIDATO": "CAND-POL-02507",
        "X": 762800.8601000002,
        "Y": 9816102.4482,
        "LONGITUD": -78.63796001663059,
        "LATITUD": -1.6623518015608694,
        "DECISION_FINAL": "MANTENER",
        "JUSTIFICACION": "Ubicacion congelada; beneficio reevaluado sin mover el punto.",
        "ESTADO": "PROPUESTA_FINAL_PARA_REVISION_NO_INSTALADA",
        "HOTSPOT_DEL": "GIU100-35-65|GIU100-35-66|GIU100-35-68|GIU100-36-66|GIU100-36-67|GIU100-37-67",
        "NIVEL_DEL": 99,
        "HOTSPOT_VIOL": "GIU100-35-65|GIU100-35-66|GIU100-35-67|GIU100-35-68|GIU100-36-65|GIU100-36-66|GIU100-36-67|GIU100-37-65|GIU100-37-66|GIU100-37-67|GIU100-38-65|GIU100-38-66",
        "NIVEL_VIOL": 99,
        "HOTSPOT_CONV": "GIU100-35-65",
        "NIVEL_CONV": 90,
        "AMBITO_HOTSPOT": "URBANO",
        "COINCIDENCIA_DV": true,
        "DELINCUENCIA_200M": 28,
        "VIOLENCIA_200M": 15,
        "CONVIVENCIA_200M": 32,
        "N_TOTAL": 75,
        "COBERTURA_PREVIA": 12.587593190308207,
        "POBLACION_ASOCIADA": 1330.0487127057668,
        "MANZANAS_POB_VALIDAS": 34,
        "MANZANAS_POB_FALTANTES": 0,
        "POBLACION_METODO": "Estimacion areal CPV2022 dentro del radio200m y18Plataformas; no poblacion rural completa",
        "UPC_CERCANA": "I0397",
        "NOMBRE_UPC": "LA ESPERANZA",
        "DIST_UPC_M": 298.9638379542108,
        "INFRA_CERCANA": "I0397",
        "DIST_INFRA_M": 298.9638379542108,
        "DIST_EXISTENTE": 373.7234840751978,
        "DIST_MUNICIPAL": 316.3585368045645,
        "INTERSECCION_O_NODO": "INTERSECCION_VIAL_URBANA",
        "GRADO_NODO": 4,
        "CORREDOR_COINCIDENTE": null,
        "CORREDOR_METODO": "Eje intersecta buffer200m; no implica punto sobre eje ni criterio de seleccion",
        "NIVEL_DEL_RESIDUAL": 95,
        "NIVEL_VIOL_RESIDUAL": 99,
        "NIVEL_DV_RESIDUAL": 95,
        "EVENTOS_D_NUEVOS": 13,
        "EVENTOS_V_NUEVOS": 5,
        "EVENTOS_DV_NUEVOS": 18,
        "EVENTOS_C_NUEVOS": 8,
        "AREA_HOTSPOT_D_NUEVA_M2": 4708.298575856673,
        "AREA_HOTSPOT_V_NUEVA_M2": 31623.4997560551,
        "COINCIDENCIA_DV_RESIDUAL_M2": 4708.298575856674,
        "ESTADO_HOTSPOT_DV_PREVIO": "PARCIALMENTE CUBIERTO",
        "SOLAPE_PREVIO_PCT": 59.63939862609421,
        "DIST_EXISTENTE_M": 373.7234840751978,
        "DIST_MUNICIPAL_M": 316.3585368045645,
        "DIST_POLICIA_M": 156.04112890527193,
        "BENEFICIO_MARGINAL": 18,
        "SOLAPE_RESTO_FINAL_PCT": 59.63939862609421,
        "EVENTOS_D_EXCLUSIVOS_FINAL": 13,
        "EVENTOS_V_EXCLUSIVOS_FINAL": 5,
        "BENEFICIO_CONTEXTO": "Exclusivo respecto103+50final+otras29;no sumar entre camaras"
      },
      "geometry": {
        "type": "Point",
        "coordinates": [
          -78.63796001663059,
          -1.6623518015608694
        ]
      }
    },
    {
      "type": "Feature",
      "properties": {
        "ID_POLICIA": "POL-03",
        "ID_CANDIDATO": "CAND-POL-01309",
        "X": 760673.2043000003,
        "Y": 9814762.1756,
        "LONGITUD": -78.65705814655412,
        "LATITUD": -1.6744902816905303,
        "DECISION_FINAL": "MANTENER",
        "JUSTIFICACION": "Ubicacion congelada; beneficio reevaluado sin mover el punto.",
        "ESTADO": "PROPUESTA_FINAL_PARA_REVISION_NO_INSTALADA",
        "HOTSPOT_DEL": "GIU100-22-46|GIU100-23-44|GIU100-23-45|GIU100-23-46|GIU100-23-47|GIU100-24-44|GIU100-24-45|GIU100-24-46|GIU100-24-47|GIU100-25-44|GIU100-25-45|GIU100-25-46|GIU100-25-47",
        "NIVEL_DEL": 99,
        "HOTSPOT_VIOL": "GIU100-21-44|GIU100-21-45|GIU100-21-46|GIU100-22-43|GIU100-22-44|GIU100-22-45|GIU100-22-46|GIU100-22-47|GIU100-23-43|GIU100-23-44|GIU100-23-45|GIU100-23-46|GIU100-23-47|GIU100-24-43|GIU100-24-44|GIU100-24-45|GIU100-24-46|GIU100-24-47|GIU100-25-44|GIU100-25-45|GIU100-25-46|GIU100-25-47",
        "NIVEL_VIOL": 99,
        "HOTSPOT_CONV": "GIU100-21-46|GIU100-22-45|GIU100-22-46|GIU100-22-47|GIU100-23-44|GIU100-23-45|GIU100-23-46|GIU100-23-47|GIU100-24-45|GIU100-24-46|GIU100-24-47|GIU100-25-45|GIU100-25-46|GIU100-25-47",
        "NIVEL_CONV": 99,
        "AMBITO_HOTSPOT": "URBANO",
        "COINCIDENCIA_DV": true,
        "DELINCUENCIA_200M": 48,
        "VIOLENCIA_200M": 21,
        "CONVIVENCIA_200M": 112,
        "N_TOTAL": 181,
        "COBERTURA_PREVIA": 34.48139644129697,
        "POBLACION_ASOCIADA": 1556.0501805534095,
        "MANZANAS_POB_VALIDAS": 24,
        "MANZANAS_POB_FALTANTES": 3,
        "POBLACION_METODO": "Estimacion areal CPV2022 dentro del radio200m y18Plataformas; no poblacion rural completa",
        "UPC_CERCANA": "I0421",
        "NOMBRE_UPC": "LA CONDAMINE 1",
        "DIST_UPC_M": 180.075270591813,
        "INFRA_CERCANA": "I0421",
        "DIST_INFRA_M": 180.075270591813,
        "DIST_EXISTENTE": 249.8113535503009,
        "DIST_MUNICIPAL": 413.09416156064174,
        "INTERSECCION_O_NODO": "INTERSECCION_VIAL_URBANA",
        "GRADO_NODO": 4,
        "CORREDOR_COINCIDENTE": "CICLOVIAS",
        "CORREDOR_METODO": "Eje intersecta buffer200m; no implica punto sobre eje ni criterio de seleccion",
        "NIVEL_DEL_RESIDUAL": 99,
        "NIVEL_VIOL_RESIDUAL": 99,
        "NIVEL_DV_RESIDUAL": 99,
        "EVENTOS_D_NUEVOS": 17,
        "EVENTOS_V_NUEVOS": 10,
        "EVENTOS_DV_NUEVOS": 27,
        "EVENTOS_C_NUEVOS": 60,
        "AREA_HOTSPOT_D_NUEVA_M2": 56199.52606805137,
        "AREA_HOTSPOT_V_NUEVA_M2": 72680.88680720847,
        "COINCIDENCIA_DV_RESIDUAL_M2": 56199.52606805136,
        "ESTADO_HOTSPOT_DV_PREVIO": "PARCIALMENTE CUBIERTO|SIN COBERTURA",
        "SOLAPE_PREVIO_PCT": 42.156580746199865,
        "DIST_EXISTENTE_M": 249.8113535503009,
        "DIST_MUNICIPAL_M": 413.09416156064174,
        "DIST_POLICIA_M": 341.392669368055,
        "BENEFICIO_MARGINAL": 27,
        "SOLAPE_RESTO_FINAL_PCT": 42.156580746199865,
        "EVENTOS_D_EXCLUSIVOS_FINAL": 17,
        "EVENTOS_V_EXCLUSIVOS_FINAL": 10,
        "BENEFICIO_CONTEXTO": "Exclusivo respecto103+50final+otras29;no sumar entre camaras"
      },
      "geometry": {
        "type": "Point",
        "coordinates": [
          -78.65705814655412,
          -1.6744902816905303
        ]
      }
    },
    {
      "type": "Feature",
      "properties": {
        "ID_POLICIA": "POL-04",
        "ID_CANDIDATO": "CAND-POL-02082",
        "X": 762251.9084000001,
        "Y": 9814084.542,
        "LONGITUD": -78.64286939327212,
        "LATITUD": -1.6805986567547835,
        "DECISION_FINAL": "MANTENER",
        "JUSTIFICACION": "Ubicacion congelada; beneficio reevaluado sin mover el punto.",
        "ESTADO": "PROPUESTA_FINAL_PARA_REVISION_NO_INSTALADA",
        "HOTSPOT_DEL": "GIU100-14-62|GIU100-15-61|GIU100-15-62|GIU100-15-63|GIU100-16-60|GIU100-16-61|GIU100-16-62|GIU100-16-63|GIU100-17-61|GIU100-17-62|GIU100-17-63|GIU100-18-60|GIU100-18-61|GIU100-18-62|GIU100-18-63",
        "NIVEL_DEL": 99,
        "HOTSPOT_VIOL": "GIU100-14-60|GIU100-14-61|GIU100-14-62|GIU100-15-59|GIU100-15-60|GIU100-15-61|GIU100-15-62|GIU100-15-63|GIU100-16-60|GIU100-16-61|GIU100-16-62|GIU100-16-63|GIU100-17-61|GIU100-17-62",
        "NIVEL_VIOL": 99,
        "HOTSPOT_CONV": "GIU100-14-62|GIU100-15-63|GIU100-16-62|GIU100-17-61|GIU100-17-62|GIU100-17-63|GIU100-18-60|GIU100-18-61|GIU100-18-62|GIU100-18-63",
        "NIVEL_CONV": 99,
        "AMBITO_HOTSPOT": "URBANO",
        "COINCIDENCIA_DV": true,
        "DELINCUENCIA_200M": 31,
        "VIOLENCIA_200M": 46,
        "CONVIVENCIA_200M": 70,
        "N_TOTAL": 147,
        "COBERTURA_PREVIA": 66.12786320246765,
        "POBLACION_ASOCIADA": 1069.68958873573,
        "MANZANAS_POB_VALIDAS": 15,
        "MANZANAS_POB_FALTANTES": 4,
        "POBLACION_METODO": "Estimacion areal CPV2022 dentro del radio200m y18Plataformas; no poblacion rural completa",
        "UPC_CERCANA": "I0416",
        "NOMBRE_UPC": "LA JOYA",
        "DIST_UPC_M": 482.99665642076144,
        "INFRA_CERCANA": "I0411",
        "DIST_INFRA_M": 376.2377113879093,
        "DIST_EXISTENTE": 226.9083473457221,
        "DIST_MUNICIPAL": 412.80924889347295,
        "INTERSECCION_O_NODO": "INTERSECCION_VIAL_URBANA",
        "GRADO_NODO": 3,
        "CORREDOR_COINCIDENTE": "BOULEVARD_MACAJI_BELLAVISTA",
        "CORREDOR_METODO": "Eje intersecta buffer200m; no implica punto sobre eje ni criterio de seleccion",
        "NIVEL_DEL_RESIDUAL": 99,
        "NIVEL_VIOL_RESIDUAL": 99,
        "NIVEL_DV_RESIDUAL": 99,
        "EVENTOS_D_NUEVOS": 18,
        "EVENTOS_V_NUEVOS": 41,
        "EVENTOS_DV_NUEVOS": 59,
        "EVENTOS_C_NUEVOS": 36,
        "AREA_HOTSPOT_D_NUEVA_M2": 36469.55220880458,
        "AREA_HOTSPOT_V_NUEVA_M2": 38220.7007960048,
        "COINCIDENCIA_DV_RESIDUAL_M2": 32134.276601875394,
        "ESTADO_HOTSPOT_DV_PREVIO": "PARCIALMENTE CUBIERTO",
        "SOLAPE_PREVIO_PCT": 66.12786320246765,
        "DIST_EXISTENTE_M": 226.9083473457221,
        "DIST_MUNICIPAL_M": 412.80924889347295,
        "DIST_POLICIA_M": 446.62554170651015,
        "BENEFICIO_MARGINAL": 59,
        "SOLAPE_RESTO_FINAL_PCT": 66.12786320246765,
        "EVENTOS_D_EXCLUSIVOS_FINAL": 18,
        "EVENTOS_V_EXCLUSIVOS_FINAL": 41,
        "BENEFICIO_CONTEXTO": "Exclusivo respecto103+50final+otras29;no sumar entre camaras"
      },
      "geometry": {
        "type": "Point",
        "coordinates": [
          -78.64286939327212,
          -1.6805986567547835
        ]
      }
    },
    {
      "type": "Feature",
      "properties": {
        "ID_POLICIA": "POL-05",
        "ID_CANDIDATO": "CAND-POL-02398",
        "X": 762641.4753999999,
        "Y": 9813866.1114,
        "LONGITUD": -78.63936757068014,
        "LATITUD": -1.682568907062549,
        "DECISION_FINAL": "MANTENER",
        "JUSTIFICACION": "Ubicacion congelada; beneficio reevaluado sin mover el punto.",
        "ESTADO": "PROPUESTA_FINAL_PARA_REVISION_NO_INSTALADA",
        "HOTSPOT_DEL": "GIU100-12-64|GIU100-12-65|GIU100-13-63|GIU100-13-64|GIU100-13-65|GIU100-14-64|GIU100-14-65|GIU100-15-63|GIU100-15-64|GIU100-15-65|GIU100-15-66|GIU100-16-63|GIU100-16-64|GIU100-16-65|GIU100-16-66",
        "NIVEL_DEL": 99,
        "HOTSPOT_VIOL": "GIU100-13-66|GIU100-13-67|GIU100-14-66|GIU100-14-67|GIU100-15-63|GIU100-15-66|GIU100-15-67|GIU100-16-63",
        "NIVEL_VIOL": 99,
        "HOTSPOT_CONV": "GIU100-12-64|GIU100-13-63|GIU100-13-64|GIU100-13-65|GIU100-13-66|GIU100-14-63|GIU100-14-64|GIU100-14-65|GIU100-14-66|GIU100-14-67|GIU100-15-63|GIU100-15-64|GIU100-15-65|GIU100-15-66|GIU100-15-67|GIU100-16-64|GIU100-16-65|GIU100-16-66",
        "NIVEL_CONV": 99,
        "AMBITO_HOTSPOT": "URBANO",
        "COINCIDENCIA_DV": true,
        "DELINCUENCIA_200M": 55,
        "VIOLENCIA_200M": 9,
        "CONVIVENCIA_200M": 121,
        "N_TOTAL": 185,
        "COBERTURA_PREVIA": 75.70236348186336,
        "POBLACION_ASOCIADA": 1540.2309622753069,
        "MANZANAS_POB_VALIDAS": 27,
        "MANZANAS_POB_FALTANTES": 2,
        "POBLACION_METODO": "Estimacion areal CPV2022 dentro del radio200m y18Plataformas; no poblacion rural completa",
        "UPC_CERCANA": "I0410",
        "NOMBRE_UPC": "PUCARA 1",
        "DIST_UPC_M": 254.5108172906197,
        "INFRA_CERCANA": "I0411",
        "DIST_INFRA_M": 229.28648056764848,
        "DIST_EXISTENTE": 200.00041739447732,
        "DIST_MUNICIPAL": 573.8209307115442,
        "INTERSECCION_O_NODO": "INTERSECCION_VIAL_URBANA",
        "GRADO_NODO": 3,
        "CORREDOR_COINCIDENTE": null,
        "CORREDOR_METODO": "Eje intersecta buffer200m; no implica punto sobre eje ni criterio de seleccion",
        "NIVEL_DEL_RESIDUAL": 99,
        "NIVEL_VIOL_RESIDUAL": 99,
        "NIVEL_DV_RESIDUAL": 99,
        "EVENTOS_D_NUEVOS": 27,
        "EVENTOS_V_NUEVOS": 3,
        "EVENTOS_DV_NUEVOS": 30,
        "EVENTOS_C_NUEVOS": 41,
        "AREA_HOTSPOT_D_NUEVA_M2": 30022.75424874602,
        "AREA_HOTSPOT_V_NUEVA_M2": 308.4113226229978,
        "COINCIDENCIA_DV_RESIDUAL_M2": 251.8707587109436,
        "ESTADO_HOTSPOT_DV_PREVIO": "PARCIALMENTE CUBIERTO",
        "SOLAPE_PREVIO_PCT": 75.70236348186336,
        "DIST_EXISTENTE_M": 200.00041739447732,
        "DIST_MUNICIPAL_M": 573.8209307115442,
        "DIST_POLICIA_M": 392.9618384167819,
        "BENEFICIO_MARGINAL": 30,
        "SOLAPE_RESTO_FINAL_PCT": 75.70236348186336,
        "EVENTOS_D_EXCLUSIVOS_FINAL": 27,
        "EVENTOS_V_EXCLUSIVOS_FINAL": 3,
        "BENEFICIO_CONTEXTO": "Exclusivo respecto103+50final+otras29;no sumar entre camaras"
      },
      "geometry": {
        "type": "Point",
        "coordinates": [
          -78.63936757068014,
          -1.682568907062549
        ]
      }
    },
    {
      "type": "Feature",
      "properties": {
        "ID_POLICIA": "POL-06",
        "ID_CANDIDATO": "CAND-POL-02095",
        "X": 762263.9825999998,
        "Y": 9815120.0626,
        "LONGITUD": -78.64277213044086,
        "LATITUD": -1.6712379067375926,
        "DECISION_FINAL": "REEMPLAZAR",
        "JUSTIFICACION": "Perdida comprobada con nuevas municipales: 6 a 4 D/V. Alternativa significativa D/V: 4 a 8 exclusivos; solape 91.24% a 78.12%; sin disminuir D ni V individualmente.",
        "ESTADO": "PROPUESTA_FINAL_PARA_REVISION_NO_INSTALADA",
        "HOTSPOT_DEL": "GIU100-27-59",
        "NIVEL_DEL": 95,
        "HOTSPOT_VIOL": "GIU100-25-63|GIU100-27-59|GIU100-28-59|GIU100-28-60|GIU100-29-60",
        "NIVEL_VIOL": 99,
        "HOTSPOT_CONV": "GIU100-29-62",
        "NIVEL_CONV": 95,
        "AMBITO_HOTSPOT": "URBANO",
        "COINCIDENCIA_DV": true,
        "DELINCUENCIA_200M": 12,
        "VIOLENCIA_200M": 7,
        "CONVIVENCIA_200M": 36,
        "N_TOTAL": 55,
        "COBERTURA_PREVIA": 6.900071355354584,
        "POBLACION_ASOCIADA": 1530.5773337051817,
        "MANZANAS_POB_VALIDAS": 33,
        "MANZANAS_POB_FALTANTES": 1,
        "POBLACION_METODO": "Estimacion areal CPV2022 dentro del radio200m y18Plataformas; no poblacion rural completa",
        "UPC_CERCANA": "I0404",
        "NOMBRE_UPC": "LA ESTACION 2",
        "DIST_UPC_M": 534.742305659451,
        "INFRA_CERCANA": "I0404",
        "DIST_INFRA_M": 534.742305659451,
        "DIST_EXISTENTE": 399.49650003791146,
        "DIST_MUNICIPAL": 339.50509312032847,
        "INTERSECCION_O_NODO": "INTERSECCION_VIAL_URBANA",
        "GRADO_NODO": 4,
        "CORREDOR_COINCIDENTE": null,
        "CORREDOR_METODO": "Eje intersecta buffer200m; no implica punto sobre eje ni criterio de seleccion",
        "NIVEL_DEL_RESIDUAL": 95,
        "NIVEL_VIOL_RESIDUAL": 99,
        "NIVEL_DV_RESIDUAL": 95,
        "EVENTOS_D_NUEVOS": 5,
        "EVENTOS_V_NUEVOS": 3,
        "EVENTOS_DV_NUEVOS": 8,
        "EVENTOS_C_NUEVOS": 14,
        "AREA_HOTSPOT_D_NUEVA_M2": 2079.101403069608,
        "AREA_HOTSPOT_V_NUEVA_M2": 4491.542529207813,
        "COINCIDENCIA_DV_RESIDUAL_M2": 2079.101403069608,
        "ESTADO_HOTSPOT_DV_PREVIO": "PARCIALMENTE CUBIERTO",
        "SOLAPE_PREVIO_PCT": 78.1160714142296,
        "DIST_EXISTENTE_M": 399.49650003791146,
        "DIST_MUNICIPAL_M": 339.50509312032847,
        "DIST_POLICIA_M": 172.22896915991168,
        "BENEFICIO_MARGINAL": 8,
        "SOLAPE_RESTO_FINAL_PCT": 78.1160714142296,
        "EVENTOS_D_EXCLUSIVOS_FINAL": 5,
        "EVENTOS_V_EXCLUSIVOS_FINAL": 3,
        "BENEFICIO_CONTEXTO": "Exclusivo respecto103+50final+otras29;no sumar entre camaras"
      },
      "geometry": {
        "type": "Point",
        "coordinates": [
          -78.64277213044086,
          -1.6712379067375926
        ]
      }
    },
    {
      "type": "Feature",
      "properties": {
        "ID_POLICIA": "POL-07",
        "ID_CANDIDATO": "CAND-POL-01184",
        "X": 760323.7768000001,
        "Y": 9814917.6006,
        "LONGITUD": -78.660198721826,
        "LATITUD": -1.6730890692462181,
        "DECISION_FINAL": "MANTENER",
        "JUSTIFICACION": "Ubicacion congelada; beneficio reevaluado sin mover el punto.",
        "ESTADO": "PROPUESTA_FINAL_PARA_REVISION_NO_INSTALADA",
        "HOTSPOT_DEL": "GIU100-24-44|GIU100-25-44|GIU100-26-44",
        "NIVEL_DEL": 99,
        "HOTSPOT_VIOL": "GIU100-23-41|GIU100-23-42|GIU100-23-43|GIU100-24-42|GIU100-24-43|GIU100-24-44|GIU100-25-43|GIU100-25-44|GIU100-26-43|GIU100-26-44",
        "NIVEL_VIOL": 99,
        "HOTSPOT_CONV": "GIU100-24-42",
        "NIVEL_CONV": 90,
        "AMBITO_HOTSPOT": "URBANO",
        "COINCIDENCIA_DV": true,
        "DELINCUENCIA_200M": 12,
        "VIOLENCIA_200M": 9,
        "CONVIVENCIA_200M": 48,
        "N_TOTAL": 69,
        "COBERTURA_PREVIA": 74.48080192960913,
        "POBLACION_ASOCIADA": 1698.8926203687727,
        "MANZANAS_POB_VALIDAS": 24,
        "MANZANAS_POB_FALTANTES": 2,
        "POBLACION_METODO": "Estimacion areal CPV2022 dentro del radio200m y18Plataformas; no poblacion rural completa",
        "UPC_CERCANA": "I0421",
        "NOMBRE_UPC": "LA CONDAMINE 1",
        "DIST_UPC_M": 203.6529744932956,
        "INFRA_CERCANA": "I0421",
        "DIST_INFRA_M": 203.6529744932956,
        "DIST_EXISTENTE": 367.30763984522883,
        "DIST_MUNICIPAL": 89.61761400041733,
        "INTERSECCION_O_NODO": "INTERSECCION_VIAL_URBANA",
        "GRADO_NODO": 4,
        "CORREDOR_COINCIDENTE": "ANILLO_VIAL",
        "CORREDOR_METODO": "Eje intersecta buffer200m; no implica punto sobre eje ni criterio de seleccion",
        "NIVEL_DEL_RESIDUAL": 99,
        "NIVEL_VIOL_RESIDUAL": 99,
        "NIVEL_DV_RESIDUAL": 99,
        "EVENTOS_D_NUEVOS": 2,
        "EVENTOS_V_NUEVOS": 2,
        "EVENTOS_DV_NUEVOS": 4,
        "EVENTOS_C_NUEVOS": 5,
        "AREA_HOTSPOT_D_NUEVA_M2": 1175.3338020150322,
        "AREA_HOTSPOT_V_NUEVA_M2": 5282.823921542459,
        "COINCIDENCIA_DV_RESIDUAL_M2": 1175.3338020150322,
        "ESTADO_HOTSPOT_DV_PREVIO": "PARCIALMENTE CUBIERTO",
        "SOLAPE_PREVIO_PCT": 90.54598215743114,
        "DIST_EXISTENTE_M": 367.30763984522883,
        "DIST_MUNICIPAL_M": 89.61761400041733,
        "DIST_POLICIA_M": 265.6547532021458,
        "BENEFICIO_MARGINAL": 4,
        "SOLAPE_RESTO_FINAL_PCT": 90.54598215743114,
        "EVENTOS_D_EXCLUSIVOS_FINAL": 2,
        "EVENTOS_V_EXCLUSIVOS_FINAL": 2,
        "BENEFICIO_CONTEXTO": "Exclusivo respecto103+50final+otras29;no sumar entre camaras"
      },
      "geometry": {
        "type": "Point",
        "coordinates": [
          -78.660198721826,
          -1.6730890692462181
        ]
      }
    },
    {
      "type": "Feature",
      "properties": {
        "ID_POLICIA": "POL-08",
        "ID_CANDIDATO": "CAND-POL-00639",
        "X": 758421.4444000004,
        "Y": 9818048.8456,
        "LONGITUD": -78.67732052460234,
        "LATITUD": -1.6448038236214169,
        "DECISION_FINAL": "MANTENER",
        "JUSTIFICACION": "Reemplazo propuesto; exclusivos D/V 10 a 24, solape 69.35% a 0.00%. Nivel residual D/V 99% a 90%. Evidencia Gi* original, sin optimizacion completa ni criterios de corredores; areas/niveles pueden disminuir. Validacion de campo pendiente.",
        "ESTADO": "PROPUESTA_FINAL_PARA_REVISION_NO_INSTALADA",
        "HOTSPOT_DEL": "GIU100-56-25",
        "NIVEL_DEL": 90,
        "HOTSPOT_VIOL": "GIU100-56-25",
        "NIVEL_VIOL": 95,
        "HOTSPOT_CONV": null,
        "NIVEL_CONV": 0,
        "AMBITO_HOTSPOT": "URBANO",
        "COINCIDENCIA_DV": true,
        "DELINCUENCIA_200M": 16,
        "VIOLENCIA_200M": 8,
        "CONVIVENCIA_200M": 14,
        "N_TOTAL": 38,
        "COBERTURA_PREVIA": 0.0,
        "POBLACION_ASOCIADA": 739.0384055066252,
        "MANZANAS_POB_VALIDAS": 23,
        "MANZANAS_POB_FALTANTES": 1,
        "POBLACION_METODO": "Estimacion areal CPV2022 dentro del radio200m y18Plataformas; no poblacion rural completa",
        "UPC_CERCANA": "I0395",
        "NOMBRE_UPC": "24 DE MAYO",
        "DIST_UPC_M": 769.4467761383992,
        "INFRA_CERCANA": "I0395",
        "DIST_INFRA_M": 769.4467761383992,
        "DIST_EXISTENTE": 402.85886725304323,
        "DIST_MUNICIPAL": 866.0165441108809,
        "INTERSECCION_O_NODO": "INTERSECCION_VIAL_URBANA",
        "GRADO_NODO": 4,
        "CORREDOR_COINCIDENTE": null,
        "CORREDOR_METODO": "Eje intersecta buffer200m; no implica punto sobre eje ni criterio de seleccion",
        "NIVEL_DEL_RESIDUAL": 0,
        "NIVEL_VIOL_RESIDUAL": 0,
        "NIVEL_DV_RESIDUAL": 0,
        "EVENTOS_D_NUEVOS": 7,
        "EVENTOS_V_NUEVOS": 5,
        "EVENTOS_DV_NUEVOS": 12,
        "EVENTOS_C_NUEVOS": 5,
        "AREA_HOTSPOT_D_NUEVA_M2": 0.0,
        "AREA_HOTSPOT_V_NUEVA_M2": 0.0,
        "COINCIDENCIA_DV_RESIDUAL_M2": 0.0,
        "ESTADO_HOTSPOT_DV_PREVIO": "SIN REMANENTE D/V",
        "SOLAPE_PREVIO_PCT": 38.19172422165619,
        "DIST_EXISTENTE_M": 402.85886725304323,
        "DIST_MUNICIPAL_M": 866.0165441108809,
        "DIST_POLICIA_M": 252.26294233992456,
        "BENEFICIO_MARGINAL": 12,
        "SOLAPE_RESTO_FINAL_PCT": 38.19172422165619,
        "EVENTOS_D_EXCLUSIVOS_FINAL": 7,
        "EVENTOS_V_EXCLUSIVOS_FINAL": 5,
        "BENEFICIO_CONTEXTO": "Exclusivo respecto103+50final+otras29;no sumar entre camaras"
      },
      "geometry": {
        "type": "Point",
        "coordinates": [
          -78.67732052460234,
          -1.6448038236214169
        ]
      }
    },
    {
      "type": "Feature",
      "properties": {
        "ID_POLICIA": "POL-09",
        "ID_CANDIDATO": "CAND-POL-01392",
        "X": 760936.3009000001,
        "Y": 9814544.623,
        "LONGITUD": -78.65469241294478,
        "LATITUD": -1.676454026700297,
        "DECISION_FINAL": "MANTENER",
        "JUSTIFICACION": "Ubicacion congelada; beneficio reevaluado sin mover el punto.",
        "ESTADO": "PROPUESTA_FINAL_PARA_REVISION_NO_INSTALADA",
        "HOTSPOT_DEL": "GIU100-22-46|GIU100-23-47|GIU100-23-48",
        "NIVEL_DEL": 99,
        "HOTSPOT_VIOL": "GIU100-20-47|GIU100-21-46|GIU100-21-47|GIU100-21-48|GIU100-22-46|GIU100-22-47|GIU100-23-47|GIU100-23-49",
        "NIVEL_VIOL": 99,
        "HOTSPOT_CONV": "GIU100-21-46|GIU100-22-46|GIU100-22-47|GIU100-23-47|GIU100-23-48|GIU100-23-49",
        "NIVEL_CONV": 99,
        "AMBITO_HOTSPOT": "URBANO",
        "COINCIDENCIA_DV": true,
        "DELINCUENCIA_200M": 14,
        "VIOLENCIA_200M": 12,
        "CONVIVENCIA_200M": 58,
        "N_TOTAL": 84,
        "COBERTURA_PREVIA": 19.031137931625583,
        "POBLACION_ASOCIADA": 1562.0713501798787,
        "MANZANAS_POB_VALIDAS": 31,
        "MANZANAS_POB_FALTANTES": 0,
        "POBLACION_METODO": "Estimacion areal CPV2022 dentro del radio200m y18Plataformas; no poblacion rural completa",
        "UPC_CERCANA": "I0421",
        "NOMBRE_UPC": "LA CONDAMINE 1",
        "DIST_UPC_M": 519.451121678365,
        "INFRA_CERCANA": "I0421",
        "DIST_INFRA_M": 519.451121678365,
        "DIST_EXISTENTE": 393.96189671201785,
        "DIST_MUNICIPAL": 294.1972928863775,
        "INTERSECCION_O_NODO": "INTERSECCION_VIAL_URBANA",
        "GRADO_NODO": 4,
        "CORREDOR_COINCIDENTE": null,
        "CORREDOR_METODO": "Eje intersecta buffer200m; no implica punto sobre eje ni criterio de seleccion",
        "NIVEL_DEL_RESIDUAL": 99,
        "NIVEL_VIOL_RESIDUAL": 99,
        "NIVEL_DV_RESIDUAL": 99,
        "EVENTOS_D_NUEVOS": 7,
        "EVENTOS_V_NUEVOS": 7,
        "EVENTOS_DV_NUEVOS": 14,
        "EVENTOS_C_NUEVOS": 27,
        "AREA_HOTSPOT_D_NUEVA_M2": 3793.6800727815953,
        "AREA_HOTSPOT_V_NUEVA_M2": 42320.49646577591,
        "COINCIDENCIA_DV_RESIDUAL_M2": 1243.9401291441454,
        "ESTADO_HOTSPOT_DV_PREVIO": "PARCIALMENTE CUBIERTO",
        "SOLAPE_PREVIO_PCT": 39.81617038067564,
        "DIST_EXISTENTE_M": 393.96189671201785,
        "DIST_MUNICIPAL_M": 294.1972928863775,
        "DIST_POLICIA_M": 255.22314849387914,
        "BENEFICIO_MARGINAL": 14,
        "SOLAPE_RESTO_FINAL_PCT": 39.81617038067564,
        "EVENTOS_D_EXCLUSIVOS_FINAL": 7,
        "EVENTOS_V_EXCLUSIVOS_FINAL": 7,
        "BENEFICIO_CONTEXTO": "Exclusivo respecto103+50final+otras29;no sumar entre camaras"
      },
      "geometry": {
        "type": "Point",
        "coordinates": [
          -78.65469241294478,
          -1.676454026700297
        ]
      }
    },
    {
      "type": "Feature",
      "properties": {
        "ID_POLICIA": "POL-10",
        "ID_CANDIDATO": "CAND-POL-02188",
        "X": 762361.5181,
        "Y": 9815343.9826,
        "LONGITUD": -78.6418983945951,
        "LATITUD": -1.6692127179135248,
        "DECISION_FINAL": "MANTENER",
        "JUSTIFICACION": "Ubicacion congelada; beneficio reevaluado sin mover el punto.",
        "ESTADO": "PROPUESTA_FINAL_PARA_REVISION_NO_INSTALADA",
        "HOTSPOT_DEL": "GIU100-30-60|GIU100-31-61",
        "NIVEL_DEL": 99,
        "HOTSPOT_VIOL": "GIU100-28-60|GIU100-29-60|GIU100-30-60|GIU100-30-61|GIU100-30-62|GIU100-31-61|GIU100-31-63",
        "NIVEL_VIOL": 99,
        "HOTSPOT_CONV": "GIU100-28-64|GIU100-29-62|GIU100-29-63|GIU100-29-64|GIU100-30-62|GIU100-30-63|GIU100-30-64|GIU100-31-61|GIU100-31-63",
        "NIVEL_CONV": 99,
        "AMBITO_HOTSPOT": "URBANO",
        "COINCIDENCIA_DV": true,
        "DELINCUENCIA_200M": 11,
        "VIOLENCIA_200M": 10,
        "CONVIVENCIA_200M": 105,
        "N_TOTAL": 126,
        "COBERTURA_PREVIA": 18.724326385929466,
        "POBLACION_ASOCIADA": 1586.003425135284,
        "MANZANAS_POB_VALIDAS": 28,
        "MANZANAS_POB_FALTANTES": 1,
        "POBLACION_METODO": "Estimacion areal CPV2022 dentro del radio200m y18Plataformas; no poblacion rural completa",
        "UPC_CERCANA": "I0404",
        "NOMBRE_UPC": "LA ESTACION 2",
        "DIST_UPC_M": 370.4280200210577,
        "INFRA_CERCANA": "I0404",
        "DIST_INFRA_M": 370.4280200210577,
        "DIST_EXISTENTE": 370.1660499318012,
        "DIST_MUNICIPAL": 288.2855828651825,
        "INTERSECCION_O_NODO": "INTERSECCION_VIAL_URBANA",
        "GRADO_NODO": 3,
        "CORREDOR_COINCIDENTE": null,
        "CORREDOR_METODO": "Eje intersecta buffer200m; no implica punto sobre eje ni criterio de seleccion",
        "NIVEL_DEL_RESIDUAL": 99,
        "NIVEL_VIOL_RESIDUAL": 95,
        "NIVEL_DV_RESIDUAL": 95,
        "EVENTOS_D_NUEVOS": 4,
        "EVENTOS_V_NUEVOS": 3,
        "EVENTOS_DV_NUEVOS": 7,
        "EVENTOS_C_NUEVOS": 22,
        "AREA_HOTSPOT_D_NUEVA_M2": 15.549261128348943,
        "AREA_HOTSPOT_V_NUEVA_M2": 11489.05652758881,
        "COINCIDENCIA_DV_RESIDUAL_M2": 15.549261128348943,
        "ESTADO_HOTSPOT_DV_PREVIO": "PARCIALMENTE CUBIERTO",
        "SOLAPE_PREVIO_PCT": 60.51159568147338,
        "DIST_EXISTENTE_M": 370.1660499318012,
        "DIST_MUNICIPAL_M": 288.2855828651825,
        "DIST_POLICIA_M": 244.2403327877312,
        "BENEFICIO_MARGINAL": 7,
        "SOLAPE_RESTO_FINAL_PCT": 60.51159568147338,
        "EVENTOS_D_EXCLUSIVOS_FINAL": 4,
        "EVENTOS_V_EXCLUSIVOS_FINAL": 3,
        "BENEFICIO_CONTEXTO": "Exclusivo respecto103+50final+otras29;no sumar entre camaras"
      },
      "geometry": {
        "type": "Point",
        "coordinates": [
          -78.6418983945951,
          -1.6692127179135248
        ]
      }
    },
    {
      "type": "Feature",
      "properties": {
        "ID_POLICIA": "POL-11",
        "ID_CANDIDATO": "CAND-POL-01744",
        "X": 761838.3465,
        "Y": 9815623.9473,
        "LONGITUD": -78.64660099482386,
        "LATITUD": -1.666687629028869,
        "DECISION_FINAL": "MANTENER",
        "JUSTIFICACION": "Ubicacion congelada; beneficio reevaluado sin mover el punto.",
        "ESTADO": "PROPUESTA_FINAL_PARA_REVISION_NO_INSTALADA",
        "HOTSPOT_DEL": "GIU100-31-59|GIU100-32-55|GIU100-32-58|GIU100-32-59|GIU100-33-55|GIU100-33-59",
        "NIVEL_DEL": 99,
        "HOTSPOT_VIOL": "GIU100-30-55|GIU100-30-56|GIU100-30-57|GIU100-30-58|GIU100-31-55|GIU100-31-56|GIU100-31-58|GIU100-31-59|GIU100-32-55|GIU100-32-56|GIU100-32-57|GIU100-32-58|GIU100-32-59|GIU100-33-55|GIU100-33-56|GIU100-33-58|GIU100-34-56|GIU100-34-57",
        "NIVEL_VIOL": 99,
        "HOTSPOT_CONV": "GIU100-33-59|GIU100-34-56",
        "NIVEL_CONV": 90,
        "AMBITO_HOTSPOT": "URBANO",
        "COINCIDENCIA_DV": true,
        "DELINCUENCIA_200M": 14,
        "VIOLENCIA_200M": 11,
        "CONVIVENCIA_200M": 29,
        "N_TOTAL": 54,
        "COBERTURA_PREVIA": 20.32728721520913,
        "POBLACION_ASOCIADA": 801.7936136718176,
        "MANZANAS_POB_VALIDAS": 22,
        "MANZANAS_POB_FALTANTES": 1,
        "POBLACION_METODO": "Estimacion areal CPV2022 dentro del radio200m y18Plataformas; no poblacion rural completa",
        "UPC_CERCANA": "I0403",
        "NOMBRE_UPC": "PLAZA DAVALOS",
        "DIST_UPC_M": 254.51506782894015,
        "INFRA_CERCANA": "I0403",
        "DIST_INFRA_M": 254.51506782894015,
        "DIST_EXISTENTE": 346.9953314965639,
        "DIST_MUNICIPAL": 325.7709025624759,
        "INTERSECCION_O_NODO": "INTERSECCION_VIAL_URBANA",
        "GRADO_NODO": 3,
        "CORREDOR_COINCIDENTE": null,
        "CORREDOR_METODO": "Eje intersecta buffer200m; no implica punto sobre eje ni criterio de seleccion",
        "NIVEL_DEL_RESIDUAL": 99,
        "NIVEL_VIOL_RESIDUAL": 99,
        "NIVEL_DV_RESIDUAL": 95,
        "EVENTOS_D_NUEVOS": 4,
        "EVENTOS_V_NUEVOS": 2,
        "EVENTOS_DV_NUEVOS": 6,
        "EVENTOS_C_NUEVOS": 11,
        "AREA_HOTSPOT_D_NUEVA_M2": 5872.628156717458,
        "AREA_HOTSPOT_V_NUEVA_M2": 47857.50902915274,
        "COINCIDENCIA_DV_RESIDUAL_M2": 5872.628156717458,
        "ESTADO_HOTSPOT_DV_PREVIO": "PARCIALMENTE CUBIERTO",
        "SOLAPE_PREVIO_PCT": 52.25205404767028,
        "DIST_EXISTENTE_M": 346.9953314965639,
        "DIST_MUNICIPAL_M": 325.7709025624759,
        "DIST_POLICIA_M": 240.76306263643866,
        "BENEFICIO_MARGINAL": 6,
        "SOLAPE_RESTO_FINAL_PCT": 52.25205404767028,
        "EVENTOS_D_EXCLUSIVOS_FINAL": 4,
        "EVENTOS_V_EXCLUSIVOS_FINAL": 2,
        "BENEFICIO_CONTEXTO": "Exclusivo respecto103+50final+otras29;no sumar entre camaras"
      },
      "geometry": {
        "type": "Point",
        "coordinates": [
          -78.64660099482386,
          -1.666687629028869
        ]
      }
    },
    {
      "type": "Feature",
      "properties": {
        "ID_POLICIA": "POL-12",
        "ID_CANDIDATO": "CAND-POL-01014",
        "X": 759770.4501,
        "Y": 9816248.9323,
        "LONGITUD": -78.66518345511977,
        "LATITUD": -1.6610602236911556,
        "DECISION_FINAL": "MANTENER",
        "JUSTIFICACION": "Ubicacion congelada; beneficio reevaluado sin mover el punto.",
        "ESTADO": "PROPUESTA_FINAL_PARA_REVISION_NO_INSTALADA",
        "HOTSPOT_DEL": "GIU100-36-37|GIU100-36-38|GIU100-37-37|GIU100-37-38|GIU100-38-38",
        "NIVEL_DEL": 99,
        "HOTSPOT_VIOL": "GIU100-36-36|GIU100-36-37|GIU100-36-38|GIU100-37-37|GIU100-37-38",
        "NIVEL_VIOL": 99,
        "HOTSPOT_CONV": "GIU100-36-35|GIU100-36-36|GIU100-36-37|GIU100-36-38|GIU100-37-35|GIU100-37-36|GIU100-37-37|GIU100-37-38|GIU100-38-36|GIU100-38-37|GIU100-38-38|GIU100-39-37",
        "NIVEL_CONV": 99,
        "AMBITO_HOTSPOT": "URBANO",
        "COINCIDENCIA_DV": true,
        "DELINCUENCIA_200M": 12,
        "VIOLENCIA_200M": 5,
        "CONVIVENCIA_200M": 83,
        "N_TOTAL": 100,
        "COBERTURA_PREVIA": 60.576496422738764,
        "POBLACION_ASOCIADA": 508.30037285144243,
        "MANZANAS_POB_VALIDAS": 10,
        "MANZANAS_POB_FALTANTES": 2,
        "POBLACION_METODO": "Estimacion areal CPV2022 dentro del radio200m y18Plataformas; no poblacion rural completa",
        "UPC_CERCANA": "I0419",
        "NOMBRE_UPC": "TERMINAL TERRESTRE 1",
        "DIST_UPC_M": 284.23339401462295,
        "INFRA_CERCANA": "I0419",
        "DIST_INFRA_M": 284.23339401462295,
        "DIST_EXISTENTE": 194.74980819619358,
        "DIST_MUNICIPAL": 525.3094514081238,
        "INTERSECCION_O_NODO": "INTERSECCION_VIAL_URBANA",
        "GRADO_NODO": 3,
        "CORREDOR_COINCIDENTE": null,
        "CORREDOR_METODO": "Eje intersecta buffer200m; no implica punto sobre eje ni criterio de seleccion",
        "NIVEL_DEL_RESIDUAL": 99,
        "NIVEL_VIOL_RESIDUAL": 99,
        "NIVEL_DV_RESIDUAL": 99,
        "EVENTOS_D_NUEVOS": 9,
        "EVENTOS_V_NUEVOS": 0,
        "EVENTOS_DV_NUEVOS": 9,
        "EVENTOS_C_NUEVOS": 4,
        "AREA_HOTSPOT_D_NUEVA_M2": 4085.0560528689825,
        "AREA_HOTSPOT_V_NUEVA_M2": 4085.0560528689825,
        "COINCIDENCIA_DV_RESIDUAL_M2": 4085.0560528689825,
        "ESTADO_HOTSPOT_DV_PREVIO": "PARCIALMENTE CUBIERTO",
        "SOLAPE_PREVIO_PCT": 66.03091047677444,
        "DIST_EXISTENTE_M": 194.74980819619358,
        "DIST_MUNICIPAL_M": 525.3094514081238,
        "DIST_POLICIA_M": 303.10433644663686,
        "BENEFICIO_MARGINAL": 9,
        "SOLAPE_RESTO_FINAL_PCT": 66.03091047677444,
        "EVENTOS_D_EXCLUSIVOS_FINAL": 9,
        "EVENTOS_V_EXCLUSIVOS_FINAL": 0,
        "BENEFICIO_CONTEXTO": "Exclusivo respecto103+50final+otras29;no sumar entre camaras"
      },
      "geometry": {
        "type": "Point",
        "coordinates": [
          -78.66518345511977,
          -1.6610602236911556
        ]
      }
    },
    {
      "type": "Feature",
      "properties": {
        "ID_POLICIA": "POL-13",
        "ID_CANDIDATO": "CAND-POL-02564",
        "X": 762856.5469000004,
        "Y": 9815956.6819,
        "LONGITUD": -78.63745822465926,
        "LATITUD": -1.6636688529145687,
        "DECISION_FINAL": "MANTENER",
        "JUSTIFICACION": "Ubicacion congelada; beneficio reevaluado sin mover el punto.",
        "ESTADO": "PROPUESTA_FINAL_PARA_REVISION_NO_INSTALADA",
        "HOTSPOT_DEL": "GIU100-33-67|GIU100-34-66|GIU100-34-67|GIU100-35-65|GIU100-35-66|GIU100-35-68|GIU100-36-66|GIU100-36-67|GIU100-37-67",
        "NIVEL_DEL": 99,
        "HOTSPOT_VIOL": "GIU100-33-67|GIU100-34-65|GIU100-34-66|GIU100-34-67|GIU100-35-65|GIU100-35-66|GIU100-35-67|GIU100-35-68|GIU100-36-65|GIU100-36-66|GIU100-36-67|GIU100-37-66|GIU100-37-67",
        "NIVEL_VIOL": 99,
        "HOTSPOT_CONV": "GIU100-35-65",
        "NIVEL_CONV": 90,
        "AMBITO_HOTSPOT": "URBANO",
        "COINCIDENCIA_DV": true,
        "DELINCUENCIA_200M": 20,
        "VIOLENCIA_200M": 15,
        "CONVIVENCIA_200M": 51,
        "N_TOTAL": 86,
        "COBERTURA_PREVIA": 14.345338827983632,
        "POBLACION_ASOCIADA": 1645.1139286213688,
        "MANZANAS_POB_VALIDAS": 33,
        "MANZANAS_POB_FALTANTES": 1,
        "POBLACION_METODO": "Estimacion areal CPV2022 dentro del radio200m y18Plataformas; no poblacion rural completa",
        "UPC_CERCANA": "I0397",
        "NOMBRE_UPC": "LA ESPERANZA",
        "DIST_UPC_M": 442.18846717501225,
        "INFRA_CERCANA": "I0397",
        "DIST_INFRA_M": 442.18846717501225,
        "DIST_EXISTENTE": 339.0038404066629,
        "DIST_MUNICIPAL": 336.736715362154,
        "INTERSECCION_O_NODO": "INTERSECCION_VIAL_URBANA",
        "GRADO_NODO": 3,
        "CORREDOR_COINCIDENTE": null,
        "CORREDOR_METODO": "Eje intersecta buffer200m; no implica punto sobre eje ni criterio de seleccion",
        "NIVEL_DEL_RESIDUAL": 99,
        "NIVEL_VIOL_RESIDUAL": 99,
        "NIVEL_DV_RESIDUAL": 95,
        "EVENTOS_D_NUEVOS": 4,
        "EVENTOS_V_NUEVOS": 5,
        "EVENTOS_DV_NUEVOS": 9,
        "EVENTOS_C_NUEVOS": 25,
        "AREA_HOTSPOT_D_NUEVA_M2": 23855.397402585888,
        "AREA_HOTSPOT_V_NUEVA_M2": 25172.833639343437,
        "COINCIDENCIA_DV_RESIDUAL_M2": 23855.397402585888,
        "ESTADO_HOTSPOT_DV_PREVIO": "PARCIALMENTE CUBIERTO",
        "SOLAPE_PREVIO_PCT": 61.39714426376827,
        "DIST_EXISTENTE_M": 339.0038404066629,
        "DIST_MUNICIPAL_M": 336.736715362154,
        "DIST_POLICIA_M": 156.04112890527193,
        "BENEFICIO_MARGINAL": 9,
        "SOLAPE_RESTO_FINAL_PCT": 61.39714426376827,
        "EVENTOS_D_EXCLUSIVOS_FINAL": 4,
        "EVENTOS_V_EXCLUSIVOS_FINAL": 5,
        "BENEFICIO_CONTEXTO": "Exclusivo respecto103+50final+otras29;no sumar entre camaras"
      },
      "geometry": {
        "type": "Point",
        "coordinates": [
          -78.63745822465926,
          -1.6636688529145687
        ]
      }
    },
    {
      "type": "Feature",
      "properties": {
        "ID_POLICIA": "POL-14",
        "ID_CANDIDATO": "CAND-POL-01245",
        "X": 760485.9926000005,
        "Y": 9815127.9776,
        "LONGITUD": -78.65874379131347,
        "LATITUD": -1.6711855884143312,
        "DECISION_FINAL": "MANTENER",
        "JUSTIFICACION": "Ubicacion congelada; beneficio reevaluado sin mover el punto.",
        "ESTADO": "PROPUESTA_FINAL_PARA_REVISION_NO_INSTALADA",
        "HOTSPOT_DEL": "GIU100-25-44|GIU100-25-45|GIU100-26-44|GIU100-26-45|GIU100-27-45|GIU100-28-44|GIU100-28-45|GIU100-29-44",
        "NIVEL_DEL": 99,
        "HOTSPOT_VIOL": "GIU100-25-43|GIU100-25-44|GIU100-25-45|GIU100-26-43|GIU100-26-44|GIU100-26-45|GIU100-27-44|GIU100-27-45|GIU100-28-45",
        "NIVEL_VIOL": 99,
        "HOTSPOT_CONV": "GIU100-25-45|GIU100-29-44",
        "NIVEL_CONV": 95,
        "AMBITO_HOTSPOT": "URBANO",
        "COINCIDENCIA_DV": true,
        "DELINCUENCIA_200M": 20,
        "VIOLENCIA_200M": 11,
        "CONVIVENCIA_200M": 36,
        "N_TOTAL": 67,
        "COBERTURA_PREVIA": 65.70855671451581,
        "POBLACION_ASOCIADA": 1667.8781953755658,
        "MANZANAS_POB_VALIDAS": 29,
        "MANZANAS_POB_FALTANTES": 1,
        "POBLACION_METODO": "Estimacion areal CPV2022 dentro del radio200m y18Plataformas; no poblacion rural completa",
        "UPC_CERCANA": "I0421",
        "NOMBRE_UPC": "LA CONDAMINE 1",
        "DIST_UPC_M": 280.1214791731123,
        "INFRA_CERCANA": "I0421",
        "DIST_INFRA_M": 280.1214791731123,
        "DIST_EXISTENTE": 124.08042911375325,
        "DIST_MUNICIPAL": 355.27213154953023,
        "INTERSECCION_O_NODO": "INTERSECCION_VIAL_URBANA",
        "GRADO_NODO": 4,
        "CORREDOR_COINCIDENTE": null,
        "CORREDOR_METODO": "Eje intersecta buffer200m; no implica punto sobre eje ni criterio de seleccion",
        "NIVEL_DEL_RESIDUAL": 99,
        "NIVEL_VIOL_RESIDUAL": 99,
        "NIVEL_DV_RESIDUAL": 99,
        "EVENTOS_D_NUEVOS": 3,
        "EVENTOS_V_NUEVOS": 3,
        "EVENTOS_DV_NUEVOS": 6,
        "EVENTOS_C_NUEVOS": 1,
        "AREA_HOTSPOT_D_NUEVA_M2": 1210.2862368853189,
        "AREA_HOTSPOT_V_NUEVA_M2": 1215.2295772169407,
        "COINCIDENCIA_DV_RESIDUAL_M2": 1194.8406880577015,
        "ESTADO_HOTSPOT_DV_PREVIO": "PARCIALMENTE CUBIERTO",
        "SOLAPE_PREVIO_PCT": 80.67819044904664,
        "DIST_EXISTENTE_M": 124.08042911375325,
        "DIST_MUNICIPAL_M": 355.27213154953023,
        "DIST_POLICIA_M": 265.6547532021458,
        "BENEFICIO_MARGINAL": 6,
        "SOLAPE_RESTO_FINAL_PCT": 80.67819044904664,
        "EVENTOS_D_EXCLUSIVOS_FINAL": 3,
        "EVENTOS_V_EXCLUSIVOS_FINAL": 3,
        "BENEFICIO_CONTEXTO": "Exclusivo respecto103+50final+otras29;no sumar entre camaras"
      },
      "geometry": {
        "type": "Point",
        "coordinates": [
          -78.65874379131347,
          -1.6711855884143312
        ]
      }
    },
    {
      "type": "Feature",
      "properties": {
        "ID_POLICIA": "POL-15",
        "ID_CANDIDATO": "CAND-POL-01487",
        "X": 761153.2564000003,
        "Y": 9814679.0446,
        "LONGITUD": -78.65274495309261,
        "LATITUD": -1.6752365591404088,
        "DECISION_FINAL": "MANTENER",
        "JUSTIFICACION": "Ubicacion congelada; beneficio reevaluado sin mover el punto.",
        "ESTADO": "PROPUESTA_FINAL_PARA_REVISION_NO_INSTALADA",
        "HOTSPOT_DEL": "GIU100-23-48|GIU100-23-51|GIU100-24-48|GIU100-24-49|GIU100-24-50|GIU100-24-51|GIU100-24-52",
        "NIVEL_DEL": 99,
        "HOTSPOT_VIOL": "GIU100-21-48|GIU100-23-49|GIU100-24-48|GIU100-24-49|GIU100-24-50",
        "NIVEL_VIOL": 99,
        "HOTSPOT_CONV": "GIU100-23-48|GIU100-23-49|GIU100-24-48|GIU100-24-49|GIU100-24-50",
        "NIVEL_CONV": 99,
        "AMBITO_HOTSPOT": "URBANO",
        "COINCIDENCIA_DV": true,
        "DELINCUENCIA_200M": 14,
        "VIOLENCIA_200M": 6,
        "CONVIVENCIA_200M": 34,
        "N_TOTAL": 54,
        "COBERTURA_PREVIA": 61.23029806739305,
        "POBLACION_ASOCIADA": 1212.4562769245913,
        "MANZANAS_POB_VALIDAS": 31,
        "MANZANAS_POB_FALTANTES": 0,
        "POBLACION_METODO": "Estimacion areal CPV2022 dentro del radio200m y18Plataformas; no poblacion rural completa",
        "UPC_CERCANA": "I0421",
        "NOMBRE_UPC": "LA CONDAMINE 1",
        "DIST_UPC_M": 659.9491328208452,
        "INFRA_CERCANA": "I0407",
        "DIST_INFRA_M": 564.1335056704443,
        "DIST_EXISTENTE": 331.9148388033813,
        "DIST_MUNICIPAL": 184.16302657722017,
        "INTERSECCION_O_NODO": "INTERSECCION_VIAL_URBANA",
        "GRADO_NODO": 4,
        "CORREDOR_COINCIDENTE": "BOULEVARD_MACAJI_BELLAVISTA",
        "CORREDOR_METODO": "Eje intersecta buffer200m; no implica punto sobre eje ni criterio de seleccion",
        "NIVEL_DEL_RESIDUAL": 99,
        "NIVEL_VIOL_RESIDUAL": 99,
        "NIVEL_DV_RESIDUAL": 99,
        "EVENTOS_D_NUEVOS": 2,
        "EVENTOS_V_NUEVOS": 0,
        "EVENTOS_DV_NUEVOS": 2,
        "EVENTOS_C_NUEVOS": 5,
        "AREA_HOTSPOT_D_NUEVA_M2": 11510.33862885427,
        "AREA_HOTSPOT_V_NUEVA_M2": 10481.94524825305,
        "COINCIDENCIA_DV_RESIDUAL_M2": 3357.7820481347358,
        "ESTADO_HOTSPOT_DV_PREVIO": "PARCIALMENTE CUBIERTO",
        "SOLAPE_PREVIO_PCT": 75.43569270483073,
        "DIST_EXISTENTE_M": 331.9148388033813,
        "DIST_MUNICIPAL_M": 184.16302657722017,
        "DIST_POLICIA_M": 255.22314849387914,
        "BENEFICIO_MARGINAL": 2,
        "SOLAPE_RESTO_FINAL_PCT": 75.43569270483073,
        "EVENTOS_D_EXCLUSIVOS_FINAL": 2,
        "EVENTOS_V_EXCLUSIVOS_FINAL": 0,
        "BENEFICIO_CONTEXTO": "Exclusivo respecto103+50final+otras29;no sumar entre camaras"
      },
      "geometry": {
        "type": "Point",
        "coordinates": [
          -78.65274495309261,
          -1.6752365591404088
        ]
      }
    },
    {
      "type": "Feature",
      "properties": {
        "ID_POLICIA": "POL-16",
        "ID_CANDIDATO": "CAND-POL-00990",
        "X": 759677.6255999999,
        "Y": 9815960.3914,
        "LONGITUD": -78.66601423184423,
        "LATITUD": -1.6636695330142353,
        "DECISION_FINAL": "MANTENER",
        "JUSTIFICACION": "Ubicacion congelada; beneficio reevaluado sin mover el punto.",
        "ESTADO": "PROPUESTA_FINAL_PARA_REVISION_NO_INSTALADA",
        "HOTSPOT_DEL": "GIU100-35-37|GIU100-36-37|GIU100-37-37",
        "NIVEL_DEL": 99,
        "HOTSPOT_VIOL": "GIU100-33-35|GIU100-33-36|GIU100-34-34|GIU100-34-35|GIU100-34-36|GIU100-34-37|GIU100-35-34|GIU100-35-36|GIU100-35-37|GIU100-36-36|GIU100-36-37|GIU100-37-37",
        "NIVEL_VIOL": 99,
        "HOTSPOT_CONV": "GIU100-34-36|GIU100-34-37|GIU100-35-35|GIU100-35-36|GIU100-35-37|GIU100-36-34|GIU100-36-35|GIU100-36-36|GIU100-36-37|GIU100-37-35|GIU100-37-36|GIU100-37-37",
        "NIVEL_CONV": 99,
        "AMBITO_HOTSPOT": "URBANO",
        "COINCIDENCIA_DV": true,
        "DELINCUENCIA_200M": 15,
        "VIOLENCIA_200M": 11,
        "CONVIVENCIA_200M": 88,
        "N_TOTAL": 114,
        "COBERTURA_PREVIA": 71.77766413552456,
        "POBLACION_ASOCIADA": 1303.776594104921,
        "MANZANAS_POB_VALIDAS": 18,
        "MANZANAS_POB_FALTANTES": 1,
        "POBLACION_METODO": "Estimacion areal CPV2022 dentro del radio200m y18Plataformas; no poblacion rural completa",
        "UPC_CERCANA": "I0419",
        "NOMBRE_UPC": "TERMINAL TERRESTRE 1",
        "DIST_UPC_M": 402.2405722454171,
        "INFRA_CERCANA": "I0419",
        "DIST_INFRA_M": 402.2405722454171,
        "DIST_EXISTENTE": 269.73248833487276,
        "DIST_MUNICIPAL": 225.70933924406188,
        "INTERSECCION_O_NODO": "INTERSECCION_VIAL_URBANA",
        "GRADO_NODO": 4,
        "CORREDOR_COINCIDENTE": "ANILLO_VIAL",
        "CORREDOR_METODO": "Eje intersecta buffer200m; no implica punto sobre eje ni criterio de seleccion",
        "NIVEL_DEL_RESIDUAL": 99,
        "NIVEL_VIOL_RESIDUAL": 99,
        "NIVEL_DV_RESIDUAL": 99,
        "EVENTOS_D_NUEVOS": 2,
        "EVENTOS_V_NUEVOS": 3,
        "EVENTOS_DV_NUEVOS": 5,
        "EVENTOS_C_NUEVOS": 43,
        "AREA_HOTSPOT_D_NUEVA_M2": 630.7992238235488,
        "AREA_HOTSPOT_V_NUEVA_M2": 17216.947318802635,
        "COINCIDENCIA_DV_RESIDUAL_M2": 630.7992238235488,
        "ESTADO_HOTSPOT_DV_PREVIO": "PARCIALMENTE CUBIERTO",
        "SOLAPE_PREVIO_PCT": 77.23207818955761,
        "DIST_EXISTENTE_M": 269.73248833487276,
        "DIST_MUNICIPAL_M": 225.70933924406188,
        "DIST_POLICIA_M": 303.10433644663686,
        "BENEFICIO_MARGINAL": 5,
        "SOLAPE_RESTO_FINAL_PCT": 77.23207818955761,
        "EVENTOS_D_EXCLUSIVOS_FINAL": 2,
        "EVENTOS_V_EXCLUSIVOS_FINAL": 3,
        "BENEFICIO_CONTEXTO": "Exclusivo respecto103+50final+otras29;no sumar entre camaras"
      },
      "geometry": {
        "type": "Point",
        "coordinates": [
          -78.66601423184423,
          -1.6636695330142353
        ]
      }
    },
    {
      "type": "Feature",
      "properties": {
        "ID_POLICIA": "POL-17",
        "ID_CANDIDATO": "CAND-POL-01960",
        "X": 762132.4550000001,
        "Y": 9815725.2698,
        "LONGITUD": -78.64396014145306,
        "LATITUD": -1.665768540764211,
        "DECISION_FINAL": "MANTENER",
        "JUSTIFICACION": "Ubicacion congelada; beneficio reevaluado sin mover el punto.",
        "ESTADO": "PROPUESTA_FINAL_PARA_REVISION_NO_INSTALADA",
        "HOTSPOT_DEL": "GIU100-31-59|GIU100-31-60|GIU100-31-61|GIU100-32-58|GIU100-32-59|GIU100-32-60|GIU100-32-61|GIU100-32-62|GIU100-33-59|GIU100-33-60|GIU100-33-61|GIU100-34-60|GIU100-34-62|GIU100-35-61",
        "NIVEL_DEL": 99,
        "HOTSPOT_VIOL": "GIU100-31-58|GIU100-31-59|GIU100-31-60|GIU100-31-61|GIU100-32-58|GIU100-32-59|GIU100-32-60|GIU100-32-61|GIU100-32-62|GIU100-33-58|GIU100-33-60|GIU100-33-61|GIU100-33-62|GIU100-34-59|GIU100-34-60|GIU100-34-61|GIU100-34-62|GIU100-35-61",
        "NIVEL_VIOL": 99,
        "HOTSPOT_CONV": "GIU100-31-60|GIU100-31-61|GIU100-32-61|GIU100-32-62|GIU100-33-59|GIU100-33-60|GIU100-33-62|GIU100-34-60|GIU100-34-62|GIU100-35-61",
        "NIVEL_CONV": 95,
        "AMBITO_HOTSPOT": "URBANO",
        "COINCIDENCIA_DV": true,
        "DELINCUENCIA_200M": 41,
        "VIOLENCIA_200M": 15,
        "CONVIVENCIA_200M": 61,
        "N_TOTAL": 117,
        "COBERTURA_PREVIA": 75.00424203792672,
        "POBLACION_ASOCIADA": 1296.52776278343,
        "MANZANAS_POB_VALIDAS": 27,
        "MANZANAS_POB_FALTANTES": 1,
        "POBLACION_METODO": "Estimacion areal CPV2022 dentro del radio200m y18Plataformas; no poblacion rural completa",
        "UPC_CERCANA": "I0404",
        "NOMBRE_UPC": "LA ESTACION 2",
        "DIST_UPC_M": 85.57008522886403,
        "INFRA_CERCANA": "I0404",
        "DIST_INFRA_M": 85.57008522886403,
        "DIST_EXISTENTE": 80.84168006671266,
        "DIST_MUNICIPAL": 324.2878837644314,
        "INTERSECCION_O_NODO": "INTERSECCION_VIAL_URBANA",
        "GRADO_NODO": 3,
        "CORREDOR_COINCIDENTE": "BOULEVARD_MACAJI_BELLAVISTA",
        "CORREDOR_METODO": "Eje intersecta buffer200m; no implica punto sobre eje ni criterio de seleccion",
        "NIVEL_DEL_RESIDUAL": 99,
        "NIVEL_VIOL_RESIDUAL": 95,
        "NIVEL_DV_RESIDUAL": 0,
        "EVENTOS_D_NUEVOS": 0,
        "EVENTOS_V_NUEVOS": 0,
        "EVENTOS_DV_NUEVOS": 0,
        "EVENTOS_C_NUEVOS": 0,
        "AREA_HOTSPOT_D_NUEVA_M2": 1265.8061225046708,
        "AREA_HOTSPOT_V_NUEVA_M2": 2023.901451687263,
        "COINCIDENCIA_DV_RESIDUAL_M2": 0.0,
        "ESTADO_HOTSPOT_DV_PREVIO": "SIN REMANENTE D/V",
        "SOLAPE_PREVIO_PCT": 96.67621886891176,
        "DIST_EXISTENTE_M": 80.84168006671266,
        "DIST_MUNICIPAL_M": 324.2878837644314,
        "DIST_POLICIA_M": 283.4925753998874,
        "BENEFICIO_MARGINAL": 0,
        "SOLAPE_RESTO_FINAL_PCT": 96.67621886891176,
        "EVENTOS_D_EXCLUSIVOS_FINAL": 0,
        "EVENTOS_V_EXCLUSIVOS_FINAL": 0,
        "BENEFICIO_CONTEXTO": "Exclusivo respecto103+50final+otras29;no sumar entre camaras"
      },
      "geometry": {
        "type": "Point",
        "coordinates": [
          -78.64396014145306,
          -1.665768540764211
        ]
      }
    },
    {
      "type": "Feature",
      "properties": {
        "ID_POLICIA": "POL-18",
        "ID_CANDIDATO": "CAND-POL-02251",
        "X": 762431.8369000005,
        "Y": 9815916.5345,
        "LONGITUD": -78.6412728914617,
        "LATITUD": -1.6640363610645164,
        "DECISION_FINAL": "MANTENER",
        "JUSTIFICACION": "Ubicacion congelada; beneficio reevaluado sin mover el punto.",
        "ESTADO": "PROPUESTA_FINAL_PARA_REVISION_NO_INSTALADA",
        "HOTSPOT_DEL": "GIU100-33-61|GIU100-34-62|GIU100-34-63|GIU100-34-64|GIU100-35-61|GIU100-35-62|GIU100-35-63|GIU100-35-64|GIU100-35-65|GIU100-36-63",
        "NIVEL_DEL": 99,
        "HOTSPOT_VIOL": "GIU100-33-61|GIU100-33-62|GIU100-33-63|GIU100-34-61|GIU100-34-62|GIU100-34-63|GIU100-34-64|GIU100-34-65|GIU100-35-61|GIU100-35-62|GIU100-35-63|GIU100-35-64|GIU100-35-65|GIU100-36-61|GIU100-36-62|GIU100-36-63|GIU100-36-64|GIU100-36-65|GIU100-37-62|GIU100-37-63|GIU100-37-64",
        "NIVEL_VIOL": 99,
        "HOTSPOT_CONV": "GIU100-33-62|GIU100-34-62|GIU100-34-63|GIU100-35-61|GIU100-35-62|GIU100-35-63|GIU100-35-64|GIU100-35-65|GIU100-36-62|GIU100-36-63|GIU100-37-62|GIU100-37-63",
        "NIVEL_CONV": 99,
        "AMBITO_HOTSPOT": "URBANO",
        "COINCIDENCIA_DV": true,
        "DELINCUENCIA_200M": 24,
        "VIOLENCIA_200M": 14,
        "CONVIVENCIA_200M": 65,
        "N_TOTAL": 103,
        "COBERTURA_PREVIA": 85.3349946375301,
        "POBLACION_ASOCIADA": 1509.7959457675313,
        "MANZANAS_POB_VALIDAS": 33,
        "MANZANAS_POB_FALTANTES": 2,
        "POBLACION_METODO": "Estimacion areal CPV2022 dentro del radio200m y18Plataformas; no poblacion rural completa",
        "UPC_CERCANA": "I0404",
        "NOMBRE_UPC": "LA ESTACION 2",
        "DIST_UPC_M": 403.01076910741034,
        "INFRA_CERCANA": "I0404",
        "DIST_INFRA_M": 403.01076910741034,
        "DIST_EXISTENTE": 272.57227371352906,
        "DIST_MUNICIPAL": 96.92230534509468,
        "INTERSECCION_O_NODO": "INTERSECCION_VIAL_URBANA",
        "GRADO_NODO": 3,
        "CORREDOR_COINCIDENTE": "ANILLO_VIAL|BOULEVARD_MACAJI_BELLAVISTA",
        "CORREDOR_METODO": "Eje intersecta buffer200m; no implica punto sobre eje ni criterio de seleccion",
        "NIVEL_DEL_RESIDUAL": 95,
        "NIVEL_VIOL_RESIDUAL": 99,
        "NIVEL_DV_RESIDUAL": 95,
        "EVENTOS_D_NUEVOS": 1,
        "EVENTOS_V_NUEVOS": 1,
        "EVENTOS_DV_NUEVOS": 2,
        "EVENTOS_C_NUEVOS": 1,
        "AREA_HOTSPOT_D_NUEVA_M2": 7192.497437207578,
        "AREA_HOTSPOT_V_NUEVA_M2": 16330.170198518937,
        "COINCIDENCIA_DV_RESIDUAL_M2": 7192.497437207579,
        "ESTADO_HOTSPOT_DV_PREVIO": "PARCIALMENTE CUBIERTO",
        "SOLAPE_PREVIO_PCT": 86.2952118151432,
        "DIST_EXISTENTE_M": 272.57227371352906,
        "DIST_MUNICIPAL_M": 96.92230534509468,
        "DIST_POLICIA_M": 355.2628710034888,
        "BENEFICIO_MARGINAL": 2,
        "SOLAPE_RESTO_FINAL_PCT": 86.2952118151432,
        "EVENTOS_D_EXCLUSIVOS_FINAL": 1,
        "EVENTOS_V_EXCLUSIVOS_FINAL": 1,
        "BENEFICIO_CONTEXTO": "Exclusivo respecto103+50final+otras29;no sumar entre camaras"
      },
      "geometry": {
        "type": "Point",
        "coordinates": [
          -78.6412728914617,
          -1.6640363610645164
        ]
      }
    },
    {
      "type": "Feature",
      "properties": {
        "ID_POLICIA": "POL-19",
        "ID_CANDIDATO": "CAND-POL-01747",
        "X": 761846.4039000003,
        "Y": 9815383.3191,
        "LONGITUD": -78.64652603052895,
        "LATITUD": -1.6688627135930643,
        "DECISION_FINAL": "MANTENER",
        "JUSTIFICACION": "Ubicacion congelada; beneficio reevaluado sin mover el punto.",
        "ESTADO": "PROPUESTA_FINAL_PARA_REVISION_NO_INSTALADA",
        "HOTSPOT_DEL": "GIU100-27-56|GIU100-27-57|GIU100-27-58|GIU100-28-55|GIU100-28-56|GIU100-28-57|GIU100-28-58|GIU100-29-55|GIU100-29-56|GIU100-29-57|GIU100-31-59",
        "NIVEL_DEL": 99,
        "HOTSPOT_VIOL": "GIU100-27-56|GIU100-27-57|GIU100-27-58|GIU100-28-55|GIU100-28-56|GIU100-28-57|GIU100-28-58|GIU100-28-59|GIU100-29-55|GIU100-29-56|GIU100-29-57|GIU100-29-58|GIU100-29-59|GIU100-30-55|GIU100-30-56|GIU100-30-57|GIU100-30-58|GIU100-30-59|GIU100-31-55|GIU100-31-56|GIU100-31-58|GIU100-31-59",
        "NIVEL_VIOL": 99,
        "HOTSPOT_CONV": null,
        "NIVEL_CONV": 0,
        "AMBITO_HOTSPOT": "URBANO",
        "COINCIDENCIA_DV": true,
        "DELINCUENCIA_200M": 27,
        "VIOLENCIA_200M": 19,
        "CONVIVENCIA_200M": 41,
        "N_TOTAL": 87,
        "COBERTURA_PREVIA": 56.509432023927424,
        "POBLACION_ASOCIADA": 1280.9279575459402,
        "MANZANAS_POB_VALIDAS": 28,
        "MANZANAS_POB_FALTANTES": 0,
        "POBLACION_METODO": "Estimacion areal CPV2022 dentro del radio200m y18Plataformas; no poblacion rural completa",
        "UPC_CERCANA": "I0404",
        "NOMBRE_UPC": "LA ESTACION 2",
        "DIST_UPC_M": 388.9828973485814,
        "INFRA_CERCANA": "I0404",
        "DIST_INFRA_M": 388.9828973485814,
        "DIST_EXISTENTE": 233.3735753294826,
        "DIST_MUNICIPAL": 234.45190781355595,
        "INTERSECCION_O_NODO": "INTERSECCION_VIAL_URBANA",
        "GRADO_NODO": 4,
        "CORREDOR_COINCIDENTE": "BOULEVARD_MACAJI_BELLAVISTA",
        "CORREDOR_METODO": "Eje intersecta buffer200m; no implica punto sobre eje ni criterio de seleccion",
        "NIVEL_DEL_RESIDUAL": 95,
        "NIVEL_VIOL_RESIDUAL": 99,
        "NIVEL_DV_RESIDUAL": 95,
        "EVENTOS_D_NUEVOS": 0,
        "EVENTOS_V_NUEVOS": 0,
        "EVENTOS_DV_NUEVOS": 0,
        "EVENTOS_C_NUEVOS": 0,
        "AREA_HOTSPOT_D_NUEVA_M2": 3367.0558816029084,
        "AREA_HOTSPOT_V_NUEVA_M2": 5086.152739941754,
        "COINCIDENCIA_DV_RESIDUAL_M2": 3367.0558816029084,
        "ESTADO_HOTSPOT_DV_PREVIO": "PARCIALMENTE CUBIERTO",
        "SOLAPE_PREVIO_PCT": 95.95216186470405,
        "DIST_EXISTENTE_M": 233.3735753294826,
        "DIST_MUNICIPAL_M": 234.45190781355595,
        "DIST_POLICIA_M": 229.78238659850862,
        "BENEFICIO_MARGINAL": 0,
        "SOLAPE_RESTO_FINAL_PCT": 95.95216186470405,
        "EVENTOS_D_EXCLUSIVOS_FINAL": 0,
        "EVENTOS_V_EXCLUSIVOS_FINAL": 0,
        "BENEFICIO_CONTEXTO": "Exclusivo respecto103+50final+otras29;no sumar entre camaras"
      },
      "geometry": {
        "type": "Point",
        "coordinates": [
          -78.64652603052895,
          -1.6688627135930643
        ]
      }
    },
    {
      "type": "Feature",
      "properties": {
        "ID_POLICIA": "POL-20",
        "ID_CANDIDATO": "CAND-POL-01220",
        "X": 760420.4501,
        "Y": 9816184.3041,
        "LONGITUD": -78.65934383832672,
        "LATITUD": -1.6616374860247993,
        "DECISION_FINAL": "MANTENER",
        "JUSTIFICACION": "Reemplazo propuesto; exclusivos D/V 1 a 10, solape 94.31% a 69.50%. Nivel residual D/V 99% a 99%. Evidencia Gi* original, sin optimizacion completa ni criterios de corredores; areas/niveles pueden disminuir. Validacion de campo pendiente.",
        "ESTADO": "PROPUESTA_FINAL_PARA_REVISION_NO_INSTALADA",
        "HOTSPOT_DEL": "GIU100-35-42|GIU100-35-43|GIU100-36-41|GIU100-36-42|GIU100-36-43|GIU100-37-41|GIU100-37-42",
        "NIVEL_DEL": 99,
        "HOTSPOT_VIOL": "GIU100-36-41|GIU100-37-41",
        "NIVEL_VIOL": 99,
        "HOTSPOT_CONV": "GIU100-35-42|GIU100-35-43|GIU100-36-41|GIU100-36-42|GIU100-36-43|GIU100-36-44",
        "NIVEL_CONV": 99,
        "AMBITO_HOTSPOT": "URBANO",
        "COINCIDENCIA_DV": true,
        "DELINCUENCIA_200M": 14,
        "VIOLENCIA_200M": 5,
        "CONVIVENCIA_200M": 42,
        "N_TOTAL": 61,
        "COBERTURA_PREVIA": 69.50023850515322,
        "POBLACION_ASOCIADA": 1470.3711104666875,
        "MANZANAS_POB_VALIDAS": 23,
        "MANZANAS_POB_FALTANTES": 3,
        "POBLACION_METODO": "Estimacion areal CPV2022 dentro del radio200m y18Plataformas; no poblacion rural completa",
        "UPC_CERCANA": "I0419",
        "NOMBRE_UPC": "TERMINAL TERRESTRE 1",
        "DIST_UPC_M": 387.44826649761524,
        "INFRA_CERCANA": "I0419",
        "DIST_INFRA_M": 387.44826649761524,
        "DIST_EXISTENTE": 211.1096210684201,
        "DIST_MUNICIPAL": 666.014451129063,
        "INTERSECCION_O_NODO": "INTERSECCION_VIAL_URBANA",
        "GRADO_NODO": 3,
        "CORREDOR_COINCIDENTE": null,
        "CORREDOR_METODO": "Eje intersecta buffer200m; no implica punto sobre eje ni criterio de seleccion",
        "NIVEL_DEL_RESIDUAL": 99,
        "NIVEL_VIOL_RESIDUAL": 99,
        "NIVEL_DV_RESIDUAL": 99,
        "EVENTOS_D_NUEVOS": 7,
        "EVENTOS_V_NUEVOS": 3,
        "EVENTOS_DV_NUEVOS": 10,
        "EVENTOS_C_NUEVOS": 13,
        "AREA_HOTSPOT_D_NUEVA_M2": 21775.943889455615,
        "AREA_HOTSPOT_V_NUEVA_M2": 4918.8735236220045,
        "COINCIDENCIA_DV_RESIDUAL_M2": 4918.8735236220045,
        "ESTADO_HOTSPOT_DV_PREVIO": "PARCIALMENTE CUBIERTO",
        "SOLAPE_PREVIO_PCT": 69.50023850515322,
        "DIST_EXISTENTE_M": 211.1096210684201,
        "DIST_MUNICIPAL_M": 666.014451129063,
        "DIST_POLICIA_M": 653.2050246555515,
        "BENEFICIO_MARGINAL": 10,
        "SOLAPE_RESTO_FINAL_PCT": 69.50023850515322,
        "EVENTOS_D_EXCLUSIVOS_FINAL": 7,
        "EVENTOS_V_EXCLUSIVOS_FINAL": 3,
        "BENEFICIO_CONTEXTO": "Exclusivo respecto103+50final+otras29;no sumar entre camaras"
      },
      "geometry": {
        "type": "Point",
        "coordinates": [
          -78.65934383832672,
          -1.6616374860247993
        ]
      }
    },
    {
      "type": "Feature",
      "properties": {
        "ID_POLICIA": "POL-21",
        "ID_CANDIDATO": "CAND-POL-00683",
        "X": 758623.7712000003,
        "Y": 9818271.9846,
        "LONGITUD": -78.67550535999328,
        "LATITUD": -1.6427845739214462,
        "DECISION_FINAL": "MANTENER",
        "JUSTIFICACION": "Reemplazo propuesto; exclusivos D/V 1 a 9, solape 90.03% a 24.06%. Nivel residual D/V 99% a 90%. Evidencia Gi* original, sin optimizacion completa ni criterios de corredores; areas/niveles pueden disminuir. Validacion de campo pendiente.",
        "ESTADO": "PROPUESTA_FINAL_PARA_REVISION_NO_INSTALADA",
        "HOTSPOT_DEL": "GIU100-56-25",
        "NIVEL_DEL": 90,
        "HOTSPOT_VIOL": "GIU100-56-25|GIU100-56-26|GIU100-57-26|GIU100-57-27|GIU100-58-27",
        "NIVEL_VIOL": 95,
        "HOTSPOT_CONV": null,
        "NIVEL_CONV": 0,
        "AMBITO_HOTSPOT": "URBANO",
        "COINCIDENCIA_DV": true,
        "DELINCUENCIA_200M": 6,
        "VIOLENCIA_200M": 6,
        "CONVIVENCIA_200M": 38,
        "N_TOTAL": 50,
        "COBERTURA_PREVIA": 9.89223702483527,
        "POBLACION_ASOCIADA": 573.320902558617,
        "MANZANAS_POB_VALIDAS": 13,
        "MANZANAS_POB_FALTANTES": 0,
        "POBLACION_METODO": "Estimacion areal CPV2022 dentro del radio200m y18Plataformas; no poblacion rural completa",
        "UPC_CERCANA": "I0395",
        "NOMBRE_UPC": "24 DE MAYO",
        "DIST_UPC_M": 1029.0948248011046,
        "INFRA_CERCANA": "I0395",
        "DIST_INFRA_M": 1029.0948248011046,
        "DIST_EXISTENTE": 322.70928019248765,
        "DIST_MUNICIPAL": 564.818075313796,
        "INTERSECCION_O_NODO": "INTERSECCION_VIAL_URBANA",
        "GRADO_NODO": 3,
        "CORREDOR_COINCIDENTE": null,
        "CORREDOR_METODO": "Eje intersecta buffer200m; no implica punto sobre eje ni criterio de seleccion",
        "NIVEL_DEL_RESIDUAL": 0,
        "NIVEL_VIOL_RESIDUAL": 95,
        "NIVEL_DV_RESIDUAL": 0,
        "EVENTOS_D_NUEVOS": 5,
        "EVENTOS_V_NUEVOS": 4,
        "EVENTOS_DV_NUEVOS": 9,
        "EVENTOS_C_NUEVOS": 37,
        "AREA_HOTSPOT_D_NUEVA_M2": 0.0,
        "AREA_HOTSPOT_V_NUEVA_M2": 2242.6592277981244,
        "COINCIDENCIA_DV_RESIDUAL_M2": 0.0,
        "ESTADO_HOTSPOT_DV_PREVIO": "SIN REMANENTE D/V",
        "SOLAPE_PREVIO_PCT": 24.672947076824855,
        "DIST_EXISTENTE_M": 322.70928019248765,
        "DIST_MUNICIPAL_M": 564.818075313796,
        "DIST_POLICIA_M": 301.20947415279204,
        "BENEFICIO_MARGINAL": 9,
        "SOLAPE_RESTO_FINAL_PCT": 24.672947076824855,
        "EVENTOS_D_EXCLUSIVOS_FINAL": 5,
        "EVENTOS_V_EXCLUSIVOS_FINAL": 4,
        "BENEFICIO_CONTEXTO": "Exclusivo respecto103+50final+otras29;no sumar entre camaras"
      },
      "geometry": {
        "type": "Point",
        "coordinates": [
          -78.67550535999328,
          -1.6427845739214462
        ]
      }
    },
    {
      "type": "Feature",
      "properties": {
        "ID_POLICIA": "POL-22",
        "ID_CANDIDATO": "CAND-POL-00687",
        "X": 758631.8662999999,
        "Y": 9817909.7082,
        "LONGITUD": -78.67542885094583,
        "LATITUD": -1.646059374581887,
        "DECISION_FINAL": "MANTENER",
        "JUSTIFICACION": "Reemplazo propuesto; exclusivos D/V 0 a 2, solape 98.25% a 59.71%. Nivel residual D/V 99% a 90%. Evidencia Gi* original, sin optimizacion completa ni criterios de corredores; areas/niveles pueden disminuir. Validacion de campo pendiente.",
        "ESTADO": "PROPUESTA_FINAL_PARA_REVISION_NO_INSTALADA",
        "HOTSPOT_DEL": "GIU100-55-26|GIU100-56-25",
        "NIVEL_DEL": 90,
        "HOTSPOT_VIOL": "GIU100-54-27|GIU100-55-26|GIU100-55-27|GIU100-56-25|GIU100-56-26|GIU100-56-27",
        "NIVEL_VIOL": 99,
        "HOTSPOT_CONV": null,
        "NIVEL_CONV": 0,
        "AMBITO_HOTSPOT": "URBANO",
        "COINCIDENCIA_DV": true,
        "DELINCUENCIA_200M": 10,
        "VIOLENCIA_200M": 4,
        "CONVIVENCIA_200M": 14,
        "N_TOTAL": 28,
        "COBERTURA_PREVIA": 33.70392212900396,
        "POBLACION_ASOCIADA": 758.1465119419124,
        "MANZANAS_POB_VALIDAS": 16,
        "MANZANAS_POB_FALTANTES": 0,
        "POBLACION_METODO": "Estimacion areal CPV2022 dentro del radio200m y18Plataformas; no poblacion rural completa",
        "UPC_CERCANA": "I0395",
        "NOMBRE_UPC": "24 DE MAYO",
        "DIST_UPC_M": 963.1148536594139,
        "INFRA_CERCANA": "I0395",
        "DIST_INFRA_M": 963.1148536594139,
        "DIST_EXISTENTE": 219.91036462450072,
        "DIST_MUNICIPAL": 866.2106748865164,
        "INTERSECCION_O_NODO": "INTERSECCION_VIAL_URBANA",
        "GRADO_NODO": 4,
        "CORREDOR_COINCIDENTE": null,
        "CORREDOR_METODO": "Eje intersecta buffer200m; no implica punto sobre eje ni criterio de seleccion",
        "NIVEL_DEL_RESIDUAL": 90,
        "NIVEL_VIOL_RESIDUAL": 95,
        "NIVEL_DV_RESIDUAL": 90,
        "EVENTOS_D_NUEVOS": 1,
        "EVENTOS_V_NUEVOS": 1,
        "EVENTOS_DV_NUEVOS": 2,
        "EVENTOS_C_NUEVOS": 4,
        "AREA_HOTSPOT_D_NUEVA_M2": 368.08720659790106,
        "AREA_HOTSPOT_V_NUEVA_M2": 461.1702454400146,
        "COINCIDENCIA_DV_RESIDUAL_M2": 368.08720659790106,
        "ESTADO_HOTSPOT_DV_PREVIO": "PARCIALMENTE CUBIERTO",
        "SOLAPE_PREVIO_PCT": 59.708344279198876,
        "DIST_EXISTENTE_M": 219.91036462450072,
        "DIST_MUNICIPAL_M": 866.2106748865164,
        "DIST_POLICIA_M": 252.26294233992456,
        "BENEFICIO_MARGINAL": 2,
        "SOLAPE_RESTO_FINAL_PCT": 59.708344279198876,
        "EVENTOS_D_EXCLUSIVOS_FINAL": 1,
        "EVENTOS_V_EXCLUSIVOS_FINAL": 1,
        "BENEFICIO_CONTEXTO": "Exclusivo respecto103+50final+otras29;no sumar entre camaras"
      },
      "geometry": {
        "type": "Point",
        "coordinates": [
          -78.67542885094583,
          -1.646059374581887
        ]
      }
    },
    {
      "type": "Feature",
      "properties": {
        "ID_POLICIA": "POL-23",
        "ID_CANDIDATO": "CAND-POL-00878",
        "X": 759261.4112,
        "Y": 9816374.0297,
        "LONGITUD": -78.66975747713413,
        "LATITUD": -1.6599348132305416,
        "DECISION_FINAL": "MANTENER",
        "JUSTIFICACION": "Ubicacion congelada; beneficio reevaluado sin mover el punto.",
        "ESTADO": "PROPUESTA_FINAL_PARA_REVISION_NO_INSTALADA",
        "HOTSPOT_DEL": "GIU100-40-29|GIU100-41-30",
        "NIVEL_DEL": 99,
        "HOTSPOT_VIOL": "GIU100-40-29|GIU100-41-30",
        "NIVEL_VIOL": 95,
        "HOTSPOT_CONV": "GIU100-37-30|GIU100-37-31|GIU100-38-29|GIU100-38-30|GIU100-38-31|GIU100-39-29|GIU100-39-30|GIU100-39-31|GIU100-39-32|GIU100-40-29|GIU100-40-30|GIU100-40-31|GIU100-41-30",
        "NIVEL_CONV": 99,
        "AMBITO_HOTSPOT": "URBANO",
        "COINCIDENCIA_DV": true,
        "DELINCUENCIA_200M": 17,
        "VIOLENCIA_200M": 5,
        "CONVIVENCIA_200M": 123,
        "N_TOTAL": 145,
        "COBERTURA_PREVIA": 23.70512265625555,
        "POBLACION_ASOCIADA": 965.5058612239851,
        "MANZANAS_POB_VALIDAS": 26,
        "MANZANAS_POB_FALTANTES": 3,
        "POBLACION_METODO": "Estimacion areal CPV2022 dentro del radio200m y18Plataformas; no poblacion rural completa",
        "UPC_CERCANA": "I0390",
        "NOMBRE_UPC": "CEMENTO CHIMBORAZO",
        "DIST_UPC_M": 653.1744449264421,
        "INFRA_CERCANA": "I0390",
        "DIST_INFRA_M": 653.1744449264421,
        "DIST_EXISTENTE": 306.5532260048403,
        "DIST_MUNICIPAL": 676.5844449960709,
        "INTERSECCION_O_NODO": "INTERSECCION_VIAL_URBANA",
        "GRADO_NODO": 3,
        "CORREDOR_COINCIDENTE": null,
        "CORREDOR_METODO": "Eje intersecta buffer200m; no implica punto sobre eje ni criterio de seleccion",
        "NIVEL_DEL_RESIDUAL": 99,
        "NIVEL_VIOL_RESIDUAL": 95,
        "NIVEL_DV_RESIDUAL": 95,
        "EVENTOS_D_NUEVOS": 17,
        "EVENTOS_V_NUEVOS": 5,
        "EVENTOS_DV_NUEVOS": 22,
        "EVENTOS_C_NUEVOS": 117,
        "AREA_HOTSPOT_D_NUEVA_M2": 2182.1513644616884,
        "AREA_HOTSPOT_V_NUEVA_M2": 2182.1513644616884,
        "COINCIDENCIA_DV_RESIDUAL_M2": 2182.1513644616884,
        "ESTADO_HOTSPOT_DV_PREVIO": "PARCIALMENTE CUBIERTO",
        "SOLAPE_PREVIO_PCT": 24.072421810526787,
        "DIST_EXISTENTE_M": 306.5532260048403,
        "DIST_MUNICIPAL_M": 676.5844449960709,
        "DIST_POLICIA_M": 391.5320768705042,
        "BENEFICIO_MARGINAL": 22,
        "SOLAPE_RESTO_FINAL_PCT": 24.072421810526787,
        "EVENTOS_D_EXCLUSIVOS_FINAL": 17,
        "EVENTOS_V_EXCLUSIVOS_FINAL": 5,
        "BENEFICIO_CONTEXTO": "Exclusivo respecto103+50final+otras29;no sumar entre camaras"
      },
      "geometry": {
        "type": "Point",
        "coordinates": [
          -78.66975747713413,
          -1.6599348132305416
        ]
      }
    },
    {
      "type": "Feature",
      "properties": {
        "ID_POLICIA": "POL-24",
        "ID_CANDIDATO": "CAND-POL-02704",
        "X": 763060.8750999998,
        "Y": 9813925.0619,
        "LONGITUD": -78.63560078506988,
        "LATITUD": -1.6820314324789567,
        "DECISION_FINAL": "MANTENER",
        "JUSTIFICACION": "Ubicacion congelada; beneficio reevaluado sin mover el punto.",
        "ESTADO": "PROPUESTA_FINAL_PARA_REVISION_NO_INSTALADA",
        "HOTSPOT_DEL": "GIU100-14-69|GIU100-16-67",
        "NIVEL_DEL": 99,
        "HOTSPOT_VIOL": "GIU100-13-68|GIU100-13-69|GIU100-13-70|GIU100-13-71|GIU100-14-67|GIU100-14-68|GIU100-14-69|GIU100-14-70|GIU100-15-67|GIU100-15-68|GIU100-15-69|GIU100-15-70|GIU100-16-67",
        "NIVEL_VIOL": 99,
        "HOTSPOT_CONV": "GIU100-13-68|GIU100-14-67|GIU100-14-68|GIU100-14-69|GIU100-14-70|GIU100-15-67",
        "NIVEL_CONV": 99,
        "AMBITO_HOTSPOT": "URBANO",
        "COINCIDENCIA_DV": true,
        "DELINCUENCIA_200M": 15,
        "VIOLENCIA_200M": 16,
        "CONVIVENCIA_200M": 61,
        "N_TOTAL": 92,
        "COBERTURA_PREVIA": 30.619211015885366,
        "POBLACION_ASOCIADA": 2283.657776395255,
        "MANZANAS_POB_VALIDAS": 39,
        "MANZANAS_POB_FALTANTES": 6,
        "POBLACION_METODO": "Estimacion areal CPV2022 dentro del radio200m y18Plataformas; no poblacion rural completa",
        "UPC_CERCANA": "I0410",
        "NOMBRE_UPC": "PUCARA 1",
        "DIST_UPC_M": 615.2956677668366,
        "INFRA_CERCANA": "I0411",
        "DIST_INFRA_M": 465.0373679607964,
        "DIST_EXISTENTE": 231.65077038668093,
        "DIST_MUNICIPAL": 644.6945993966309,
        "INTERSECCION_O_NODO": "INTERSECCION_VIAL_URBANA",
        "GRADO_NODO": 3,
        "CORREDOR_COINCIDENTE": null,
        "CORREDOR_METODO": "Eje intersecta buffer200m; no implica punto sobre eje ni criterio de seleccion",
        "NIVEL_DEL_RESIDUAL": 90,
        "NIVEL_VIOL_RESIDUAL": 99,
        "NIVEL_DV_RESIDUAL": 90,
        "EVENTOS_D_NUEVOS": 8,
        "EVENTOS_V_NUEVOS": 9,
        "EVENTOS_DV_NUEVOS": 17,
        "EVENTOS_C_NUEVOS": 44,
        "AREA_HOTSPOT_D_NUEVA_M2": 6113.609165541178,
        "AREA_HOTSPOT_V_NUEVA_M2": 42124.50299592249,
        "COINCIDENCIA_DV_RESIDUAL_M2": 6113.609165541178,
        "ESTADO_HOTSPOT_DV_PREVIO": "PARCIALMENTE CUBIERTO",
        "SOLAPE_PREVIO_PCT": 51.318344863811845,
        "DIST_EXISTENTE_M": 231.65077038668093,
        "DIST_MUNICIPAL_M": 644.6945993966309,
        "DIST_POLICIA_M": 231.38910526611997,
        "BENEFICIO_MARGINAL": 17,
        "SOLAPE_RESTO_FINAL_PCT": 51.318344863811845,
        "EVENTOS_D_EXCLUSIVOS_FINAL": 8,
        "EVENTOS_V_EXCLUSIVOS_FINAL": 9,
        "BENEFICIO_CONTEXTO": "Exclusivo respecto103+50final+otras29;no sumar entre camaras"
      },
      "geometry": {
        "type": "Point",
        "coordinates": [
          -78.63560078506988,
          -1.6820314324789567
        ]
      }
    },
    {
      "type": "Feature",
      "properties": {
        "ID_POLICIA": "POL-25",
        "ID_CANDIDATO": "CAND-POL-01900",
        "X": 762061.5345999999,
        "Y": 9815999.7481,
        "LONGITUD": -78.64460015628661,
        "LATITUD": -1.66328814935498,
        "DECISION_FINAL": "MANTENER",
        "JUSTIFICACION": "Ubicacion congelada; beneficio reevaluado sin mover el punto.",
        "ESTADO": "PROPUESTA_FINAL_PARA_REVISION_NO_INSTALADA",
        "HOTSPOT_DEL": "GIU100-33-59|GIU100-34-60|GIU100-35-61",
        "NIVEL_DEL": 99,
        "HOTSPOT_VIOL": "GIU100-34-57|GIU100-34-59|GIU100-34-60|GIU100-34-61|GIU100-35-61|GIU100-36-57|GIU100-36-61|GIU100-37-60",
        "NIVEL_VIOL": 99,
        "HOTSPOT_CONV": "GIU100-33-59|GIU100-34-60|GIU100-35-61|GIU100-36-57",
        "NIVEL_CONV": 95,
        "AMBITO_HOTSPOT": "URBANO",
        "COINCIDENCIA_DV": true,
        "DELINCUENCIA_200M": 16,
        "VIOLENCIA_200M": 11,
        "CONVIVENCIA_200M": 62,
        "N_TOTAL": 89,
        "COBERTURA_PREVIA": 34.43906596068811,
        "POBLACION_ASOCIADA": 1216.988262080599,
        "MANZANAS_POB_VALIDAS": 26,
        "MANZANAS_POB_FALTANTES": 1,
        "POBLACION_METODO": "Estimacion areal CPV2022 dentro del radio200m y18Plataformas; no poblacion rural completa",
        "UPC_CERCANA": "I0404",
        "NOMBRE_UPC": "LA ESTACION 2",
        "DIST_UPC_M": 368.0064709761595,
        "INFRA_CERCANA": "I0404",
        "DIST_INFRA_M": 368.0064709761595,
        "DIST_EXISTENTE": 250.45789738608508,
        "DIST_MUNICIPAL": 360.88772518538906,
        "INTERSECCION_O_NODO": "INTERSECCION_VIAL_URBANA",
        "GRADO_NODO": 4,
        "CORREDOR_COINCIDENTE": "ANILLO_VIAL",
        "CORREDOR_METODO": "Eje intersecta buffer200m; no implica punto sobre eje ni criterio de seleccion",
        "NIVEL_DEL_RESIDUAL": 95,
        "NIVEL_VIOL_RESIDUAL": 99,
        "NIVEL_DV_RESIDUAL": 95,
        "EVENTOS_D_NUEVOS": 7,
        "EVENTOS_V_NUEVOS": 7,
        "EVENTOS_DV_NUEVOS": 14,
        "EVENTOS_C_NUEVOS": 39,
        "AREA_HOTSPOT_D_NUEVA_M2": 1226.120539717582,
        "AREA_HOTSPOT_V_NUEVA_M2": 3689.169645404204,
        "COINCIDENCIA_DV_RESIDUAL_M2": 1226.1205397175822,
        "ESTADO_HOTSPOT_DV_PREVIO": "PARCIALMENTE CUBIERTO",
        "SOLAPE_PREVIO_PCT": 47.85340294576565,
        "DIST_EXISTENTE_M": 250.45789738608508,
        "DIST_MUNICIPAL_M": 360.88772518538906,
        "DIST_POLICIA_M": 283.4925753998874,
        "BENEFICIO_MARGINAL": 14,
        "SOLAPE_RESTO_FINAL_PCT": 47.85340294576565,
        "EVENTOS_D_EXCLUSIVOS_FINAL": 7,
        "EVENTOS_V_EXCLUSIVOS_FINAL": 7,
        "BENEFICIO_CONTEXTO": "Exclusivo respecto103+50final+otras29;no sumar entre camaras"
      },
      "geometry": {
        "type": "Point",
        "coordinates": [
          -78.64460015628661,
          -1.66328814935498
        ]
      }
    },
    {
      "type": "Feature",
      "properties": {
        "ID_POLICIA": "POL-26",
        "ID_CANDIDATO": "CAND-POL-01661",
        "X": 761617.2017000001,
        "Y": 9815367.0005,
        "LONGITUD": -78.64858475741676,
        "LATITUD": -1.6690127055197075,
        "DECISION_FINAL": "MANTENER",
        "JUSTIFICACION": "Ubicacion congelada; beneficio reevaluado sin mover el punto.",
        "ESTADO": "PROPUESTA_FINAL_PARA_REVISION_NO_INSTALADA",
        "HOTSPOT_DEL": "GIU100-27-54|GIU100-27-55|GIU100-27-56|GIU100-28-53|GIU100-28-54|GIU100-28-55|GIU100-28-56|GIU100-28-57|GIU100-29-53|GIU100-29-54|GIU100-29-55|GIU100-29-56|GIU100-29-57|GIU100-30-54|GIU100-31-54",
        "NIVEL_DEL": 99,
        "HOTSPOT_VIOL": "GIU100-27-55|GIU100-27-56|GIU100-28-54|GIU100-28-55|GIU100-28-56|GIU100-28-57|GIU100-29-53|GIU100-29-54|GIU100-29-55|GIU100-29-56|GIU100-29-57|GIU100-30-53|GIU100-30-54|GIU100-30-55|GIU100-30-56|GIU100-30-57|GIU100-31-53|GIU100-31-54|GIU100-31-55|GIU100-31-56",
        "NIVEL_VIOL": 99,
        "HOTSPOT_CONV": null,
        "NIVEL_CONV": 0,
        "AMBITO_HOTSPOT": "URBANO",
        "COINCIDENCIA_DV": true,
        "DELINCUENCIA_200M": 26,
        "VIOLENCIA_200M": 20,
        "CONVIVENCIA_200M": 22,
        "N_TOTAL": 68,
        "COBERTURA_PREVIA": 57.92775295748689,
        "POBLACION_ASOCIADA": 1268.755613998707,
        "MANZANAS_POB_VALIDAS": 29,
        "MANZANAS_POB_FALTANTES": 1,
        "POBLACION_METODO": "Estimacion areal CPV2022 dentro del radio200m y18Plataformas; no poblacion rural completa",
        "UPC_CERCANA": "I0403",
        "NOMBRE_UPC": "PLAZA DAVALOS",
        "DIST_UPC_M": 391.0274815018875,
        "INFRA_CERCANA": "I0403",
        "DIST_INFRA_M": 391.0274815018875,
        "DIST_EXISTENTE": 239.52156730887424,
        "DIST_MUNICIPAL": 464.20430542054896,
        "INTERSECCION_O_NODO": "INTERSECCION_VIAL_URBANA",
        "GRADO_NODO": 4,
        "CORREDOR_COINCIDENTE": "CICLOVIAS",
        "CORREDOR_METODO": "Eje intersecta buffer200m; no implica punto sobre eje ni criterio de seleccion",
        "NIVEL_DEL_RESIDUAL": 99,
        "NIVEL_VIOL_RESIDUAL": 99,
        "NIVEL_DV_RESIDUAL": 95,
        "EVENTOS_D_NUEVOS": 7,
        "EVENTOS_V_NUEVOS": 4,
        "EVENTOS_DV_NUEVOS": 11,
        "EVENTOS_C_NUEVOS": 3,
        "AREA_HOTSPOT_D_NUEVA_M2": 14103.977369765109,
        "AREA_HOTSPOT_V_NUEVA_M2": 22325.555986291136,
        "COINCIDENCIA_DV_RESIDUAL_M2": 14067.106342277222,
        "ESTADO_HOTSPOT_DV_PREVIO": "PARCIALMENTE CUBIERTO",
        "SOLAPE_PREVIO_PCT": 82.20275923817702,
        "DIST_EXISTENTE_M": 239.52156730887424,
        "DIST_MUNICIPAL_M": 464.20430542054896,
        "DIST_POLICIA_M": 229.78238659850862,
        "BENEFICIO_MARGINAL": 11,
        "SOLAPE_RESTO_FINAL_PCT": 82.20275923817702,
        "EVENTOS_D_EXCLUSIVOS_FINAL": 7,
        "EVENTOS_V_EXCLUSIVOS_FINAL": 4,
        "BENEFICIO_CONTEXTO": "Exclusivo respecto103+50final+otras29;no sumar entre camaras"
      },
      "geometry": {
        "type": "Point",
        "coordinates": [
          -78.64858475741676,
          -1.6690127055197075
        ]
      }
    },
    {
      "type": "Feature",
      "properties": {
        "ID_POLICIA": "POL-27",
        "ID_CANDIDATO": "CAND-POL-02354",
        "X": 762569.6774000004,
        "Y": 9815539.9002,
        "LONGITUD": -78.64003063904092,
        "LATITUD": -1.6674394604670029,
        "DECISION_FINAL": "MANTENER",
        "JUSTIFICACION": "Ubicacion congelada; beneficio reevaluado sin mover el punto.",
        "ESTADO": "PROPUESTA_FINAL_PARA_REVISION_NO_INSTALADA",
        "HOTSPOT_DEL": "GIU100-32-62",
        "NIVEL_DEL": 99,
        "HOTSPOT_VIOL": "GIU100-30-62|GIU100-31-63|GIU100-32-62|GIU100-33-63",
        "NIVEL_VIOL": 95,
        "HOTSPOT_CONV": "GIU100-29-63|GIU100-29-64|GIU100-29-65|GIU100-30-62|GIU100-30-63|GIU100-30-64|GIU100-30-65|GIU100-30-66|GIU100-31-63|GIU100-31-64|GIU100-31-65|GIU100-32-62|GIU100-32-64",
        "NIVEL_CONV": 99,
        "AMBITO_HOTSPOT": "URBANO",
        "COINCIDENCIA_DV": true,
        "DELINCUENCIA_200M": 15,
        "VIOLENCIA_200M": 7,
        "CONVIVENCIA_200M": 101,
        "N_TOTAL": 123,
        "COBERTURA_PREVIA": 36.097036276862845,
        "POBLACION_ASOCIADA": 1376.523015816447,
        "MANZANAS_POB_VALIDAS": 19,
        "MANZANAS_POB_FALTANTES": 1,
        "POBLACION_METODO": "Estimacion areal CPV2022 dentro del radio200m y18Plataformas; no poblacion rural completa",
        "UPC_CERCANA": "I0404",
        "NOMBRE_UPC": "LA ESTACION 2",
        "DIST_UPC_M": 442.3983295980082,
        "INFRA_CERCANA": "I0404",
        "DIST_INFRA_M": 442.3983295980082,
        "DIST_EXISTENTE": 211.19149385415741,
        "DIST_MUNICIPAL": 420.27947203519307,
        "INTERSECCION_O_NODO": "INTERSECCION_VIAL_URBANA",
        "GRADO_NODO": 3,
        "CORREDOR_COINCIDENTE": "ANILLO_VIAL",
        "CORREDOR_METODO": "Eje intersecta buffer200m; no implica punto sobre eje ni criterio de seleccion",
        "NIVEL_DEL_RESIDUAL": 99,
        "NIVEL_VIOL_RESIDUAL": 95,
        "NIVEL_DV_RESIDUAL": 95,
        "EVENTOS_D_NUEVOS": 9,
        "EVENTOS_V_NUEVOS": 4,
        "EVENTOS_DV_NUEVOS": 13,
        "EVENTOS_C_NUEVOS": 28,
        "AREA_HOTSPOT_D_NUEVA_M2": 482.7893038166412,
        "AREA_HOTSPOT_V_NUEVA_M2": 9134.868978784718,
        "COINCIDENCIA_DV_RESIDUAL_M2": 482.7893038166412,
        "ESTADO_HOTSPOT_DV_PREVIO": "PARCIALMENTE CUBIERTO",
        "SOLAPE_PREVIO_PCT": 53.58812631325647,
        "DIST_EXISTENTE_M": 211.19149385415741,
        "DIST_MUNICIPAL_M": 420.27947203519307,
        "DIST_POLICIA_M": 285.85660770135775,
        "BENEFICIO_MARGINAL": 13,
        "SOLAPE_RESTO_FINAL_PCT": 53.58812631325647,
        "EVENTOS_D_EXCLUSIVOS_FINAL": 9,
        "EVENTOS_V_EXCLUSIVOS_FINAL": 4,
        "BENEFICIO_CONTEXTO": "Exclusivo respecto103+50final+otras29;no sumar entre camaras"
      },
      "geometry": {
        "type": "Point",
        "coordinates": [
          -78.64003063904092,
          -1.6674394604670029
        ]
      }
    },
    {
      "type": "Feature",
      "properties": {
        "ID_POLICIA": "POL-28",
        "ID_CANDIDATO": "CAND-POL-02022",
        "X": 762192.1695999997,
        "Y": 9814963.5196,
        "LONGITUD": -78.64341553019557,
        "LATITUD": -1.6726537616542378,
        "DECISION_FINAL": "MANTENER",
        "JUSTIFICACION": "Ubicacion congelada; beneficio reevaluado sin mover el punto.",
        "ESTADO": "PROPUESTA_FINAL_PARA_REVISION_NO_INSTALADA",
        "HOTSPOT_DEL": "GIU100-26-58|GIU100-27-59",
        "NIVEL_DEL": 95,
        "HOTSPOT_VIOL": "GIU100-26-58|GIU100-27-59",
        "NIVEL_VIOL": 99,
        "HOTSPOT_CONV": null,
        "NIVEL_CONV": 0,
        "AMBITO_HOTSPOT": "URBANO",
        "COINCIDENCIA_DV": true,
        "DELINCUENCIA_200M": 9,
        "VIOLENCIA_200M": 6,
        "CONVIVENCIA_200M": 19,
        "N_TOTAL": 34,
        "COBERTURA_PREVIA": 19.052125617420046,
        "POBLACION_ASOCIADA": 1400.484601933653,
        "MANZANAS_POB_VALIDAS": 28,
        "MANZANAS_POB_FALTANTES": 0,
        "POBLACION_METODO": "Estimacion areal CPV2022 dentro del radio200m y18Plataformas; no poblacion rural completa",
        "UPC_CERCANA": "I0409",
        "NOMBRE_UPC": "BASE DE LA ZONA 3",
        "DIST_UPC_M": 602.4245477937711,
        "INFRA_CERCANA": "I0408",
        "DIST_INFRA_M": 516.1682734681232,
        "DIST_EXISTENTE": 321.62113123405345,
        "DIST_MUNICIPAL": 455.8230389652804,
        "INTERSECCION_O_NODO": "INTERSECCION_VIAL_URBANA",
        "GRADO_NODO": 4,
        "CORREDOR_COINCIDENTE": "CICLOVIAS",
        "CORREDOR_METODO": "Eje intersecta buffer200m; no implica punto sobre eje ni criterio de seleccion",
        "NIVEL_DEL_RESIDUAL": 95,
        "NIVEL_VIOL_RESIDUAL": 99,
        "NIVEL_DV_RESIDUAL": 95,
        "EVENTOS_D_NUEVOS": 1,
        "EVENTOS_V_NUEVOS": 2,
        "EVENTOS_DV_NUEVOS": 3,
        "EVENTOS_C_NUEVOS": 3,
        "AREA_HOTSPOT_D_NUEVA_M2": 59.30780438033388,
        "AREA_HOTSPOT_V_NUEVA_M2": 59.30780438033388,
        "COINCIDENCIA_DV_RESIDUAL_M2": 59.30780438033388,
        "ESTADO_HOTSPOT_DV_PREVIO": "PARCIALMENTE CUBIERTO",
        "SOLAPE_PREVIO_PCT": 65.97194641714778,
        "DIST_EXISTENTE_M": 321.62113123405345,
        "DIST_MUNICIPAL_M": 455.8230389652804,
        "DIST_POLICIA_M": 172.22896915991168,
        "BENEFICIO_MARGINAL": 3,
        "SOLAPE_RESTO_FINAL_PCT": 65.97194641714778,
        "EVENTOS_D_EXCLUSIVOS_FINAL": 1,
        "EVENTOS_V_EXCLUSIVOS_FINAL": 2,
        "BENEFICIO_CONTEXTO": "Exclusivo respecto103+50final+otras29;no sumar entre camaras"
      },
      "geometry": {
        "type": "Point",
        "coordinates": [
          -78.64341553019557,
          -1.6726537616542378
        ]
      }
    },
    {
      "type": "Feature",
      "properties": {
        "ID_POLICIA": "POL-29",
        "ID_CANDIDATO": "CAND-POL-00782",
        "X": 758916.9866000004,
        "Y": 9816187.8334,
        "LONGITUD": -78.67284948036199,
        "LATITUD": -1.6616216443690914,
        "DECISION_FINAL": "MANTENER",
        "JUSTIFICACION": "Ubicacion congelada; beneficio reevaluado sin mover el punto.",
        "ESTADO": "PROPUESTA_FINAL_PARA_REVISION_NO_INSTALADA",
        "HOTSPOT_DEL": "GIU100-36-26|GIU100-37-26|GIU100-37-27|GIU100-38-26|GIU100-39-28",
        "NIVEL_DEL": 99,
        "HOTSPOT_VIOL": "GIU100-39-28",
        "NIVEL_VIOL": 95,
        "HOTSPOT_CONV": "GIU100-36-26|GIU100-36-27|GIU100-37-26|GIU100-37-27|GIU100-37-30|GIU100-38-26|GIU100-38-27|GIU100-38-28|GIU100-38-29|GIU100-38-30|GIU100-39-26|GIU100-39-27|GIU100-39-28|GIU100-39-29",
        "NIVEL_CONV": 99,
        "AMBITO_HOTSPOT": "URBANO",
        "COINCIDENCIA_DV": true,
        "DELINCUENCIA_200M": 9,
        "VIOLENCIA_200M": 6,
        "CONVIVENCIA_200M": 70,
        "N_TOTAL": 85,
        "COBERTURA_PREVIA": 28.987408052794436,
        "POBLACION_ASOCIADA": 868.1377171454591,
        "MANZANAS_POB_VALIDAS": 19,
        "MANZANAS_POB_FALTANTES": 2,
        "POBLACION_METODO": "Estimacion areal CPV2022 dentro del radio200m y18Plataformas; no poblacion rural completa",
        "UPC_CERCANA": "I0390",
        "NOMBRE_UPC": "CEMENTO CHIMBORAZO",
        "DIST_UPC_M": 998.4668537641201,
        "INFRA_CERCANA": "I0390",
        "DIST_INFRA_M": 998.4668537641201,
        "DIST_EXISTENTE": 255.4256895264125,
        "DIST_MUNICIPAL": 768.9831111336596,
        "INTERSECCION_O_NODO": "INTERSECCION_VIAL_URBANA",
        "GRADO_NODO": 3,
        "CORREDOR_COINCIDENTE": null,
        "CORREDOR_METODO": "Eje intersecta buffer200m; no implica punto sobre eje ni criterio de seleccion",
        "NIVEL_DEL_RESIDUAL": 99,
        "NIVEL_VIOL_RESIDUAL": 95,
        "NIVEL_DV_RESIDUAL": 95,
        "EVENTOS_D_NUEVOS": 4,
        "EVENTOS_V_NUEVOS": 5,
        "EVENTOS_DV_NUEVOS": 9,
        "EVENTOS_C_NUEVOS": 45,
        "AREA_HOTSPOT_D_NUEVA_M2": 8061.147028583728,
        "AREA_HOTSPOT_V_NUEVA_M2": 4296.56639173128,
        "COINCIDENCIA_DV_RESIDUAL_M2": 4296.56639173128,
        "ESTADO_HOTSPOT_DV_PREVIO": "PARCIALMENTE CUBIERTO",
        "SOLAPE_PREVIO_PCT": 29.354707207065676,
        "DIST_EXISTENTE_M": 255.4256895264125,
        "DIST_MUNICIPAL_M": 768.9831111336596,
        "DIST_POLICIA_M": 391.5320768705042,
        "BENEFICIO_MARGINAL": 9,
        "SOLAPE_RESTO_FINAL_PCT": 29.354707207065676,
        "EVENTOS_D_EXCLUSIVOS_FINAL": 4,
        "EVENTOS_V_EXCLUSIVOS_FINAL": 5,
        "BENEFICIO_CONTEXTO": "Exclusivo respecto103+50final+otras29;no sumar entre camaras"
      },
      "geometry": {
        "type": "Point",
        "coordinates": [
          -78.67284948036199,
          -1.6616216443690914
        ]
      }
    },
    {
      "type": "Feature",
      "properties": {
        "ID_POLICIA": "POL-30",
        "ID_CANDIDATO": "CAND-POL-02622",
        "X": 762939.5983999996,
        "Y": 9814122.1225,
        "LONGITUD": -78.63669234405756,
        "LATITUD": -1.6802514338224572,
        "DECISION_FINAL": "MANTENER",
        "JUSTIFICACION": "Mantener; exclusivos D/V 4 a 4, solape 93.33% a 93.33%. Nivel residual D/V 95% a 95%. Evidencia Gi* original, sin optimizacion completa ni criterios de corredores; areas/niveles pueden disminuir. Validacion de campo pendiente.",
        "ESTADO": "PROPUESTA_FINAL_PARA_REVISION_NO_INSTALADA",
        "HOTSPOT_DEL": "GIU100-15-66|GIU100-16-66|GIU100-16-67|GIU100-17-66",
        "NIVEL_DEL": 99,
        "HOTSPOT_VIOL": "GIU100-15-66|GIU100-15-67|GIU100-15-68|GIU100-15-69|GIU100-16-67",
        "NIVEL_VIOL": 99,
        "HOTSPOT_CONV": "GIU100-15-66|GIU100-15-67|GIU100-16-66",
        "NIVEL_CONV": 99,
        "AMBITO_HOTSPOT": "URBANO",
        "COINCIDENCIA_DV": true,
        "DELINCUENCIA_200M": 10,
        "VIOLENCIA_200M": 6,
        "CONVIVENCIA_200M": 32,
        "N_TOTAL": 48,
        "COBERTURA_PREVIA": 17.14976850757911,
        "POBLACION_ASOCIADA": 1238.0797031562556,
        "MANZANAS_POB_VALIDAS": 21,
        "MANZANAS_POB_FALTANTES": 8,
        "POBLACION_METODO": "Estimacion areal CPV2022 dentro del radio200m y18Plataformas; no poblacion rural completa",
        "UPC_CERCANA": "I0410",
        "NOMBRE_UPC": "PUCARA 1",
        "DIST_UPC_M": 639.2086805446181,
        "INFRA_CERCANA": "I0411",
        "DIST_INFRA_M": 312.77575806602954,
        "DIST_EXISTENTE": 287.3939130838376,
        "DIST_MUNICIPAL": 645.4916384203941,
        "INTERSECCION_O_NODO": "INTERSECCION_VIAL_URBANA",
        "GRADO_NODO": 3,
        "CORREDOR_COINCIDENTE": "CICLOVIAS",
        "CORREDOR_METODO": "Eje intersecta buffer200m; no implica punto sobre eje ni criterio de seleccion",
        "NIVEL_DEL_RESIDUAL": 99,
        "NIVEL_VIOL_RESIDUAL": 95,
        "NIVEL_DV_RESIDUAL": 95,
        "EVENTOS_D_NUEVOS": 8,
        "EVENTOS_V_NUEVOS": 4,
        "EVENTOS_DV_NUEVOS": 12,
        "EVENTOS_C_NUEVOS": 28,
        "AREA_HOTSPOT_D_NUEVA_M2": 13718.204786570828,
        "AREA_HOTSPOT_V_NUEVA_M2": 5014.689330325378,
        "COINCIDENCIA_DV_RESIDUAL_M2": 5014.689330325377,
        "ESTADO_HOTSPOT_DV_PREVIO": "PARCIALMENTE CUBIERTO",
        "SOLAPE_PREVIO_PCT": 37.84890235550797,
        "DIST_EXISTENTE_M": 287.3939130838376,
        "DIST_MUNICIPAL_M": 645.4916384203941,
        "DIST_POLICIA_M": 231.38910526611997,
        "BENEFICIO_MARGINAL": 12,
        "SOLAPE_RESTO_FINAL_PCT": 37.84890235550797,
        "EVENTOS_D_EXCLUSIVOS_FINAL": 8,
        "EVENTOS_V_EXCLUSIVOS_FINAL": 4,
        "BENEFICIO_CONTEXTO": "Exclusivo respecto103+50final+otras29;no sumar entre camaras"
      },
      "geometry": {
        "type": "Point",
        "coordinates": [
          -78.63669234405756,
          -1.6802514338224572
        ]
      }
    }
  ]
}